{"type":"FeatureCollection","xy_coordinate_resolution":1e-06,"features":[{"type":"Feature","properties":{"tip":"playground","nume":null,"sport":null},"geometry":{"type":"Point","coordinates":[28.940405,46.958855]}},{"type":"Feature","properties":{"tip":"playground","nume":null,"sport":null},"geometry":{"type":"Point","coordinates":[28.93493,46.98245]}},{"type":"Feature","properties":{"tip":"playground","nume":null,"sport":null},"geometry":{"type":"Point","coordinates":[28.934936,46.982264]}},{"type":"Feature","properties":{"tip":"playground","nume":null,"sport":null},"geometry":{"type":"Point","coordinates":[28.934972,46.982109]}},{"type":"Feature","properties":{"tip":"playground","nume":null,"sport":null},"geometry":{"type":"Point","coordinates":[28.935309,46.982622]}},{"type":"Feature","properties":{"tip":"playground","nume":null,"sport":null},"geometry":{"type":"Point","coordinates":[28.93492,46.982772]}},{"type":"Feature","properties":{"tip":"playground","nume":null,"sport":null},"geometry":{"type":"Point","coordinates":[28.934265,46.982871]}},{"type":"Feature","properties":{"tip":"playground","nume":null,"sport":null},"geometry":{"type":"Point","coordinates":[28.934424,46.983355]}},{"type":"Feature","properties":{"tip":"playground","nume":null,"sport":null},"geometry":{"type":"Point","coordinates":[28.934964,46.983249]}},{"type":"Feature","properties":{"tip":"playground","nume":null,"sport":null},"geometry":{"type":"Point","coordinates":[28.931861,46.982988]}},{"type":"Feature","properties":{"tip":"playground","nume":null,"sport":null},"geometry":{"type":"Point","coordinates":[28.932502,46.982885]}},{"type":"Feature","properties":{"tip":"fitness_centre","nume":"Forever Fitness","sport":null},"geometry":{"type":"Point","coordinates":[28.937709,46.983934]}},{"type":"Feature","properties":{"tip":"playground","nume":null,"sport":null},"geometry":{"type":"Point","coordinates":[28.94153,46.989459]}},{"type":"Feature","properties":{"tip":"playground","nume":null,"sport":null},"geometry":{"type":"Point","coordinates":[28.933767,46.992911]}},{"type":"Feature","properties":{"tip":"playground","nume":null,"sport":null},"geometry":{"type":"Point","coordinates":[28.947161,46.987421]}},{"type":"Feature","properties":{"tip":"playground","nume":null,"sport":null},"geometry":{"type":"Point","coordinates":[28.94547,46.948576]}}]}