{"type":"FeatureCollection","xy_coordinate_resolution":1e-06,"features":[{"type":"Feature","properties":{"tip":"swimming_pool","nume":null,"sport":null,"ha":0.0},"geometry":{"type":"MultiPolygon","coordinates":[[[[28.943458,46.995405],[28.943468,46.995407],[28.943476,46.99541],[28.943483,46.995416],[28.943486,46.995423],[28.943486,46.99543],[28.943482,46.995436],[28.943476,46.995441],[28.943468,46.995445],[28.943459,46.995446],[28.943449,46.995446],[28.94344,46.995443],[28.943433,46.995439],[28.943428,46.995434],[28.943426,46.995427],[28.943427,46.99542],[28.943431,46.995414],[28.943438,46.995409],[28.943448,46.995406],[28.943458,46.995405]]]]}},{"type":"Feature","properties":{"tip":"garden","nume":null,"sport":null,"ha":0.02},"geometry":{"type":"MultiPolygon","coordinates":[[[[28.943164,46.995893],[28.942976,46.995885],[28.942993,46.995742],[28.943116,46.995749],[28.943158,46.995777],[28.943177,46.995803],[28.943164,46.995893]]]]}},{"type":"Feature","properties":{"tip":"garden","nume":null,"sport":null,"ha":0.01},"geometry":{"type":"MultiPolygon","coordinates":[[[[28.942966,46.995967],[28.942972,46.995921],[28.943179,46.995932],[28.943172,46.995979],[28.942966,46.995967]]]]}},{"type":"Feature","properties":{"tip":"garden","nume":null,"sport":null,"ha":0.0},"geometry":{"type":"MultiPolygon","coordinates":[[[[28.944154,46.997116],[28.944157,46.997084],[28.944218,46.997087],[28.944215,46.997118],[28.944154,46.997116]]]]}},{"type":"Feature","properties":{"tip":"garden","nume":null,"sport":null,"ha":0.0},"geometry":{"type":"MultiPolygon","coordinates":[[[[28.944167,46.997011],[28.94417,46.99698],[28.944231,46.996983],[28.944228,46.997014],[28.944167,46.997011]]]]}},{"type":"Feature","properties":{"tip":"garden","nume":null,"sport":null,"ha":0.0},"geometry":{"type":"MultiPolygon","coordinates":[[[[28.944161,46.99707],[28.944164,46.997026],[28.944215,46.997029],[28.944209,46.997071],[28.944161,46.99707]]]]}},{"type":"Feature","properties":{"tip":"pitch","nume":"Teren de mini-fotbal","sport":"soccer","ha":0.06},"geometry":{"type":"MultiPolygon","coordinates":[[[[28.940554,46.958539],[28.940778,46.958616],[28.940589,46.958872],[28.940517,46.958847],[28.940365,46.958795],[28.940554,46.958539]]]]}},{"type":"Feature","properties":{"tip":"playground","nume":null,"sport":null,"ha":0.0},"geometry":{"type":"MultiPolygon","coordinates":[[[[28.931443,46.99671],[28.931432,46.996705],[28.931529,46.9966],[28.931536,46.996603],[28.931443,46.99671]]]]}},{"type":"Feature","properties":{"tip":"pitch","nume":"Teren de mini-fotbal","sport":"soccer","ha":0.06},"geometry":{"type":"MultiPolygon","coordinates":[[[[28.948409,46.988466],[28.948581,46.988725],[28.948346,46.988798],[28.948174,46.988539],[28.948409,46.988466]]]]}},{"type":"Feature","properties":{"tip":"park","nume":null,"sport":null,"ha":6.55},"geometry":{"type":"MultiPolygon","coordinates":[[[[28.951458,46.982868],[28.951504,46.983117],[28.950711,46.983411],[28.950677,46.983461],[28.94995,46.983646],[28.949915,46.983708],[28.949974,46.983909],[28.949908,46.983919],[28.949932,46.984001],[28.949735,46.983996],[28.949612,46.984213],[28.949501,46.984386],[28.949319,46.984321],[28.949331,46.984263],[28.949198,46.984237],[28.949176,46.984114],[28.948821,46.984156],[28.948858,46.984279],[28.948771,46.984312],[28.948757,46.984364],[28.94836,46.984384],[28.948344,46.984297],[28.94832,46.984161],[28.947909,46.984237],[28.947721,46.983735],[28.947778,46.98368],[28.947615,46.983345],[28.947509,46.983379],[28.94747,46.983214],[28.947408,46.983177],[28.947169,46.983164],[28.947093,46.983182],[28.946952,46.983268],[28.946795,46.983152],[28.946938,46.983041],[28.946918,46.982964],[28.946504,46.982616],[28.946361,46.982669],[28.946225,46.982432],[28.946139,46.982459],[28.946023,46.982249],[28.945673,46.982378],[28.945648,46.982338],[28.944865,46.982594],[28.944835,46.98255],[28.945316,46.982271],[28.945104,46.982187],[28.944909,46.982288],[28.944768,46.982138],[28.944712,46.981975],[28.944601,46.981854],[28.944507,46.981726],[28.944463,46.981677],[28.944588,46.981588],[28.944253,46.981368],[28.94394,46.981094],[28.943728,46.981178],[28.943795,46.981238],[28.943721,46.981274],[28.943465,46.981015],[28.943331,46.981062],[28.943193,46.980947],[28.94305,46.980833],[28.943036,46.980751],[28.943181,46.980816],[28.943487,46.980794],[28.943637,46.980747],[28.94359,46.980524],[28.943728,46.980619],[28.943741,46.980747],[28.943787,46.980838],[28.943886,46.980845],[28.944399,46.981255],[28.944704,46.981455],[28.944906,46.981292],[28.945261,46.981203],[28.945769,46.981181],[28.946901,46.981056],[28.947364,46.98101],[28.947857,46.98099],[28.947934,46.981348],[28.94796,46.981442],[28.947737,46.98147],[28.947616,46.981572],[28.947481,46.981693],[28.947358,46.981817],[28.947218,46.981985],[28.947237,46.982056],[28.947486,46.982476],[28.94823,46.983258],[28.948487,46.983519],[28.949207,46.983483],[28.949331,46.983458],[28.949342,46.983018],[28.951283,46.982881],[28.951458,46.982868]]]]}},{"type":"Feature","properties":{"tip":"pitch","nume":null,"sport":"soccer","ha":0.25},"geometry":{"type":"MultiPolygon","coordinates":[[[[28.937852,46.960023],[28.938634,46.960288],[28.938417,46.960587],[28.937634,46.960321],[28.937852,46.960023]]]]}},{"type":"Feature","properties":{"tip":"playground","nume":null,"sport":null,"ha":0.01},"geometry":{"type":"MultiPolygon","coordinates":[[[[28.937765,46.960534],[28.937916,46.960586],[28.937849,46.960677],[28.937698,46.960625],[28.937765,46.960534]]]]}},{"type":"Feature","properties":{"tip":"garden","nume":null,"sport":null,"ha":0.04},"geometry":{"type":"MultiPolygon","coordinates":[[[[28.934153,46.978206],[28.934052,46.97819],[28.934078,46.978109],[28.93393,46.978006],[28.93395,46.977989],[28.934005,46.977983],[28.93411,46.977998],[28.934307,46.97806],[28.934369,46.97809],[28.934153,46.978206]]]]}},{"type":"Feature","properties":{"tip":"pitch","nume":"Stadionul Bubuieci","sport":"soccer","ha":0.59},"geometry":{"type":"MultiPolygon","coordinates":[[[[28.94106,46.980203],[28.939962,46.980557],[28.939604,46.980041],[28.940701,46.979687],[28.94106,46.980203]]]]}},{"type":"Feature","properties":{"tip":"garden","nume":null,"sport":null,"ha":0.02},"geometry":{"type":"MultiPolygon","coordinates":[[[[28.927319,46.98667],[28.927258,46.986692],[28.927133,46.986644],[28.927004,46.986544],[28.926927,46.986446],[28.927176,46.986609],[28.927253,46.986622],[28.927319,46.98667]]]]}},{"type":"Feature","properties":{"tip":"garden","nume":null,"sport":null,"ha":0.01},"geometry":{"type":"MultiPolygon","coordinates":[[[[28.9317,46.997807],[28.931846,46.997936],[28.931658,46.997781],[28.931645,46.997765],[28.931645,46.997764],[28.931659,46.99777],[28.9317,46.997807]]],[[[28.93219,46.998521],[28.931986,46.998863],[28.931971,46.998855],[28.932042,46.998735],[28.932091,46.998653],[28.932166,46.998526],[28.932225,46.998427],[28.932285,46.998327],[28.931973,46.998058],[28.931978,46.998054],[28.932299,46.998339],[28.932246,46.998427],[28.93219,46.998521]]]]}},{"type":"Feature","properties":{"tip":"garden","nume":null,"sport":null,"ha":0.01},"geometry":{"type":"MultiPolygon","coordinates":[[[[28.932199,46.999511],[28.93219,46.999507],[28.932198,46.999498],[28.9325,46.999163],[28.932519,46.999169],[28.932199,46.999511]]]]}},{"type":"Feature","properties":{"tip":"garden","nume":null,"sport":null,"ha":0.0},"geometry":{"type":"MultiPolygon","coordinates":[[[[28.93093,46.997271],[28.930818,46.997395],[28.9308,46.997387],[28.930862,46.997321],[28.930952,46.99725],[28.93093,46.997271]]]]}},{"type":"Feature","properties":{"tip":"swimming_pool","nume":null,"sport":null,"ha":0.01},"geometry":{"type":"MultiPolygon","coordinates":[[[[28.929089,46.986663],[28.92923,46.986695],[28.929195,46.986768],[28.929138,46.986755],[28.929158,46.986714],[28.929074,46.986695],[28.929089,46.986663]]]]}},{"type":"Feature","properties":{"tip":"park","nume":null,"sport":null,"ha":1.06},"geometry":{"type":"MultiPolygon","coordinates":[[[[28.934427,46.986773],[28.934903,46.98623],[28.935466,46.986511],[28.935234,46.98668],[28.934714,46.987273],[28.934132,46.987709],[28.93371,46.988107],[28.933598,46.988262],[28.933467,46.988639],[28.933416,46.988714],[28.93336,46.988756],[28.933327,46.988765],[28.933212,46.988528],[28.93335,46.988253],[28.93343,46.988093],[28.933602,46.987751],[28.934427,46.986773]]]]}},{"type":"Feature","properties":{"tip":"garden","nume":null,"sport":null,"ha":0.02},"geometry":{"type":"MultiPolygon","coordinates":[[[[28.940379,46.961968],[28.940418,46.961829],[28.940565,46.961878],[28.940447,46.962048],[28.940379,46.961968]]]]}},{"type":"Feature","properties":{"tip":"garden","nume":null,"sport":null,"ha":0.07},"geometry":{"type":"MultiPolygon","coordinates":[[[[28.937636,46.972272],[28.937825,46.972361],[28.937541,46.97265],[28.93747,46.972632],[28.937361,46.972583],[28.937636,46.972272]]]]}},{"type":"Feature","properties":{"tip":"garden","nume":null,"sport":null,"ha":0.1},"geometry":{"type":"MultiPolygon","coordinates":[[[[28.935802,46.981788],[28.93548,46.981798],[28.935455,46.981429],[28.935777,46.981419],[28.935802,46.981788]]]]}},{"type":"Feature","properties":{"tip":"garden","nume":null,"sport":null,"ha":0.13},"geometry":{"type":"MultiPolygon","coordinates":[[[[28.935997,46.982509],[28.93617,46.982503],[28.936138,46.982535],[28.936032,46.982603],[28.935888,46.982648],[28.935882,46.982541],[28.935873,46.982408],[28.935678,46.982424],[28.935661,46.982046],[28.935917,46.982061],[28.936004,46.982066],[28.93609,46.98206],[28.936138,46.982057],[28.936144,46.982151],[28.93606,46.982154],[28.936057,46.982108],[28.935967,46.982111],[28.935985,46.982352],[28.935997,46.982509]]]]}},{"type":"Feature","properties":{"tip":"garden","nume":null,"sport":null,"ha":0.74},"geometry":{"type":"MultiPolygon","coordinates":[[[[28.933904,46.981603],[28.9339,46.981121],[28.934,46.981113],[28.934083,46.981107],[28.934383,46.981084],[28.93474,46.981057],[28.934738,46.980849],[28.934939,46.980836],[28.934945,46.980936],[28.934885,46.980939],[28.934926,46.98135],[28.93495,46.981348],[28.934985,46.981849],[28.933815,46.981898],[28.933874,46.981741],[28.933904,46.981603]]]]}},{"type":"Feature","properties":{"tip":"pitch","nume":null,"sport":"soccer","ha":0.07},"geometry":{"type":"MultiPolygon","coordinates":[[[[28.941118,46.98065],[28.940831,46.980738],[28.940663,46.980481],[28.94095,46.980394],[28.941118,46.98065]]]]}},{"type":"Feature","properties":{"tip":"playground","nume":null,"sport":null,"ha":0.02},"geometry":{"type":"MultiPolygon","coordinates":[[[[28.934377,46.982319],[28.93437,46.982193],[28.934451,46.982191],[28.934559,46.982188],[28.934566,46.982315],[28.934377,46.982319]]]]}},{"type":"Feature","properties":{"tip":"garden","nume":null,"sport":null,"ha":1.18},"geometry":{"type":"MultiPolygon","coordinates":[[[[28.935193,46.981884],[28.935197,46.981949],[28.934725,46.981962],[28.934733,46.982605],[28.935135,46.982601],[28.935139,46.982708],[28.935066,46.982751],[28.934999,46.982695],[28.934906,46.982652],[28.934848,46.982645],[28.934759,46.98265],[28.934467,46.982668],[28.934283,46.982686],[28.934185,46.982722],[28.934119,46.982815],[28.934096,46.983031],[28.934112,46.983274],[28.934147,46.983294],[28.934134,46.983313],[28.934109,46.983318],[28.933948,46.983323],[28.93355,46.983326],[28.933483,46.983303],[28.933493,46.983289],[28.933488,46.983206],[28.93333,46.983184],[28.933337,46.983141],[28.933224,46.983133],[28.933482,46.982568],[28.933753,46.981972],[28.933795,46.98194],[28.934351,46.981919],[28.934431,46.981916],[28.935193,46.981884]]]]}},{"type":"Feature","properties":{"tip":"garden","nume":null,"sport":null,"ha":0.34},"geometry":{"type":"MultiPolygon","coordinates":[[[[28.935586,46.982695],[28.935612,46.982682],[28.935628,46.983053],[28.935623,46.983141],[28.935592,46.983185],[28.935558,46.983223],[28.935605,46.983266],[28.935583,46.983443],[28.935415,46.983434],[28.935274,46.983426],[28.935282,46.983401],[28.9351,46.983403],[28.934879,46.983413],[28.934878,46.98342],[28.934561,46.983427],[28.934428,46.983416],[28.935074,46.983391],[28.935066,46.982751],[28.935139,46.982708],[28.935586,46.982695]]]]}},{"type":"Feature","properties":{"tip":"park","nume":"Parcul Public Bubuieci","sport":null,"ha":0.38},"geometry":{"type":"MultiPolygon","coordinates":[[[[28.933709,46.980816],[28.93265,46.980841],[28.932637,46.980697],[28.932623,46.980558],[28.932609,46.98041],[28.932683,46.98041],[28.932901,46.980409],[28.933124,46.980408],[28.93324,46.980408],[28.933349,46.980408],[28.933688,46.980406],[28.933709,46.980816]]]]}},{"type":"Feature","properties":{"tip":"garden","nume":null,"sport":null,"ha":0.04},"geometry":{"type":"MultiPolygon","coordinates":[[[[28.933374,46.980907],[28.93232,46.980946],[28.932316,46.980915],[28.932334,46.980903],[28.932371,46.980892],[28.933336,46.980867],[28.933361,46.980881],[28.933374,46.980907]]]]}},{"type":"Feature","properties":{"tip":"garden","nume":null,"sport":null,"ha":0.06},"geometry":{"type":"MultiPolygon","coordinates":[[[[28.933709,46.980895],[28.933452,46.980904],[28.933468,46.980864],[28.933503,46.980859],[28.933704,46.980858],[28.933752,46.980869],[28.933763,46.980894],[28.933767,46.981535],[28.933717,46.98176],[28.933676,46.981863],[28.933582,46.981854],[28.933667,46.981678],[28.933698,46.981585],[28.933707,46.981325],[28.933709,46.980895]]]]}},{"type":"Feature","properties":{"tip":"pitch","nume":"Teren de fotbal","sport":"soccer","ha":0.15},"geometry":{"type":"MultiPolygon","coordinates":[[[[28.931701,46.981167],[28.931754,46.981659],[28.931402,46.981677],[28.931349,46.981185],[28.931701,46.981167]]]]}},{"type":"Feature","properties":{"tip":"pitch","nume":null,"sport":null,"ha":0.02},"geometry":{"type":"MultiPolygon","coordinates":[[[[28.931713,46.98105],[28.931719,46.981151],[28.931468,46.981159],[28.931462,46.981058],[28.931713,46.98105]]]]}},{"type":"Feature","properties":{"tip":"pitch","nume":null,"sport":null,"ha":0.02},"geometry":{"type":"MultiPolygon","coordinates":[[[[28.932293,46.981663],[28.93206,46.981672],[28.932052,46.981574],[28.932285,46.981566],[28.932293,46.981663]]]]}},{"type":"Feature","properties":{"tip":"garden","nume":null,"sport":null,"ha":0.03},"geometry":{"type":"MultiPolygon","coordinates":[[[[28.933769,46.980814],[28.933709,46.980816],[28.933688,46.980406],[28.93368,46.98027],[28.933732,46.980267],[28.933769,46.980814]]]]}},{"type":"Feature","properties":{"tip":"playground","nume":null,"sport":null,"ha":0.01},"geometry":{"type":"MultiPolygon","coordinates":[[[[28.932288,46.982463],[28.932159,46.98246],[28.932165,46.982337],[28.932295,46.98234],[28.932288,46.982463]]]]}},{"type":"Feature","properties":{"tip":"garden","nume":null,"sport":null,"ha":0.02},"geometry":{"type":"MultiPolygon","coordinates":[[[[28.930793,46.981839],[28.930828,46.981686],[28.931042,46.9817],[28.931042,46.981709],[28.930926,46.981701],[28.930904,46.981846],[28.931022,46.981854],[28.93102,46.981866],[28.930793,46.981839]]]]}},{"type":"Feature","properties":{"tip":"garden","nume":null,"sport":null,"ha":0.03},"geometry":{"type":"MultiPolygon","coordinates":[[[[28.931582,46.981884],[28.931448,46.981877],[28.931472,46.981751],[28.93126,46.981732],[28.931245,46.981808],[28.931227,46.981807],[28.931238,46.981713],[28.931344,46.981721],[28.931822,46.981753],[28.931905,46.981754],[28.931908,46.981785],[28.931835,46.981783],[28.931601,46.981766],[28.931582,46.981884]]]]}},{"type":"Feature","properties":{"tip":"garden","nume":null,"sport":null,"ha":0.07},"geometry":{"type":"MultiPolygon","coordinates":[[[[28.931943,46.983339],[28.932165,46.983339],[28.932164,46.983359],[28.932155,46.983497],[28.932105,46.983498],[28.931646,46.983495],[28.931379,46.983497],[28.931395,46.983473],[28.931415,46.983442],[28.931635,46.983446],[28.931747,46.983382],[28.931878,46.983328],[28.931915,46.983334],[28.931943,46.983339]]]]}},{"type":"Feature","properties":{"tip":"swimming_pool","nume":null,"sport":null,"ha":0.0},"geometry":{"type":"MultiPolygon","coordinates":[[[[28.932677,46.983574],[28.932642,46.983573],[28.932646,46.983521],[28.93268,46.983522],[28.932677,46.983574]]]]}},{"type":"Feature","properties":{"tip":"garden","nume":null,"sport":null,"ha":0.02},"geometry":{"type":"MultiPolygon","coordinates":[[[[28.932455,46.982797],[28.932583,46.982795],[28.932526,46.983048],[28.932445,46.983044],[28.932455,46.982797]]]]}},{"type":"Feature","properties":{"tip":"garden","nume":null,"sport":null,"ha":0.07},"geometry":{"type":"MultiPolygon","coordinates":[[[[28.932652,46.983031],[28.93266,46.983118],[28.932642,46.983117],[28.932627,46.98311],[28.93262,46.983014],[28.932628,46.982971],[28.932677,46.982938],[28.932799,46.982936],[28.9328,46.982947],[28.932758,46.982949],[28.932762,46.98299],[28.932794,46.982988],[28.932796,46.983014],[28.932992,46.983006],[28.932974,46.982805],[28.933159,46.982811],[28.933193,46.98283],[28.933106,46.983012],[28.933012,46.983016],[28.932972,46.98316],[28.933036,46.983179],[28.932989,46.983281],[28.932893,46.983283],[28.932869,46.983022],[28.932652,46.983031]]]]}},{"type":"Feature","properties":{"tip":"garden","nume":null,"sport":null,"ha":0.0},"geometry":{"type":"MultiPolygon","coordinates":[[[[28.932164,46.983359],[28.932165,46.983339],[28.932166,46.983321],[28.932216,46.983322],[28.932212,46.983361],[28.932164,46.983359]]]]}},{"type":"Feature","properties":{"tip":"garden","nume":null,"sport":null,"ha":0.01},"geometry":{"type":"MultiPolygon","coordinates":[[[[28.932402,46.983367],[28.93226,46.983362],[28.932261,46.983334],[28.932275,46.983326],[28.932382,46.983328],[28.93242,46.983334],[28.932418,46.983368],[28.932402,46.983367]]]]}},{"type":"Feature","properties":{"tip":"garden","nume":null,"sport":null,"ha":0.0},"geometry":{"type":"MultiPolygon","coordinates":[[[[28.9326,46.983374],[28.932548,46.983372],[28.932553,46.983356],[28.93262,46.98337],[28.932724,46.983405],[28.932701,46.983405],[28.9326,46.983374]]]]}},{"type":"Feature","properties":{"tip":"garden","nume":null,"sport":null,"ha":0.09},"geometry":{"type":"MultiPolygon","coordinates":[[[[28.932445,46.983044],[28.932435,46.983242],[28.932484,46.983254],[28.932507,46.983274],[28.932533,46.983291],[28.932418,46.983261],[28.932112,46.983258],[28.932098,46.983096],[28.93214,46.983098],[28.932144,46.983173],[28.932166,46.983173],[28.932168,46.983223],[28.932221,46.983222],[28.93222,46.9832],[28.93231,46.983199],[28.932308,46.983165],[28.932339,46.983165],[28.932331,46.98298],[28.932293,46.982981],[28.93229,46.982927],[28.932326,46.982926],[28.932317,46.982724],[28.932282,46.982725],[28.932282,46.982704],[28.932195,46.982706],[28.932194,46.982686],[28.932138,46.982687],[28.93214,46.982739],[28.932118,46.98274],[28.932121,46.982799],[28.932074,46.982799],[28.93207,46.982694],[28.932101,46.982669],[28.932125,46.982665],[28.93245,46.982656],[28.932453,46.982729],[28.932455,46.982797],[28.932445,46.983044]]]]}},{"type":"Feature","properties":{"tip":"garden","nume":null,"sport":null,"ha":0.01},"geometry":{"type":"MultiPolygon","coordinates":[[[[28.932079,46.98285],[28.932125,46.982849],[28.932135,46.983053],[28.932088,46.983054],[28.932079,46.98285]]]]}},{"type":"Feature","properties":{"tip":"garden","nume":null,"sport":null,"ha":0.59},"geometry":{"type":"MultiPolygon","coordinates":[[[[28.932377,46.982499],[28.932424,46.982506],[28.932431,46.982594],[28.932388,46.982621],[28.932336,46.982629],[28.932058,46.982627],[28.932016,46.982656],[28.932005,46.982682],[28.932036,46.983131],[28.932043,46.983255],[28.93188,46.983253],[28.931882,46.983189],[28.931599,46.983184],[28.931415,46.983442],[28.931395,46.983473],[28.931379,46.983497],[28.931219,46.983498],[28.931221,46.98388],[28.931345,46.983874],[28.931381,46.983956],[28.931249,46.984041],[28.931092,46.984162],[28.93104,46.984135],[28.93114,46.983988],[28.931166,46.983954],[28.931064,46.983922],[28.931101,46.983492],[28.931118,46.983398],[28.931403,46.983389],[28.931546,46.983123],[28.931731,46.982754],[28.931791,46.98245],[28.931814,46.982369],[28.931831,46.982253],[28.93209,46.982269],[28.932129,46.981981],[28.932164,46.981946],[28.932421,46.981919],[28.932703,46.981912],[28.932835,46.981936],[28.932902,46.981977],[28.932397,46.981984],[28.932406,46.982087],[28.932358,46.982088],[28.932377,46.982499]]]]}},{"type":"Feature","properties":{"tip":"garden","nume":null,"sport":null,"ha":0.15},"geometry":{"type":"MultiPolygon","coordinates":[[[[28.933173,46.982075],[28.933183,46.982085],[28.932916,46.982032],[28.932904,46.982205],[28.932897,46.9823],[28.932907,46.982689],[28.932907,46.982734],[28.932821,46.982736],[28.932724,46.982749],[28.932583,46.982795],[28.932455,46.982797],[28.932453,46.982729],[28.932573,46.982724],[28.932572,46.982679],[28.932719,46.982674],[28.932674,46.982036],[28.932672,46.98202],[28.932958,46.982011],[28.933034,46.982022],[28.933178,46.982065],[28.933173,46.982075]]]]}},{"type":"Feature","properties":{"tip":"garden","nume":null,"sport":null,"ha":0.08},"geometry":{"type":"MultiPolygon","coordinates":[[[[28.933269,46.98229],[28.933318,46.982189],[28.933395,46.9822],[28.93343,46.982222],[28.933457,46.982254],[28.933457,46.982273],[28.933311,46.982583],[28.933233,46.982767],[28.933146,46.98276],[28.93308,46.982742],[28.932907,46.982734],[28.932907,46.982689],[28.933168,46.982706],[28.933224,46.9826],[28.933139,46.982579],[28.933125,46.982575],[28.933229,46.98237],[28.933269,46.98229]]]]}},{"type":"Feature","properties":{"tip":"swimming_pool","nume":null,"sport":null,"ha":0.0},"geometry":{"type":"MultiPolygon","coordinates":[[[[28.934578,46.980691],[28.934587,46.980686],[28.934597,46.980684],[28.934607,46.980684],[28.934617,46.980687],[28.934625,46.980691],[28.93463,46.980697],[28.934633,46.980704],[28.934632,46.980711],[28.934627,46.980718],[28.93462,46.980723],[28.934611,46.980726],[28.9346,46.980727],[28.93459,46.980726],[28.934581,46.980722],[28.934574,46.980717],[28.93457,46.98071],[28.934569,46.980703],[28.934572,46.980696],[28.934578,46.980691]]]]}},{"type":"Feature","properties":{"tip":"garden","nume":null,"sport":null,"ha":0.01},"geometry":{"type":"MultiPolygon","coordinates":[[[[28.934015,46.980832],[28.933891,46.980841],[28.933888,46.980785],[28.934034,46.980783],[28.934036,46.980816],[28.934015,46.980832]]]]}},{"type":"Feature","properties":{"tip":"garden","nume":null,"sport":null,"ha":0.02},"geometry":{"type":"MultiPolygon","coordinates":[[[[28.9339,46.981121],[28.933892,46.980882],[28.933926,46.980878],[28.933981,46.980895],[28.933996,46.980913],[28.934,46.981113],[28.9339,46.981121]]]]}},{"type":"Feature","properties":{"tip":"swimming_pool","nume":null,"sport":null,"ha":0.0},"geometry":{"type":"MultiPolygon","coordinates":[[[[28.93428,46.980907],[28.934237,46.980908],[28.934234,46.980862],[28.934276,46.980861],[28.93428,46.980907]]]]}},{"type":"Feature","properties":{"tip":"garden","nume":null,"sport":null,"ha":0.0},"geometry":{"type":"MultiPolygon","coordinates":[[[[28.937931,46.984242],[28.93781,46.984229],[28.937831,46.984193],[28.937965,46.984195],[28.93795,46.984213],[28.937931,46.984242]]]]}},{"type":"Feature","properties":{"tip":"garden","nume":null,"sport":null,"ha":0.04},"geometry":{"type":"MultiPolygon","coordinates":[[[[28.938947,46.984468],[28.938561,46.98431],[28.938638,46.984253],[28.938834,46.984354],[28.938865,46.984346],[28.938932,46.984265],[28.939117,46.984276],[28.93902,46.984386],[28.938947,46.984468]]]]}},{"type":"Feature","properties":{"tip":"garden","nume":null,"sport":null,"ha":0.0},"geometry":{"type":"MultiPolygon","coordinates":[[[[28.938681,46.983981],[28.938681,46.984022],[28.938642,46.984022],[28.938642,46.984],[28.938549,46.984],[28.938549,46.984039],[28.938516,46.984039],[28.938516,46.983981],[28.938681,46.983981]]]]}},{"type":"Feature","properties":{"tip":"garden","nume":null,"sport":null,"ha":0.0},"geometry":{"type":"MultiPolygon","coordinates":[[[[28.938551,46.984113],[28.938681,46.984113],[28.93868,46.984136],[28.938516,46.984136],[28.938516,46.984077],[28.938551,46.984077],[28.938551,46.984113]]]]}},{"type":"Feature","properties":{"tip":"garden","nume":null,"sport":null,"ha":0.08},"geometry":{"type":"MultiPolygon","coordinates":[[[[28.938709,46.981431],[28.93876,46.9809],[28.938837,46.980915],[28.938823,46.980949],[28.938839,46.980974],[28.938802,46.98114],[28.93877,46.981446],[28.938686,46.98172],[28.938665,46.98185],[28.938651,46.982003],[28.938601,46.982189],[28.938491,46.982172],[28.938555,46.981987],[28.938661,46.981635],[28.938709,46.981431]]]]}},{"type":"Feature","properties":{"tip":"swimming_pool","nume":null,"sport":null,"ha":0.0},"geometry":{"type":"MultiPolygon","coordinates":[[[[28.938232,46.981445],[28.938224,46.981495],[28.938184,46.981491],[28.938193,46.981442],[28.938232,46.981445]]]]}},{"type":"Feature","properties":{"tip":"garden","nume":null,"sport":null,"ha":0.09},"geometry":{"type":"MultiPolygon","coordinates":[[[[28.944962,46.984105],[28.944899,46.983957],[28.94509,46.98384],[28.945313,46.983741],[28.945432,46.983989],[28.944962,46.984105]]]]}},{"type":"Feature","properties":{"tip":"garden","nume":null,"sport":null,"ha":0.14},"geometry":{"type":"MultiPolygon","coordinates":[[[[28.938836,46.987947],[28.938957,46.987798],[28.93981,46.988172],[28.939669,46.98831],[28.938836,46.987947]]]]}},{"type":"Feature","properties":{"tip":"garden","nume":null,"sport":null,"ha":0.12},"geometry":{"type":"MultiPolygon","coordinates":[[[[28.938742,46.987678],[28.938917,46.987752],[28.938773,46.987911],[28.938149,46.987641],[28.938295,46.987488],[28.938742,46.987678]]]]}},{"type":"Feature","properties":{"tip":"garden","nume":null,"sport":null,"ha":0.03},"geometry":{"type":"MultiPolygon","coordinates":[[[[28.937742,46.987217],[28.937895,46.987285],[28.937739,46.987445],[28.937729,46.987455],[28.937585,46.987394],[28.937742,46.987217]]]]}},{"type":"Feature","properties":{"tip":"garden","nume":null,"sport":null,"ha":0.17},"geometry":{"type":"MultiPolygon","coordinates":[[[[28.935872,46.986485],[28.936007,46.986546],[28.935926,46.986626],[28.934222,46.985779],[28.934277,46.985682],[28.934332,46.985732],[28.934296,46.985782],[28.935075,46.98609],[28.935045,46.986133],[28.935277,46.986239],[28.935425,46.98605],[28.935503,46.986072],[28.93542,46.986173],[28.935433,46.986192],[28.935664,46.9863],[28.935731,46.986396],[28.935781,46.986398],[28.935796,46.986387],[28.935821,46.986398],[28.935853,46.986412],[28.935848,46.986458],[28.935872,46.986485]]]]}},{"type":"Feature","properties":{"tip":"garden","nume":null,"sport":null,"ha":0.08},"geometry":{"type":"MultiPolygon","coordinates":[[[[28.931924,46.985521],[28.931859,46.985533],[28.931841,46.985539],[28.93147,46.984754],[28.931521,46.984746],[28.931826,46.985173],[28.931958,46.985437],[28.931924,46.985521]]]]}},{"type":"Feature","properties":{"tip":"garden","nume":null,"sport":null,"ha":0.15},"geometry":{"type":"MultiPolygon","coordinates":[[[[28.93312,46.988609],[28.932969,46.988639],[28.932479,46.987447],[28.932382,46.987427],[28.932475,46.987304],[28.932518,46.987295],[28.93312,46.988609]]]]}},{"type":"Feature","properties":{"tip":"garden","nume":null,"sport":null,"ha":0.07},"geometry":{"type":"MultiPolygon","coordinates":[[[[28.933979,46.992893],[28.933695,46.99303],[28.933523,46.992864],[28.933516,46.992839],[28.933545,46.992809],[28.933881,46.992733],[28.933912,46.992737],[28.93393,46.992754],[28.93394,46.992794],[28.933979,46.992893]]]]}},{"type":"Feature","properties":{"tip":"garden","nume":null,"sport":null,"ha":0.06},"geometry":{"type":"MultiPolygon","coordinates":[[[[28.934441,46.993066],[28.934421,46.993043],[28.934495,46.992963],[28.934469,46.992864],[28.934385,46.992493],[28.934503,46.992478],[28.934608,46.992898],[28.934607,46.992938],[28.934561,46.992994],[28.934441,46.993066]]]]}},{"type":"Feature","properties":{"tip":"garden","nume":null,"sport":null,"ha":0.06},"geometry":{"type":"MultiPolygon","coordinates":[[[[28.935434,46.998903],[28.935569,46.998754],[28.935941,46.99891],[28.935807,46.999059],[28.935434,46.998903]]]]}},{"type":"Feature","properties":{"tip":"garden","nume":null,"sport":null,"ha":0.06},"geometry":{"type":"MultiPolygon","coordinates":[[[[28.935248,46.998619],[28.935569,46.998754],[28.935434,46.998903],[28.935114,46.998768],[28.935248,46.998619]]]]}},{"type":"Feature","properties":{"tip":"garden","nume":null,"sport":null,"ha":0.06},"geometry":{"type":"MultiPolygon","coordinates":[[[[28.935114,46.998768],[28.935434,46.998903],[28.935296,46.999057],[28.934975,46.998922],[28.935114,46.998768]]]]}},{"type":"Feature","properties":{"tip":"garden","nume":null,"sport":null,"ha":0.58},"geometry":{"type":"MultiPolygon","coordinates":[[[[28.935848,46.993944],[28.93583,46.994018],[28.935699,46.99386],[28.935649,46.993798],[28.935611,46.993753],[28.935371,46.993719],[28.935437,46.993478],[28.935553,46.993051],[28.935519,46.993026],[28.936009,46.99317],[28.936452,46.993372],[28.936237,46.994018],[28.936084,46.993989],[28.935935,46.993959],[28.935848,46.993944]]]]}},{"type":"Feature","properties":{"tip":"garden","nume":null,"sport":null,"ha":0.06},"geometry":{"type":"MultiPolygon","coordinates":[[[[28.934942,46.998684],[28.934803,46.998841],[28.934469,46.998703],[28.934608,46.998546],[28.934942,46.998684]]]]}},{"type":"Feature","properties":{"tip":"garden","nume":null,"sport":null,"ha":0.04},"geometry":{"type":"MultiPolygon","coordinates":[[[[28.934136,46.998566],[28.934356,46.998657],[28.934213,46.998811],[28.933998,46.998723],[28.934136,46.998566]]]]}},{"type":"Feature","properties":{"tip":"garden","nume":null,"sport":null,"ha":0.07},"geometry":{"type":"MultiPolygon","coordinates":[[[[28.930596,46.984986],[28.93066,46.985002],[28.930194,46.985591],[28.930127,46.985563],[28.930102,46.985524],[28.93055,46.984969],[28.930596,46.984986]]]]}},{"type":"Feature","properties":{"tip":"garden","nume":null,"sport":null,"ha":0.01},"geometry":{"type":"MultiPolygon","coordinates":[[[[28.941687,46.984442],[28.941742,46.984552],[28.941593,46.984445],[28.941502,46.984402],[28.941527,46.984383],[28.94156,46.98438],[28.941622,46.9844],[28.941687,46.984442]]]]}},{"type":"Feature","properties":{"tip":"garden","nume":null,"sport":null,"ha":0.01},"geometry":{"type":"MultiPolygon","coordinates":[[[[28.940268,46.958158],[28.940224,46.958233],[28.940153,46.958213],[28.940198,46.958139],[28.940268,46.958158]]]]}},{"type":"Feature","properties":{"tip":"garden","nume":null,"sport":null,"ha":0.0},"geometry":{"type":"MultiPolygon","coordinates":[[[[28.940155,46.95824],[28.940195,46.958252],[28.940179,46.958279],[28.940138,46.958268],[28.940155,46.95824]]]]}},{"type":"Feature","properties":{"tip":"garden","nume":null,"sport":null,"ha":0.0},"geometry":{"type":"MultiPolygon","coordinates":[[[[28.951334,46.943187],[28.951161,46.943261],[28.951302,46.943201],[28.951334,46.943187],[28.951334,46.943187]]]]}},{"type":"Feature","properties":{"tip":"garden","nume":null,"sport":null,"ha":0.0},"geometry":{"type":"MultiPolygon","coordinates":[[[[28.945674,46.948757],[28.945763,46.948815],[28.945703,46.948831],[28.945627,46.948796],[28.945674,46.948757]]]]}},{"type":"Feature","properties":{"tip":"swimming_pool","nume":null,"sport":null,"ha":0.01},"geometry":{"type":"MultiPolygon","coordinates":[[[[28.954451,47.00044],[28.954394,47.000466],[28.954339,47.000442],[28.954355,47.000399],[28.954412,47.000375],[28.954457,47.000396],[28.954451,47.00044]]]]}},{"type":"Feature","properties":{"tip":"pitch","nume":null,"sport":"soccer","ha":0.02},"geometry":{"type":"MultiPolygon","coordinates":[[[[28.954573,47.000616],[28.954705,47.000689],[28.954548,47.000822],[28.954416,47.00075],[28.954573,47.000616]]]]}}]}