{"type":"FeatureCollection","xy_coordinate_resolution":1e-06,"features":[{"type":"Feature","properties":{"nume":"Bubuieci","populatie":7617,"barbati":3707,"femei":3910},"geometry":{"type":"Polygon","coordinates":[[[28.942603,47.008625],[28.941982,47.008906],[28.940714,47.009496],[28.940178,47.009756],[28.938844,47.010376],[28.938208,47.010686],[28.937985,47.010768],[28.937673,47.010836],[28.937461,47.010845],[28.937274,47.010833],[28.937157,47.010814],[28.937694,47.010684],[28.93805,47.010585],[28.938193,47.010438],[28.938251,47.010381],[28.938346,47.010285],[28.939964,47.009471],[28.94046,47.009269],[28.941187,47.008881],[28.941507,47.008717],[28.941986,47.008481],[28.942018,47.008503],[28.942261,47.008369],[28.942708,47.008106],[28.942769,47.008151],[28.943064,47.008029],[28.943318,47.007941],[28.943526,47.007814],[28.943616,47.007862],[28.943778,47.007721],[28.94354,47.007559],[28.944094,47.00723],[28.94218,47.006217],[28.942352,47.006084],[28.94211,47.00594],[28.942441,47.005708],[28.942552,47.00563],[28.942759,47.005567],[28.943372,47.005469],[28.943372,47.005469],[28.943372,47.005468],[28.943659,47.005274],[28.943967,47.005031],[28.944939,47.004263],[28.94527,47.004477],[28.946225,47.005077],[28.946653,47.00481],[28.946883,47.004514],[28.947731,47.003864],[28.948325,47.003409],[28.948639,47.003621],[28.9489,47.003798],[28.94962,47.004296],[28.950773,47.003445],[28.951012,47.003268],[28.951159,47.003147],[28.952159,47.002319],[28.952423,47.0021],[28.952862,47.001742],[28.953316,47.001371],[28.953234,47.001326],[28.953235,47.001325],[28.953734,47.000938],[28.953537,47.000374],[28.953484,47.000333],[28.953527,47.000302],[28.953236,47.00012],[28.953128,47.000057],[28.95293,46.999904],[28.952923,46.999898],[28.952814,46.999819],[28.952348,46.999485],[28.952257,46.999372],[28.951556,46.99933],[28.951397,46.999321],[28.94932,46.998903],[28.948946,46.998828],[28.948304,46.998701],[28.947584,46.998559],[28.947227,46.998499],[28.94651,46.998377],[28.946078,46.998304],[28.945565,46.998201],[28.945212,46.998148],[28.945202,46.998165],[28.944699,46.998071],[28.944418,46.998013],[28.943532,46.997834],[28.943318,46.99779],[28.943273,46.997781],[28.94309,46.997724],[28.942783,46.997604],[28.942372,46.997376],[28.942372,46.997376],[28.940955,46.996771],[28.940885,46.996864],[28.940346,46.996678],[28.94027,46.996753],[28.940155,46.996866],[28.939636,46.997272],[28.939493,46.997383],[28.93949,46.997389],[28.939388,46.997469],[28.939351,46.997498],[28.939022,46.997632],[28.938869,46.997768],[28.938779,46.99773],[28.938709,46.997806],[28.93864,46.997883],[28.938654,46.997888],[28.938573,46.997933],[28.938414,46.998046],[28.938095,46.998272],[28.937836,46.998495],[28.937473,46.998807],[28.937435,46.998788],[28.936992,46.999205],[28.935444,47.000651],[28.935094,47.000882],[28.934159,47.000492],[28.934015,47.000369],[28.932094,46.999618],[28.932198,46.999498],[28.932524,46.999137],[28.932324,46.999037],[28.931971,46.998855],[28.932042,46.998735],[28.932091,46.998653],[28.932166,46.998526],[28.932225,46.998427],[28.932285,46.998327],[28.931973,46.998058],[28.931982,46.998049],[28.931658,46.997781],[28.931645,46.997765],[28.931645,46.997758],[28.931595,46.99774],[28.931488,46.997692],[28.931266,46.997592],[28.931042,46.997492],[28.930898,46.99743],[28.930855,46.997411],[28.9308,46.997387],[28.93108,46.997086],[28.932895,46.995121],[28.933222,46.993898],[28.933354,46.993623],[28.933186,46.993495],[28.932664,46.993353],[28.931824,46.993048],[28.928959,46.992007],[28.927323,46.991431],[28.92655,46.991095],[28.926416,46.990898],[28.927253,46.989205],[28.927557,46.988591],[28.928626,46.986431],[28.928703,46.986268],[28.927436,46.98676],[28.927122,46.98664],[28.926823,46.986406],[28.926572,46.98625],[28.926182,46.985888],[28.924982,46.985135],[28.922843,46.983852],[28.922583,46.983696],[28.921651,46.983178],[28.920022,46.982271],[28.91941,46.981645],[28.918767,46.981093],[28.917956,46.980425],[28.915927,46.978806],[28.914365,46.977625],[28.913516,46.977146],[28.913974,46.976695],[28.913285,46.976363],[28.913769,46.975894],[28.913649,46.975848],[28.913588,46.975824],[28.912482,46.975399],[28.912307,46.97533],[28.912728,46.973818],[28.913169,46.972233],[28.913603,46.971492],[28.914603,46.970301],[28.914946,46.970162],[28.915508,46.969552],[28.916032,46.968971],[28.91607,46.968803],[28.91618,46.968637],[28.917047,46.967789],[28.917162,46.967687],[28.917169,46.967681],[28.917462,46.967421],[28.918414,46.966572],[28.921971,46.963687],[28.923119,46.962492],[28.925421,46.959658],[28.925627,46.959383],[28.925693,46.959291],[28.925616,46.959264],[28.92629,46.95845],[28.927063,46.957483],[28.927727,46.956646],[28.928479,46.956895],[28.928525,46.956975],[28.928556,46.957074],[28.928785,46.957209],[28.929494,46.957475],[28.929806,46.957586],[28.930398,46.957824],[28.930636,46.957878],[28.93112,46.95697],[28.931997,46.955327],[28.932213,46.955367],[28.932847,46.954408],[28.933556,46.953593],[28.934177,46.953061],[28.936033,46.951788],[28.937194,46.950991],[28.937574,46.950843],[28.937854,46.950768],[28.938297,46.950681],[28.938475,46.950631],[28.939184,46.950203],[28.939858,46.949645],[28.940708,46.94904],[28.940838,46.948947],[28.940925,46.948835],[28.942044,46.947929],[28.942203,46.947788],[28.942385,46.947665],[28.942506,46.947551],[28.942657,46.947479],[28.942812,46.947316],[28.943873,46.946717],[28.944291,46.946455],[28.944335,46.946399],[28.944729,46.946148],[28.944938,46.946059],[28.94505,46.945959],[28.948228,46.944043],[28.948266,46.94402],[28.948565,46.943776],[28.949163,46.943274],[28.949191,46.943098],[28.949322,46.942879],[28.949352,46.942703],[28.949315,46.942636],[28.949915,46.942472],[28.950445,46.942875],[28.95062,46.942958],[28.950826,46.943118],[28.950858,46.943149],[28.950937,46.943177],[28.950917,46.943196],[28.951096,46.943289],[28.951302,46.943201],[28.951334,46.943187],[28.951431,46.943246],[28.951471,46.943279],[28.951738,46.943451],[28.951835,46.943529],[28.951885,46.943569],[28.952003,46.943695],[28.952371,46.944133],[28.952393,46.944123],[28.952444,46.944171],[28.952897,46.944594],[28.952932,46.94463],[28.953152,46.944859],[28.953199,46.944915],[28.953197,46.944954],[28.95339,46.945139],[28.953538,46.94527],[28.953663,46.945368],[28.953907,46.94558],[28.953975,46.945639],[28.95411,46.945756],[28.954153,46.945734],[28.954231,46.945784],[28.954461,46.94599],[28.954734,46.946191],[28.954815,46.946243],[28.954821,46.946313],[28.955144,46.946619],[28.955506,46.946968],[28.955787,46.947296],[28.95617,46.947511],[28.957,46.947702],[28.957412,46.947794],[28.958388,46.947948],[28.958818,46.948115],[28.9593,46.948364],[28.959585,46.94836],[28.960002,46.948352],[28.960313,46.948396],[28.96146,46.94849],[28.962611,46.9486],[28.962711,46.948677],[28.962835,46.948703],[28.963632,46.948755],[28.963814,46.948842],[28.963885,46.948967],[28.96385,46.949191],[28.964381,46.949246],[28.964437,46.949254],[28.965,46.949327],[28.96556,46.949399],[28.965989,46.949455],[28.966119,46.949462],[28.966617,46.949489],[28.966679,46.9495],[28.967217,46.949593],[28.967757,46.949687],[28.968172,46.94976],[28.96831,46.949747],[28.968879,46.949695],[28.968942,46.94969],[28.969399,46.949752],[28.96949,46.949763],[28.970001,46.94982],[28.97052,46.949786],[28.971088,46.949836],[28.971754,46.950065],[28.971964,46.950012],[28.972155,46.949908],[28.972254,46.949783],[28.972357,46.94954],[28.972711,46.949226],[28.972748,46.949182],[28.973031,46.949174],[28.974516,46.949117],[28.974523,46.949258],[28.974189,46.95024],[28.974098,46.950536],[28.972996,46.95352],[28.973055,46.953912],[28.973308,46.954062],[28.973454,46.954347],[28.973733,46.954684],[28.97372,46.954786],[28.973367,46.955714],[28.972733,46.95775],[28.972456,46.958521],[28.97211,46.959847],[28.971923,46.960752],[28.971894,46.960899],[28.971629,46.962167],[28.971334,46.964004],[28.971288,46.964263],[28.971178,46.96495],[28.971102,46.965468],[28.971074,46.96594],[28.982211,46.966534],[28.986355,46.966754],[28.986486,46.966761],[28.986571,46.966769],[28.986586,46.966862],[28.987055,46.966897],[28.98722,46.966782],[28.987355,46.96675],[28.987986,46.96669],[28.988859,46.966707],[28.989285,46.966716],[28.989931,46.966753],[28.990036,46.96676],[28.990858,46.966812],[28.991118,46.966829],[28.991483,46.966838],[28.991826,46.966847],[28.992097,46.966866],[28.99242,46.966888],[28.992725,46.966889],[28.993569,46.966893],[28.993977,46.966892],[28.993971,46.967049],[28.993959,46.967508],[28.993949,46.967915],[28.993947,46.967968],[28.993943,46.968139],[28.993824,46.968867],[28.993784,46.969259],[28.993659,46.970474],[28.993723,46.970703],[28.993667,46.971534],[28.99359,46.972071],[28.993572,46.97247],[28.9935,46.972832],[28.993492,46.972877],[28.993471,46.972979],[28.993454,46.973064],[28.993427,46.973205],[28.993392,46.973571],[28.993254,46.974669],[28.993308,46.97487],[28.993322,46.975089],[28.993316,46.975155],[28.993255,46.975415],[28.993137,46.975906],[28.993044,46.976541],[28.993042,46.976563],[28.992953,46.977443],[28.992946,46.977514],[28.992881,46.978162],[28.992873,46.978232],[28.992779,46.978664],[28.992716,46.978949],[28.992582,46.979443],[28.99251,46.979476],[28.991039,46.979838],[28.99084,46.979854],[28.990957,46.980077],[28.991979,46.981924],[28.992433,46.982732],[28.992663,46.983141],[28.993166,46.984075],[28.993204,46.984144],[28.993236,46.984234],[28.996303,46.989303],[28.996613,46.989852],[28.996302,46.989932],[28.996319,46.989964],[28.996297,46.989969],[28.996386,46.990156],[28.996417,46.990149],[28.997435,46.992036],[28.997843,46.992778],[28.99754,46.992858],[28.995421,46.993308],[28.993306,46.993776],[28.985034,46.995607],[28.98494,46.995629],[28.984969,46.995677],[28.98567,46.996752],[28.986036,46.997314],[28.986325,46.997757],[28.986335,46.997772],[28.9866,46.997915],[28.986393,46.998084],[28.985209,46.999149],[28.985136,46.999183],[28.984339,46.99974],[28.984026,47.000142],[28.983903,47.000324],[28.983753,47.00054],[28.98355,47.00071],[28.983206,47.000858],[28.982572,47.001071],[28.982226,47.001272],[28.981665,47.001639],[28.981242,47.001864],[28.980555,47.002113],[28.98031,47.002241],[28.978677,47.003368],[28.977772,47.004013],[28.977012,47.004621],[28.975965,47.005216],[28.975584,47.005467],[28.975296,47.005668],[28.974381,47.006118],[28.973677,47.00662],[28.973513,47.00644],[28.973449,47.006348],[28.973449,47.006224],[28.973478,47.006169],[28.973449,47.006128],[28.972436,47.006502],[28.972143,47.006605],[28.970891,47.007061],[28.970336,47.007265],[28.969333,47.007628],[28.96928,47.007649],[28.969294,47.007512],[28.969297,47.007278],[28.969307,47.007026],[28.969368,47.006718],[28.969407,47.006525],[28.969445,47.00618],[28.969438,47.005834],[28.96942,47.005511],[28.969429,47.005389],[28.96945,47.005258],[28.969503,47.005069],[28.969549,47.004933],[28.96959,47.004786],[28.969641,47.004643],[28.969679,47.004507],[28.96972,47.004399],[28.969732,47.004287],[28.969723,47.004178],[28.969699,47.004107],[28.969655,47.003892],[28.969623,47.003694],[28.969627,47.003602],[28.969665,47.003437],[28.969724,47.00329],[28.969896,47.002915],[28.970023,47.002716],[28.970043,47.002665],[28.970049,47.00263],[28.970015,47.002514],[28.969911,47.002311],[28.969703,47.002045],[28.969517,47.001808],[28.969476,47.001704],[28.969469,47.001586],[28.969543,47.001343],[28.969584,47.001254],[28.969586,47.001152],[28.969515,47.00089],[28.969514,47.000787],[28.969545,47.000695],[28.969779,47.000345],[28.970031,46.99994],[28.970254,46.999789],[28.970742,46.999572],[28.97061,46.999426],[28.970423,46.999181],[28.970306,46.999035],[28.969581,46.999369],[28.969201,46.999651],[28.969024,46.999824],[28.968331,47.000594],[28.968046,47.001174],[28.96789,47.001786],[28.967824,47.002336],[28.967675,47.002971],[28.96738,47.003443],[28.967216,47.003659],[28.96617,47.004599],[28.965504,47.005238],[28.965149,47.005509],[28.964151,47.005229],[28.964394,47.004891],[28.96501,47.003652],[28.965209,47.003089],[28.96533,47.002747],[28.965382,47.002599],[28.965471,47.002344],[28.965507,47.001945],[28.965515,47.001857],[28.96555,47.001438],[28.965553,47.001404],[28.965629,47.000941],[28.965653,47.000796],[28.965742,47.000447],[28.965772,47.000327],[28.965592,47.000238],[28.965528,47.000206],[28.965354,47.00012],[28.965148,47.000152],[28.9646,47.000237],[28.964135,47.000309],[28.964009,47.000328],[28.963352,47.000427],[28.962575,47.000543],[28.962565,47.000545],[28.961643,47.000687],[28.961173,47.00076],[28.960869,47.000877],[28.960714,47.000894],[28.960251,47.001131],[28.959986,47.001338],[28.959137,47.001873],[28.958957,47.001954],[28.958898,47.00198],[28.958701,47.002069],[28.958447,47.002199],[28.958392,47.002227],[28.958338,47.002255],[28.958098,47.002378],[28.957707,47.00262],[28.956955,47.003147],[28.956655,47.002965],[28.956405,47.002813],[28.954585,47.003931],[28.953989,47.004263],[28.953002,47.004745],[28.952454,47.004994],[28.951846,47.005286],[28.95094,47.005757],[28.950672,47.005874],[28.950292,47.006007],[28.949897,47.006108],[28.949442,47.006189],[28.94886,47.006273],[28.948549,47.006323],[28.948129,47.006415],[28.947758,47.006514],[28.947167,47.006653],[28.946804,47.006706],[28.946128,47.006772],[28.945932,47.006801],[28.945777,47.006832],[28.945617,47.006876],[28.945454,47.006934],[28.945301,47.007001],[28.945175,47.00707],[28.945033,47.007164],[28.944913,47.007261],[28.944794,47.007374],[28.944355,47.007854],[28.944201,47.007984],[28.94405,47.008081],[28.943787,47.008197],[28.943484,47.008302],[28.942897,47.008519],[28.942866,47.008517],[28.942603,47.008625]]]}}]}