{"type":"FeatureCollection","xy_coordinate_resolution":1e-06,"features":[{"type":"Feature","properties":{"tip":"water","nume":null,"ha":0.51},"geometry":{"type":"MultiPolygon","coordinates":[[[[28.940587,46.975463],[28.941384,46.97549],[28.94133,46.97625],[28.940533,46.976224],[28.940587,46.975463]]]]}},{"type":"Feature","properties":{"tip":"reservoir","nume":"Iazul „Humulești”","ha":3.7},"geometry":{"type":"MultiPolygon","coordinates":[[[[28.969996,46.998783],[28.9699,46.998876],[28.969235,46.999106],[28.968495,46.999219],[28.967021,46.999452],[28.966727,46.999434],[28.966281,46.999257],[28.96512,46.999028],[28.96615,46.99828],[28.967361,46.998381],[28.967974,46.998177],[28.968408,46.997879],[28.968821,46.997811],[28.969996,46.998783]]]]}},{"type":"Feature","properties":{"tip":"water","nume":null,"ha":0.51},"geometry":{"type":"MultiPolygon","coordinates":[[[[28.935014,46.986852],[28.934678,46.987136],[28.93416,46.98758],[28.933758,46.987785],[28.933658,46.987746],[28.934464,46.98681],[28.93477,46.986459],[28.934872,46.986401],[28.934972,46.986425],[28.935168,46.986528],[28.935184,46.9866],[28.935014,46.986852]]]]}},{"type":"Feature","properties":{"tip":"water","nume":null,"ha":0.07},"geometry":{"type":"MultiPolygon","coordinates":[[[[28.926464,46.960796],[28.926444,46.960773],[28.926456,46.960747],[28.926594,46.960654],[28.92663,46.960649],[28.926975,46.960831],[28.926973,46.960874],[28.926859,46.960967],[28.926808,46.96095],[28.926464,46.960796]]]]}},{"type":"Feature","properties":{"tip":"water","nume":null,"ha":0.04},"geometry":{"type":"MultiPolygon","coordinates":[[[[28.941694,46.95097],[28.941817,46.951012],[28.941594,46.951282],[28.941448,46.951223],[28.941425,46.951208],[28.941694,46.95097]]]]}},{"type":"Feature","properties":{"tip":"water","nume":null,"ha":0.04},"geometry":{"type":"MultiPolygon","coordinates":[[[[28.942437,46.950246],[28.94198,46.950753],[28.941911,46.950724],[28.942368,46.950217],[28.942437,46.950246]]]]}},{"type":"Feature","properties":{"tip":"water","nume":null,"ha":0.01},"geometry":{"type":"MultiPolygon","coordinates":[[[[28.942674,46.950079],[28.942563,46.950173],[28.942523,46.950151],[28.942634,46.950057],[28.942674,46.950079]]]]}},{"type":"Feature","properties":{"tip":"water","nume":null,"ha":0.01},"geometry":{"type":"MultiPolygon","coordinates":[[[[28.943034,46.949707],[28.942917,46.94981],[28.942865,46.949782],[28.942982,46.949679],[28.943034,46.949707]]]]}},{"type":"Feature","properties":{"tip":"water","nume":null,"ha":0.03},"geometry":{"type":"MultiPolygon","coordinates":[[[[28.940754,46.95213],[28.94085,46.952041],[28.941201,46.952159],[28.941094,46.952236],[28.940754,46.95213]]]]}},{"type":"Feature","properties":{"tip":"water","nume":null,"ha":0.02},"geometry":{"type":"MultiPolygon","coordinates":[[[[28.940532,46.952693],[28.940302,46.95261],[28.940399,46.952542],[28.940594,46.95262],[28.940532,46.952693]]]]}},{"type":"Feature","properties":{"tip":"water","nume":null,"ha":0.02},"geometry":{"type":"MultiPolygon","coordinates":[[[[28.940127,46.952401],[28.940311,46.95251],[28.940229,46.952583],[28.940019,46.952494],[28.940127,46.952401]]]]}},{"type":"Feature","properties":{"tip":"water","nume":null,"ha":0.03},"geometry":{"type":"MultiPolygon","coordinates":[[[[28.939804,46.952651],[28.939923,46.95268],[28.939866,46.952736],[28.939801,46.952724],[28.939521,46.95295],[28.939445,46.952906],[28.939804,46.952651]]]]}},{"type":"Feature","properties":{"tip":"reservoir","nume":null,"ha":0.01},"geometry":{"type":"MultiPolygon","coordinates":[[[[28.92441,46.970483],[28.924568,46.970543],[28.924524,46.970597],[28.924366,46.970536],[28.92441,46.970483]]]]}},{"type":"Feature","properties":{"tip":"water","nume":null,"ha":0.02},"geometry":{"type":"MultiPolygon","coordinates":[[[[28.921478,46.975027],[28.921594,46.975076],[28.921492,46.975188],[28.921376,46.97514],[28.921478,46.975027]]]]}},{"type":"Feature","properties":{"tip":"water","nume":null,"ha":0.01},"geometry":{"type":"MultiPolygon","coordinates":[[[[28.921147,46.975259],[28.921226,46.975289],[28.92117,46.975358],[28.921091,46.975328],[28.921147,46.975259]]]]}},{"type":"Feature","properties":{"tip":"water","nume":null,"ha":0.09},"geometry":{"type":"MultiPolygon","coordinates":[[[[28.918267,46.972429],[28.918555,46.972559],[28.918529,46.972648],[28.918413,46.972729],[28.918353,46.972742],[28.918222,46.972696],[28.918069,46.972605],[28.918047,46.972541],[28.918166,46.972436],[28.918267,46.972429]]]]}},{"type":"Feature","properties":{"tip":"reservoir","nume":null,"ha":1.44},"geometry":{"type":"MultiPolygon","coordinates":[[[[28.921325,46.976511],[28.92254,46.976944],[28.921954,46.977574],[28.921662,46.977848],[28.921518,46.97788],[28.921365,46.977846],[28.920471,46.977435],[28.920402,46.977386],[28.920445,46.977294],[28.921024,46.9766],[28.921132,46.976511],[28.921325,46.976511]]]]}},{"type":"Feature","properties":{"tip":"reservoir","nume":null,"ha":0.42},"geometry":{"type":"MultiPolygon","coordinates":[[[[28.920095,46.977395],[28.920124,46.977373],[28.920324,46.977554],[28.92069,46.977748],[28.920379,46.978626],[28.920153,46.978485],[28.920042,46.978326],[28.920065,46.97777],[28.920095,46.977395]]]]}},{"type":"Feature","properties":{"tip":"reservoir","nume":null,"ha":0.46},"geometry":{"type":"MultiPolygon","coordinates":[[[[28.9196,46.979617],[28.919721,46.979729],[28.918959,46.980526],[28.918864,46.980544],[28.918762,46.980535],[28.918608,46.980421],[28.918592,46.980354],[28.918854,46.97995],[28.919214,46.979555],[28.919279,46.979528],[28.919456,46.97955],[28.9196,46.979617]]]]}},{"type":"Feature","properties":{"tip":"reservoir","nume":null,"ha":0.43},"geometry":{"type":"MultiPolygon","coordinates":[[[[28.91996,46.978809],[28.920072,46.978538],[28.92035,46.978699],[28.920586,46.97884],[28.919941,46.979512],[28.919846,46.979593],[28.919757,46.979626],[28.919538,46.979459],[28.919508,46.97936],[28.919705,46.97913],[28.919869,46.978952],[28.91996,46.978809]]]]}},{"type":"Feature","properties":{"tip":"reservoir","nume":null,"ha":0.39},"geometry":{"type":"MultiPolygon","coordinates":[[[[28.920478,46.978649],[28.92082,46.977754],[28.921343,46.977964],[28.921381,46.978087],[28.920723,46.978782],[28.920478,46.978649]]]]}},{"type":"Feature","properties":{"tip":"wastewater","nume":null,"ha":0.1},"geometry":{"type":"MultiPolygon","coordinates":[[[[28.917451,46.974547],[28.91752,46.974492],[28.917668,46.974533],[28.918084,46.974698],[28.91808,46.974725],[28.917862,46.974879],[28.917828,46.974879],[28.917434,46.974579],[28.917451,46.974547]]]]}},{"type":"Feature","properties":{"tip":"wastewater","nume":null,"ha":0.05},"geometry":{"type":"MultiPolygon","coordinates":[[[[28.918177,46.974739],[28.918338,46.974817],[28.917987,46.975027],[28.91787,46.974931],[28.918177,46.974739]]]]}},{"type":"Feature","properties":{"tip":"wastewater","nume":null,"ha":0.04},"geometry":{"type":"MultiPolygon","coordinates":[[[[28.918084,46.9751],[28.917987,46.975027],[28.918338,46.974817],[28.918459,46.974882],[28.918084,46.9751]]]]}},{"type":"Feature","properties":{"tip":"wastewater","nume":null,"ha":0.05},"geometry":{"type":"MultiPolygon","coordinates":[[[[28.918571,46.974898],[28.918701,46.974959],[28.918243,46.975225],[28.918137,46.975143],[28.918571,46.974898]]]]}},{"type":"Feature","properties":{"tip":"wastewater","nume":null,"ha":0.06},"geometry":{"type":"MultiPolygon","coordinates":[[[[28.918951,46.975042],[28.919052,46.975097],[28.918503,46.975422],[28.918412,46.975335],[28.918951,46.975042]]]]}},{"type":"Feature","properties":{"tip":"wastewater","nume":null,"ha":0.06},"geometry":{"type":"MultiPolygon","coordinates":[[[[28.918503,46.975422],[28.919052,46.975097],[28.91914,46.975148],[28.918602,46.975509],[28.918503,46.975422]]]]}},{"type":"Feature","properties":{"tip":"wastewater","nume":null,"ha":0.07},"geometry":{"type":"MultiPolygon","coordinates":[[[[28.919264,46.975179],[28.919407,46.975233],[28.918741,46.975622],[28.918648,46.975546],[28.919264,46.975179]]]]}},{"type":"Feature","properties":{"tip":"wastewater","nume":null,"ha":0.08},"geometry":{"type":"MultiPolygon","coordinates":[[[[28.918741,46.975622],[28.919407,46.975233],[28.919524,46.975294],[28.918854,46.975713],[28.918741,46.975622]]]]}},{"type":"Feature","properties":{"tip":"wastewater","nume":null,"ha":0.06},"geometry":{"type":"MultiPolygon","coordinates":[[[[28.918891,46.975745],[28.919601,46.975321],[28.9197,46.975379],[28.918959,46.9758],[28.918891,46.975745]]]]}},{"type":"Feature","properties":{"tip":"wastewater","nume":null,"ha":0.06},"geometry":{"type":"MultiPolygon","coordinates":[[[[28.919021,46.975855],[28.919795,46.975405],[28.919876,46.975437],[28.9191,46.975921],[28.919021,46.975855]]]]}},{"type":"Feature","properties":{"tip":"wastewater","nume":null,"ha":0.09},"geometry":{"type":"MultiPolygon","coordinates":[[[[28.919171,46.975933],[28.919932,46.9755],[28.919987,46.975518],[28.920029,46.975578],[28.919248,46.976034],[28.919169,46.975969],[28.919171,46.975933]]]]}},{"type":"Feature","properties":{"tip":"wastewater","nume":null,"ha":0.07},"geometry":{"type":"MultiPolygon","coordinates":[[[[28.919248,46.976034],[28.920029,46.975578],[28.92004,46.975686],[28.919332,46.976103],[28.919248,46.976034]]]]}},{"type":"Feature","properties":{"tip":"wastewater","nume":null,"ha":0.13},"geometry":{"type":"MultiPolygon","coordinates":[[[[28.919387,46.976127],[28.92004,46.975783],[28.920037,46.976056],[28.919605,46.976313],[28.919387,46.976127]]]]}},{"type":"Feature","properties":{"tip":"wastewater","nume":null,"ha":0.07},"geometry":{"type":"MultiPolygon","coordinates":[[[[28.919663,46.976345],[28.92002,46.976134],[28.919945,46.976569],[28.919894,46.97658],[28.919663,46.976345]]]]}},{"type":"Feature","properties":{"tip":"wastewater","nume":null,"ha":0.44},"geometry":{"type":"MultiPolygon","coordinates":[[[[28.920956,46.976385],[28.920211,46.977328],[28.92008,46.97727],[28.920203,46.976149],[28.920956,46.976385]]]]}},{"type":"Feature","properties":{"tip":"wastewater","nume":null,"ha":0.06},"geometry":{"type":"MultiPolygon","coordinates":[[[[28.918243,46.975225],[28.918701,46.974959],[28.918837,46.975026],[28.918343,46.975301],[28.918243,46.975225]]]]}},{"type":"Feature","properties":{"tip":"wastewater","nume":null,"ha":0.07},"geometry":{"type":"MultiPolygon","coordinates":[[[[28.917363,46.974626],[28.917524,46.974732],[28.917034,46.975042],[28.916954,46.974974],[28.917083,46.974828],[28.917147,46.974829],[28.917363,46.974626]]]]}},{"type":"Feature","properties":{"tip":"wastewater","nume":null,"ha":0.06},"geometry":{"type":"MultiPolygon","coordinates":[[[[28.917579,46.974795],[28.917677,46.974875],[28.917165,46.975166],[28.917067,46.975085],[28.917579,46.974795]]]]}},{"type":"Feature","properties":{"tip":"wastewater","nume":null,"ha":0.06},"geometry":{"type":"MultiPolygon","coordinates":[[[[28.917165,46.975166],[28.917677,46.974875],[28.917776,46.974956],[28.917264,46.975247],[28.917165,46.975166]]]]}},{"type":"Feature","properties":{"tip":"wastewater","nume":null,"ha":0.06},"geometry":{"type":"MultiPolygon","coordinates":[[[[28.917825,46.97499],[28.917923,46.975071],[28.917412,46.975361],[28.917313,46.975281],[28.917825,46.97499]]]]}},{"type":"Feature","properties":{"tip":"wastewater","nume":null,"ha":0.05},"geometry":{"type":"MultiPolygon","coordinates":[[[[28.917412,46.975361],[28.917923,46.975071],[28.918005,46.97514],[28.91751,46.975442],[28.917412,46.975361]]]]}},{"type":"Feature","properties":{"tip":"wastewater","nume":null,"ha":0.05},"geometry":{"type":"MultiPolygon","coordinates":[[[[28.918057,46.975187],[28.918155,46.975267],[28.917643,46.975558],[28.917556,46.97549],[28.918057,46.975187]]]]}},{"type":"Feature","properties":{"tip":"wastewater","nume":null,"ha":0.06},"geometry":{"type":"MultiPolygon","coordinates":[[[[28.917643,46.975558],[28.918155,46.975267],[28.918254,46.975348],[28.917742,46.975639],[28.917643,46.975558]]]]}},{"type":"Feature","properties":{"tip":"wastewater","nume":null,"ha":0.06},"geometry":{"type":"MultiPolygon","coordinates":[[[[28.918305,46.975398],[28.918403,46.975479],[28.917892,46.975769],[28.917793,46.975689],[28.918305,46.975398]]]]}},{"type":"Feature","properties":{"tip":"wastewater","nume":null,"ha":0.06},"geometry":{"type":"MultiPolygon","coordinates":[[[[28.917892,46.975769],[28.918403,46.975479],[28.918502,46.97556],[28.91799,46.97585],[28.917892,46.975769]]]]}},{"type":"Feature","properties":{"tip":"wastewater","nume":null,"ha":0.06},"geometry":{"type":"MultiPolygon","coordinates":[[[[28.918556,46.975602],[28.918654,46.975683],[28.918142,46.975973],[28.918044,46.975893],[28.918556,46.975602]]]]}},{"type":"Feature","properties":{"tip":"wastewater","nume":null,"ha":0.06},"geometry":{"type":"MultiPolygon","coordinates":[[[[28.918142,46.975973],[28.918654,46.975683],[28.918753,46.975764],[28.91824,46.976054],[28.918142,46.975973]]]]}},{"type":"Feature","properties":{"tip":"wastewater","nume":null,"ha":0.06},"geometry":{"type":"MultiPolygon","coordinates":[[[[28.918806,46.97581],[28.918904,46.97589],[28.918392,46.976181],[28.918294,46.976101],[28.918806,46.97581]]]]}},{"type":"Feature","properties":{"tip":"wastewater","nume":null,"ha":0.06},"geometry":{"type":"MultiPolygon","coordinates":[[[[28.918392,46.976181],[28.918904,46.97589],[28.919003,46.975971],[28.918491,46.976262],[28.918392,46.976181]]]]}},{"type":"Feature","properties":{"tip":"wastewater","nume":null,"ha":0.06},"geometry":{"type":"MultiPolygon","coordinates":[[[[28.919041,46.976014],[28.919139,46.976094],[28.918628,46.976385],[28.91853,46.976304],[28.919041,46.976014]]]]}},{"type":"Feature","properties":{"tip":"wastewater","nume":null,"ha":0.06},"geometry":{"type":"MultiPolygon","coordinates":[[[[28.918628,46.976385],[28.919139,46.976094],[28.919238,46.976175],[28.918726,46.976466],[28.918628,46.976385]]]]}},{"type":"Feature","properties":{"tip":"wastewater","nume":null,"ha":0.06},"geometry":{"type":"MultiPolygon","coordinates":[[[[28.919293,46.976215],[28.919391,46.976296],[28.91888,46.976586],[28.918782,46.976506],[28.919293,46.976215]]]]}},{"type":"Feature","properties":{"tip":"wastewater","nume":null,"ha":0.06},"geometry":{"type":"MultiPolygon","coordinates":[[[[28.91888,46.976586],[28.919391,46.976296],[28.91949,46.976377],[28.918978,46.976667],[28.91888,46.976586]]]]}},{"type":"Feature","properties":{"tip":"wastewater","nume":null,"ha":0.11},"geometry":{"type":"MultiPolygon","coordinates":[[[[28.919028,46.976711],[28.919519,46.976421],[28.919704,46.976566],[28.919212,46.976856],[28.919028,46.976711]]]]}},{"type":"Feature","properties":{"tip":"wastewater","nume":null,"ha":0.11},"geometry":{"type":"MultiPolygon","coordinates":[[[[28.919269,46.976905],[28.91976,46.976615],[28.919945,46.97676],[28.919454,46.97705],[28.919269,46.976905]]]]}},{"type":"Feature","properties":{"tip":"wastewater","nume":null,"ha":0.1},"geometry":{"type":"MultiPolygon","coordinates":[[[[28.919534,46.977112],[28.919967,46.976826],[28.919913,46.97742],[28.919534,46.977112]]]]}},{"type":"Feature","properties":{"tip":"wastewater","nume":null,"ha":0.02},"geometry":{"type":"MultiPolygon","coordinates":[[[[28.91688,46.975098],[28.916917,46.975126],[28.916568,46.975367],[28.91654,46.975349],[28.916815,46.975088],[28.91688,46.975098]]]]}},{"type":"Feature","properties":{"tip":"wastewater","nume":null,"ha":0.05},"geometry":{"type":"MultiPolygon","coordinates":[[[[28.916968,46.975171],[28.917061,46.975243],[28.916586,46.975531],[28.916492,46.97546],[28.916968,46.975171]]]]}},{"type":"Feature","properties":{"tip":"wastewater","nume":null,"ha":0.05},"geometry":{"type":"MultiPolygon","coordinates":[[[[28.916586,46.975531],[28.917061,46.975243],[28.917147,46.975309],[28.916672,46.975597],[28.916586,46.975531]]]]}},{"type":"Feature","properties":{"tip":"wastewater","nume":null,"ha":0.05},"geometry":{"type":"MultiPolygon","coordinates":[[[[28.917211,46.975359],[28.917304,46.975431],[28.916829,46.975719],[28.916736,46.975647],[28.917211,46.975359]]]]}},{"type":"Feature","properties":{"tip":"wastewater","nume":null,"ha":0.05},"geometry":{"type":"MultiPolygon","coordinates":[[[[28.916829,46.975719],[28.917304,46.975431],[28.91739,46.975496],[28.916915,46.975785],[28.916829,46.975719]]]]}},{"type":"Feature","properties":{"tip":"wastewater","nume":null,"ha":0.05},"geometry":{"type":"MultiPolygon","coordinates":[[[[28.917456,46.975561],[28.917549,46.975633],[28.917073,46.975921],[28.91698,46.97585],[28.917456,46.975561]]]]}},{"type":"Feature","properties":{"tip":"wastewater","nume":null,"ha":0.05},"geometry":{"type":"MultiPolygon","coordinates":[[[[28.917073,46.975921],[28.917549,46.975633],[28.917635,46.975699],[28.917159,46.975987],[28.917073,46.975921]]]]}},{"type":"Feature","properties":{"tip":"wastewater","nume":null,"ha":0.05},"geometry":{"type":"MultiPolygon","coordinates":[[[[28.9177,46.975754],[28.917794,46.975826],[28.917318,46.976114],[28.917225,46.976042],[28.9177,46.975754]]]]}},{"type":"Feature","properties":{"tip":"wastewater","nume":null,"ha":0.05},"geometry":{"type":"MultiPolygon","coordinates":[[[[28.917318,46.976114],[28.917794,46.975826],[28.91788,46.975892],[28.917404,46.97618],[28.917318,46.976114]]]]}},{"type":"Feature","properties":{"tip":"wastewater","nume":null,"ha":0.05},"geometry":{"type":"MultiPolygon","coordinates":[[[[28.917945,46.975957],[28.918038,46.976028],[28.917563,46.976317],[28.91747,46.976245],[28.917945,46.975957]]]]}},{"type":"Feature","properties":{"tip":"wastewater","nume":null,"ha":0.05},"geometry":{"type":"MultiPolygon","coordinates":[[[[28.917563,46.976317],[28.918038,46.976028],[28.918125,46.976094],[28.917649,46.976382],[28.917563,46.976317]]]]}},{"type":"Feature","properties":{"tip":"wastewater","nume":null,"ha":0.06},"geometry":{"type":"MultiPolygon","coordinates":[[[[28.918205,46.976149],[28.918303,46.976229],[28.917791,46.97652],[28.917693,46.976439],[28.918205,46.976149]]]]}},{"type":"Feature","properties":{"tip":"wastewater","nume":null,"ha":0.06},"geometry":{"type":"MultiPolygon","coordinates":[[[[28.917791,46.97652],[28.918303,46.976229],[28.918402,46.97631],[28.91789,46.976601],[28.917791,46.97652]]]]}},{"type":"Feature","properties":{"tip":"wastewater","nume":null,"ha":0.06},"geometry":{"type":"MultiPolygon","coordinates":[[[[28.918444,46.976352],[28.918544,46.976432],[28.918039,46.976728],[28.917939,46.976648],[28.918444,46.976352]]]]}},{"type":"Feature","properties":{"tip":"wastewater","nume":null,"ha":0.06},"geometry":{"type":"MultiPolygon","coordinates":[[[[28.918039,46.976728],[28.918544,46.976432],[28.918645,46.976512],[28.91814,46.976808],[28.918039,46.976728]]]]}},{"type":"Feature","properties":{"tip":"wastewater","nume":null,"ha":0.06},"geometry":{"type":"MultiPolygon","coordinates":[[[[28.918691,46.976563],[28.918791,46.976642],[28.918286,46.976938],[28.918186,46.976859],[28.918691,46.976563]]]]}},{"type":"Feature","properties":{"tip":"wastewater","nume":null,"ha":0.06},"geometry":{"type":"MultiPolygon","coordinates":[[[[28.918286,46.976938],[28.918791,46.976642],[28.918892,46.976722],[28.918386,46.977018],[28.918286,46.976938]]]]}},{"type":"Feature","properties":{"tip":"wastewater","nume":null,"ha":0.06},"geometry":{"type":"MultiPolygon","coordinates":[[[[28.918928,46.976759],[28.919028,46.976838],[28.918523,46.977134],[28.918423,46.977055],[28.918928,46.976759]]]]}},{"type":"Feature","properties":{"tip":"wastewater","nume":null,"ha":0.06},"geometry":{"type":"MultiPolygon","coordinates":[[[[28.918523,46.977134],[28.919028,46.976838],[28.919129,46.976918],[28.918623,46.977214],[28.918523,46.977134]]]]}},{"type":"Feature","properties":{"tip":"wastewater","nume":null,"ha":0.04},"geometry":{"type":"MultiPolygon","coordinates":[[[[28.919176,46.976957],[28.919246,46.977013],[28.918741,46.977307],[28.918671,46.977251],[28.919176,46.976957]]]]}},{"type":"Feature","properties":{"tip":"wastewater","nume":null,"ha":0.04},"geometry":{"type":"MultiPolygon","coordinates":[[[[28.919315,46.977068],[28.919384,46.977123],[28.918879,46.977418],[28.91881,46.977362],[28.919315,46.977068]]]]}},{"type":"Feature","properties":{"tip":"wastewater","nume":null,"ha":0.06},"geometry":{"type":"MultiPolygon","coordinates":[[[[28.919045,46.977523],[28.919525,46.97725],[28.919624,46.977331],[28.919145,46.977604],[28.919045,46.977523]]]]}},{"type":"Feature","properties":{"tip":"wastewater","nume":null,"ha":0.05},"geometry":{"type":"MultiPolygon","coordinates":[[[[28.919431,46.977173],[28.919525,46.97725],[28.919045,46.977523],[28.918951,46.977445],[28.919431,46.977173]]]]}},{"type":"Feature","properties":{"tip":"wastewater","nume":null,"ha":0.06},"geometry":{"type":"MultiPolygon","coordinates":[[[[28.919277,46.977719],[28.919757,46.977446],[28.919856,46.977527],[28.919377,46.9778],[28.919277,46.977719]]]]}},{"type":"Feature","properties":{"tip":"wastewater","nume":null,"ha":0.05},"geometry":{"type":"MultiPolygon","coordinates":[[[[28.919663,46.977369],[28.919757,46.977446],[28.919277,46.977719],[28.919183,46.977641],[28.919663,46.977369]]]]}},{"type":"Feature","properties":{"tip":"wastewater","nume":null,"ha":0.03},"geometry":{"type":"MultiPolygon","coordinates":[[[[28.919518,46.977907],[28.919852,46.977721],[28.919841,46.977845],[28.919618,46.977989],[28.919518,46.977907]]]]}},{"type":"Feature","properties":{"tip":"wastewater","nume":null,"ha":0.04},"geometry":{"type":"MultiPolygon","coordinates":[[[[28.91984,46.977609],[28.919852,46.977721],[28.919518,46.977907],[28.919424,46.97783],[28.91984,46.977609]]]]}},{"type":"Feature","properties":{"tip":"wastewater","nume":null,"ha":0.02},"geometry":{"type":"MultiPolygon","coordinates":[[[[28.919659,46.978057],[28.91984,46.977954],[28.919818,46.978196],[28.919659,46.978057]]]]}},{"type":"Feature","properties":{"tip":"wastewater","nume":null,"ha":0.07},"geometry":{"type":"MultiPolygon","coordinates":[[[[28.916592,46.975667],[28.916072,46.975963],[28.916003,46.975905],[28.916404,46.975534],[28.916592,46.975667]]]]}},{"type":"Feature","properties":{"tip":"wastewater","nume":null,"ha":0.05},"geometry":{"type":"MultiPolygon","coordinates":[[[[28.916624,46.975718],[28.916717,46.975789],[28.916242,46.976078],[28.916148,46.976006],[28.916624,46.975718]]]]}},{"type":"Feature","properties":{"tip":"wastewater","nume":null,"ha":0.05},"geometry":{"type":"MultiPolygon","coordinates":[[[[28.916242,46.976078],[28.916717,46.975789],[28.916803,46.975855],[28.916328,46.976143],[28.916242,46.976078]]]]}},{"type":"Feature","properties":{"tip":"wastewater","nume":null,"ha":0.05},"geometry":{"type":"MultiPolygon","coordinates":[[[[28.916868,46.975913],[28.916961,46.975984],[28.916486,46.976273],[28.916393,46.976201],[28.916868,46.975913]]]]}},{"type":"Feature","properties":{"tip":"wastewater","nume":null,"ha":0.05},"geometry":{"type":"MultiPolygon","coordinates":[[[[28.916486,46.976273],[28.916961,46.975984],[28.917047,46.97605],[28.916572,46.976339],[28.916486,46.976273]]]]}},{"type":"Feature","properties":{"tip":"wastewater","nume":null,"ha":0.05},"geometry":{"type":"MultiPolygon","coordinates":[[[[28.917109,46.976103],[28.917206,46.976177],[28.91673,46.976465],[28.916634,46.976391],[28.917109,46.976103]]]]}},{"type":"Feature","properties":{"tip":"wastewater","nume":null,"ha":0.05},"geometry":{"type":"MultiPolygon","coordinates":[[[[28.91673,46.976465],[28.917206,46.976177],[28.917289,46.976241],[28.916813,46.976529],[28.91673,46.976465]]]]}},{"type":"Feature","properties":{"tip":"wastewater","nume":null,"ha":0.05},"geometry":{"type":"MultiPolygon","coordinates":[[[[28.917351,46.976308],[28.917448,46.976382],[28.916972,46.97667],[28.916876,46.976596],[28.917351,46.976308]]]]}},{"type":"Feature","properties":{"tip":"wastewater","nume":null,"ha":0.05},"geometry":{"type":"MultiPolygon","coordinates":[[[[28.916972,46.97667],[28.917448,46.976382],[28.917531,46.976445],[28.917055,46.976734],[28.916972,46.97667]]]]}},{"type":"Feature","properties":{"tip":"wastewater","nume":null,"ha":0.05},"geometry":{"type":"MultiPolygon","coordinates":[[[[28.91758,46.976506],[28.917677,46.97658],[28.917202,46.976869],[28.917105,46.976795],[28.91758,46.976506]]]]}},{"type":"Feature","properties":{"tip":"wastewater","nume":null,"ha":0.05},"geometry":{"type":"MultiPolygon","coordinates":[[[[28.917202,46.976869],[28.917677,46.97658],[28.91776,46.976644],[28.917284,46.976932],[28.917202,46.976869]]]]}},{"type":"Feature","properties":{"tip":"wastewater","nume":null,"ha":0.05},"geometry":{"type":"MultiPolygon","coordinates":[[[[28.917822,46.976712],[28.917919,46.976786],[28.917443,46.977074],[28.917346,46.977],[28.917822,46.976712]]]]}},{"type":"Feature","properties":{"tip":"wastewater","nume":null,"ha":0.05},"geometry":{"type":"MultiPolygon","coordinates":[[[[28.917443,46.977074],[28.917919,46.976786],[28.918001,46.976849],[28.917526,46.977137],[28.917443,46.977074]]]]}},{"type":"Feature","properties":{"tip":"wastewater","nume":null,"ha":0.05},"geometry":{"type":"MultiPolygon","coordinates":[[[[28.918091,46.976922],[28.918187,46.976996],[28.917712,46.977284],[28.917615,46.97721],[28.918091,46.976922]]]]}},{"type":"Feature","properties":{"tip":"wastewater","nume":null,"ha":0.05},"geometry":{"type":"MultiPolygon","coordinates":[[[[28.917712,46.977284],[28.918187,46.976996],[28.91827,46.977059],[28.917794,46.977348],[28.917712,46.977284]]]]}},{"type":"Feature","properties":{"tip":"wastewater","nume":null,"ha":0.05},"geometry":{"type":"MultiPolygon","coordinates":[[[[28.91833,46.977117],[28.918426,46.977191],[28.917951,46.977479],[28.917854,46.977405],[28.91833,46.977117]]]]}},{"type":"Feature","properties":{"tip":"wastewater","nume":null,"ha":0.05},"geometry":{"type":"MultiPolygon","coordinates":[[[[28.917951,46.977479],[28.918426,46.977191],[28.918509,46.977254],[28.918033,46.977543],[28.917951,46.977479]]]]}},{"type":"Feature","properties":{"tip":"wastewater","nume":null,"ha":0.05},"geometry":{"type":"MultiPolygon","coordinates":[[[[28.918594,46.977302],[28.91869,46.977376],[28.918211,46.977663],[28.918114,46.977589],[28.918594,46.977302]]]]}},{"type":"Feature","properties":{"tip":"wastewater","nume":null,"ha":0.04},"geometry":{"type":"MultiPolygon","coordinates":[[[[28.918211,46.977663],[28.91869,46.977376],[28.918769,46.977438],[28.91829,46.977725],[28.918211,46.977663]]]]}},{"type":"Feature","properties":{"tip":"wastewater","nume":null,"ha":0.05},"geometry":{"type":"MultiPolygon","coordinates":[[[[28.919068,46.977725],[28.91916,46.977797],[28.918677,46.978082],[28.918585,46.978009],[28.919068,46.977725]]]]}},{"type":"Feature","properties":{"tip":"wastewater","nume":null,"ha":0.04},"geometry":{"type":"MultiPolygon","coordinates":[[[[28.918677,46.978082],[28.91916,46.977797],[28.919238,46.977858],[28.918755,46.978143],[28.918677,46.978082]]]]}},{"type":"Feature","properties":{"tip":"wastewater","nume":null,"ha":0.05},"geometry":{"type":"MultiPolygon","coordinates":[[[[28.919327,46.977918],[28.919419,46.97799],[28.918935,46.978275],[28.918844,46.978202],[28.919327,46.977918]]]]}},{"type":"Feature","properties":{"tip":"wastewater","nume":null,"ha":0.04},"geometry":{"type":"MultiPolygon","coordinates":[[[[28.918935,46.978275],[28.919419,46.97799],[28.919496,46.978051],[28.919013,46.978336],[28.918935,46.978275]]]]}},{"type":"Feature","properties":{"tip":"wastewater","nume":null,"ha":0.05},"geometry":{"type":"MultiPolygon","coordinates":[[[[28.919566,46.978111],[28.919658,46.978184],[28.919175,46.978468],[28.919083,46.978396],[28.919566,46.978111]]]]}},{"type":"Feature","properties":{"tip":"wastewater","nume":null,"ha":0.04},"geometry":{"type":"MultiPolygon","coordinates":[[[[28.919175,46.978468],[28.919658,46.978184],[28.919735,46.978245],[28.919252,46.97853],[28.919175,46.978468]]]]}},{"type":"Feature","properties":{"tip":"wastewater","nume":null,"ha":0.04},"geometry":{"type":"MultiPolygon","coordinates":[[[[28.918452,46.9779],[28.918931,46.977613],[28.91901,46.977674],[28.918531,46.977961],[28.918452,46.9779]]]]}},{"type":"Feature","properties":{"tip":"wastewater","nume":null,"ha":0.04},"geometry":{"type":"MultiPolygon","coordinates":[[[[28.918321,46.977796],[28.918801,46.977509],[28.91888,46.97757],[28.918401,46.977857],[28.918321,46.977796]]]]}},{"type":"Feature","properties":{"tip":"wastewater","nume":null,"ha":0.08},"geometry":{"type":"MultiPolygon","coordinates":[[[[28.919816,46.978561],[28.919503,46.978739],[28.919326,46.978601],[28.919794,46.97832],[28.919815,46.978388],[28.919823,46.978478],[28.919816,46.978561]]]]}},{"type":"Feature","properties":{"tip":"wastewater","nume":null,"ha":0.01},"geometry":{"type":"MultiPolygon","coordinates":[[[[28.919554,46.978786],[28.919798,46.978643],[28.919651,46.978864],[28.919554,46.978786]]]]}},{"type":"Feature","properties":{"tip":"wastewater","nume":null,"ha":0.12},"geometry":{"type":"MultiPolygon","coordinates":[[[[28.91618,46.976234],[28.915714,46.976515],[28.915541,46.976389],[28.915894,46.976024],[28.91618,46.976234]]]]}},{"type":"Feature","properties":{"tip":"wastewater","nume":null,"ha":0.05},"geometry":{"type":"MultiPolygon","coordinates":[[[[28.916256,46.976274],[28.916349,46.976345],[28.915874,46.976634],[28.915781,46.976562],[28.916256,46.976274]]]]}},{"type":"Feature","properties":{"tip":"wastewater","nume":null,"ha":0.05},"geometry":{"type":"MultiPolygon","coordinates":[[[[28.915874,46.976634],[28.916349,46.976345],[28.916436,46.976411],[28.91596,46.9767],[28.915874,46.976634]]]]}},{"type":"Feature","properties":{"tip":"wastewater","nume":null,"ha":0.05},"geometry":{"type":"MultiPolygon","coordinates":[[[[28.916515,46.976459],[28.916608,46.97653],[28.916133,46.976819],[28.91604,46.976747],[28.916515,46.976459]]]]}},{"type":"Feature","properties":{"tip":"wastewater","nume":null,"ha":0.05},"geometry":{"type":"MultiPolygon","coordinates":[[[[28.916133,46.976819],[28.916608,46.97653],[28.916694,46.976596],[28.916219,46.976885],[28.916133,46.976819]]]]}},{"type":"Feature","properties":{"tip":"wastewater","nume":null,"ha":0.05},"geometry":{"type":"MultiPolygon","coordinates":[[[[28.916761,46.976656],[28.916855,46.976727],[28.916379,46.977016],[28.916286,46.976944],[28.916761,46.976656]]]]}},{"type":"Feature","properties":{"tip":"wastewater","nume":null,"ha":0.05},"geometry":{"type":"MultiPolygon","coordinates":[[[[28.916379,46.977016],[28.916855,46.976727],[28.916941,46.976793],[28.916465,46.977081],[28.916379,46.977016]]]]}},{"type":"Feature","properties":{"tip":"wastewater","nume":null,"ha":0.05},"geometry":{"type":"MultiPolygon","coordinates":[[[[28.917003,46.976862],[28.917096,46.976934],[28.916621,46.977222],[28.916528,46.977151],[28.917003,46.976862]]]]}},{"type":"Feature","properties":{"tip":"wastewater","nume":null,"ha":0.05},"geometry":{"type":"MultiPolygon","coordinates":[[[[28.916621,46.977222],[28.917096,46.976934],[28.917182,46.977],[28.916707,46.977288],[28.916621,46.977222]]]]}},{"type":"Feature","properties":{"tip":"wastewater","nume":null,"ha":0.05},"geometry":{"type":"MultiPolygon","coordinates":[[[[28.917237,46.977056],[28.91733,46.977127],[28.916855,46.977416],[28.916762,46.977344],[28.917237,46.977056]]]]}},{"type":"Feature","properties":{"tip":"wastewater","nume":null,"ha":0.05},"geometry":{"type":"MultiPolygon","coordinates":[[[[28.916855,46.977416],[28.91733,46.977127],[28.917417,46.977193],[28.916941,46.977482],[28.916855,46.977416]]]]}},{"type":"Feature","properties":{"tip":"wastewater","nume":null,"ha":0.05},"geometry":{"type":"MultiPolygon","coordinates":[[[[28.917484,46.977263],[28.917577,46.977334],[28.917102,46.977623],[28.917008,46.977551],[28.917484,46.977263]]]]}},{"type":"Feature","properties":{"tip":"wastewater","nume":null,"ha":0.05},"geometry":{"type":"MultiPolygon","coordinates":[[[[28.917102,46.977623],[28.917577,46.977334],[28.917663,46.9774],[28.917187,46.977688],[28.917102,46.977623]]]]}},{"type":"Feature","properties":{"tip":"wastewater","nume":null,"ha":0.05},"geometry":{"type":"MultiPolygon","coordinates":[[[[28.917741,46.977465],[28.91783,46.977538],[28.917341,46.977816],[28.917251,46.977742],[28.917741,46.977465]]]]}},{"type":"Feature","properties":{"tip":"wastewater","nume":null,"ha":0.05},"geometry":{"type":"MultiPolygon","coordinates":[[[[28.917341,46.977816],[28.91783,46.977538],[28.917913,46.977606],[28.917424,46.977883],[28.917341,46.977816]]]]}},{"type":"Feature","properties":{"tip":"wastewater","nume":null,"ha":0.05},"geometry":{"type":"MultiPolygon","coordinates":[[[[28.917977,46.977663],[28.918067,46.977737],[28.917578,46.978014],[28.917488,46.97794],[28.917977,46.977663]]]]}},{"type":"Feature","properties":{"tip":"wastewater","nume":null,"ha":0.05},"geometry":{"type":"MultiPolygon","coordinates":[[[[28.917578,46.978014],[28.918067,46.977737],[28.91815,46.977805],[28.91766,46.978082],[28.917578,46.978014]]]]}},{"type":"Feature","properties":{"tip":"wastewater","nume":null,"ha":0.05},"geometry":{"type":"MultiPolygon","coordinates":[[[[28.918468,46.978082],[28.918557,46.978155],[28.918068,46.978433],[28.917978,46.978359],[28.918468,46.978082]]]]}},{"type":"Feature","properties":{"tip":"wastewater","nume":null,"ha":0.05},"geometry":{"type":"MultiPolygon","coordinates":[[[[28.918068,46.978433],[28.918557,46.978155],[28.91864,46.978223],[28.918151,46.978501],[28.918068,46.978433]]]]}},{"type":"Feature","properties":{"tip":"wastewater","nume":null,"ha":0.05},"geometry":{"type":"MultiPolygon","coordinates":[[[[28.918729,46.978263],[28.918819,46.978337],[28.918329,46.978614],[28.91824,46.978541],[28.918729,46.978263]]]]}},{"type":"Feature","properties":{"tip":"wastewater","nume":null,"ha":0.05},"geometry":{"type":"MultiPolygon","coordinates":[[[[28.918329,46.978614],[28.918819,46.978337],[28.918902,46.978405],[28.918412,46.978682],[28.918329,46.978614]]]]}},{"type":"Feature","properties":{"tip":"wastewater","nume":null,"ha":0.05},"geometry":{"type":"MultiPolygon","coordinates":[[[[28.918968,46.978467],[28.919058,46.978541],[28.918568,46.978818],[28.918479,46.978744],[28.918968,46.978467]]]]}},{"type":"Feature","properties":{"tip":"wastewater","nume":null,"ha":0.05},"geometry":{"type":"MultiPolygon","coordinates":[[[[28.918568,46.978818],[28.919058,46.978541],[28.919141,46.978609],[28.918651,46.978886],[28.918568,46.978818]]]]}},{"type":"Feature","properties":{"tip":"wastewater","nume":null,"ha":0.05},"geometry":{"type":"MultiPolygon","coordinates":[[[[28.919222,46.978674],[28.919312,46.978747],[28.918822,46.979025],[28.918733,46.978951],[28.919222,46.978674]]]]}},{"type":"Feature","properties":{"tip":"wastewater","nume":null,"ha":0.05},"geometry":{"type":"MultiPolygon","coordinates":[[[[28.918822,46.979025],[28.919312,46.978747],[28.919394,46.978816],[28.918905,46.979093],[28.918822,46.979025]]]]}},{"type":"Feature","properties":{"tip":"wastewater","nume":null,"ha":0.08},"geometry":{"type":"MultiPolygon","coordinates":[[[[28.919436,46.978883],[28.919532,46.978972],[28.919185,46.979313],[28.918977,46.979153],[28.919436,46.978883]]]]}},{"type":"Feature","properties":{"tip":"wastewater","nume":null,"ha":0.04},"geometry":{"type":"MultiPolygon","coordinates":[[[[28.917858,46.978245],[28.918337,46.977958],[28.918416,46.97802],[28.917937,46.978307],[28.917858,46.978245]]]]}},{"type":"Feature","properties":{"tip":"wastewater","nume":null,"ha":0.04},"geometry":{"type":"MultiPolygon","coordinates":[[[[28.917727,46.978141],[28.918206,46.977854],[28.918285,46.977915],[28.917806,46.978202],[28.917727,46.978141]]]]}},{"type":"Feature","properties":{"tip":"wastewater","nume":null,"ha":0.06},"geometry":{"type":"MultiPolygon","coordinates":[[[[28.915484,46.976453],[28.915615,46.976555],[28.915114,46.976856],[28.915053,46.976806],[28.915484,46.976453]]]]}},{"type":"Feature","properties":{"tip":"wastewater","nume":null,"ha":0.05},"geometry":{"type":"MultiPolygon","coordinates":[[[[28.915661,46.976622],[28.91575,46.976696],[28.915259,46.976972],[28.91517,46.976898],[28.915661,46.976622]]]]}},{"type":"Feature","properties":{"tip":"wastewater","nume":null,"ha":0.05},"geometry":{"type":"MultiPolygon","coordinates":[[[[28.915259,46.976972],[28.91575,46.976696],[28.915833,46.976764],[28.915341,46.97704],[28.915259,46.976972]]]]}},{"type":"Feature","properties":{"tip":"wastewater","nume":null,"ha":0.05},"geometry":{"type":"MultiPolygon","coordinates":[[[[28.91591,46.976824],[28.915999,46.976898],[28.915508,46.977174],[28.915419,46.9771],[28.91591,46.976824]]]]}},{"type":"Feature","properties":{"tip":"wastewater","nume":null,"ha":0.05},"geometry":{"type":"MultiPolygon","coordinates":[[[[28.915508,46.977174],[28.915999,46.976898],[28.916082,46.976966],[28.91559,46.977242],[28.915508,46.977174]]]]}},{"type":"Feature","properties":{"tip":"wastewater","nume":null,"ha":0.05},"geometry":{"type":"MultiPolygon","coordinates":[[[[28.916151,46.977021],[28.916242,46.977094],[28.915758,46.977375],[28.915667,46.977302],[28.916151,46.977021]]]]}},{"type":"Feature","properties":{"tip":"wastewater","nume":null,"ha":0.05},"geometry":{"type":"MultiPolygon","coordinates":[[[[28.915758,46.977375],[28.916242,46.977094],[28.916327,46.977161],[28.915842,46.977442],[28.915758,46.977375]]]]}},{"type":"Feature","properties":{"tip":"wastewater","nume":null,"ha":0.05},"geometry":{"type":"MultiPolygon","coordinates":[[[[28.916403,46.977217],[28.916494,46.97729],[28.91601,46.977572],[28.915919,46.977499],[28.916403,46.977217]]]]}},{"type":"Feature","properties":{"tip":"wastewater","nume":null,"ha":0.05},"geometry":{"type":"MultiPolygon","coordinates":[[[[28.91601,46.977572],[28.916494,46.97729],[28.916578,46.977358],[28.916093,46.977639],[28.91601,46.977572]]]]}},{"type":"Feature","properties":{"tip":"wastewater","nume":null,"ha":0.05},"geometry":{"type":"MultiPolygon","coordinates":[[[[28.916652,46.977419],[28.916743,46.977492],[28.916258,46.977773],[28.916168,46.977701],[28.916652,46.977419]]]]}},{"type":"Feature","properties":{"tip":"wastewater","nume":null,"ha":0.05},"geometry":{"type":"MultiPolygon","coordinates":[[[[28.916258,46.977773],[28.916743,46.977492],[28.916827,46.977559],[28.916342,46.977841],[28.916258,46.977773]]]]}},{"type":"Feature","properties":{"tip":"wastewater","nume":null,"ha":0.05},"geometry":{"type":"MultiPolygon","coordinates":[[[[28.916888,46.977621],[28.916979,46.977694],[28.916495,46.977975],[28.916404,46.977902],[28.916888,46.977621]]]]}},{"type":"Feature","properties":{"tip":"wastewater","nume":null,"ha":0.05},"geometry":{"type":"MultiPolygon","coordinates":[[[[28.916495,46.977975],[28.916979,46.977694],[28.917064,46.977761],[28.916579,46.978043],[28.916495,46.977975]]]]}},{"type":"Feature","properties":{"tip":"wastewater","nume":null,"ha":0.05},"geometry":{"type":"MultiPolygon","coordinates":[[[[28.91713,46.977813],[28.917221,46.977886],[28.916737,46.978167],[28.916646,46.978094],[28.91713,46.977813]]]]}},{"type":"Feature","properties":{"tip":"wastewater","nume":null,"ha":0.05},"geometry":{"type":"MultiPolygon","coordinates":[[[[28.916737,46.978167],[28.917221,46.977886],[28.917305,46.977953],[28.916821,46.978234],[28.916737,46.978167]]]]}},{"type":"Feature","properties":{"tip":"wastewater","nume":null,"ha":0.05},"geometry":{"type":"MultiPolygon","coordinates":[[[[28.917371,46.97802],[28.917462,46.978093],[28.916978,46.978374],[28.916887,46.978301],[28.917371,46.97802]]]]}},{"type":"Feature","properties":{"tip":"wastewater","nume":null,"ha":0.05},"geometry":{"type":"MultiPolygon","coordinates":[[[[28.916978,46.978374],[28.917462,46.978093],[28.917547,46.97816],[28.917062,46.978441],[28.916978,46.978374]]]]}},{"type":"Feature","properties":{"tip":"wastewater","nume":null,"ha":0.05},"geometry":{"type":"MultiPolygon","coordinates":[[[[28.917628,46.978221],[28.917719,46.978294],[28.917234,46.978576],[28.917144,46.978503],[28.917628,46.978221]]]]}},{"type":"Feature","properties":{"tip":"wastewater","nume":null,"ha":0.05},"geometry":{"type":"MultiPolygon","coordinates":[[[[28.917234,46.978576],[28.917719,46.978294],[28.917803,46.978362],[28.917318,46.978643],[28.917234,46.978576]]]]}},{"type":"Feature","properties":{"tip":"wastewater","nume":null,"ha":0.05},"geometry":{"type":"MultiPolygon","coordinates":[[[[28.917874,46.978433],[28.917965,46.978506],[28.917481,46.978788],[28.91739,46.978715],[28.917874,46.978433]]]]}},{"type":"Feature","properties":{"tip":"wastewater","nume":null,"ha":0.05},"geometry":{"type":"MultiPolygon","coordinates":[[[[28.917481,46.978788],[28.917965,46.978506],[28.918049,46.978574],[28.917565,46.978855],[28.917481,46.978788]]]]}},{"type":"Feature","properties":{"tip":"wastewater","nume":null,"ha":0.05},"geometry":{"type":"MultiPolygon","coordinates":[[[[28.918111,46.978623],[28.918202,46.978696],[28.917718,46.978978],[28.917627,46.978905],[28.918111,46.978623]]]]}},{"type":"Feature","properties":{"tip":"wastewater","nume":null,"ha":0.05},"geometry":{"type":"MultiPolygon","coordinates":[[[[28.917718,46.978978],[28.918202,46.978696],[28.918286,46.978764],[28.917801,46.979045],[28.917718,46.978978]]]]}},{"type":"Feature","properties":{"tip":"wastewater","nume":null,"ha":0.05},"geometry":{"type":"MultiPolygon","coordinates":[[[[28.918365,46.978825],[28.918456,46.978898],[28.917972,46.979179],[28.91788,46.979107],[28.918365,46.978825]]]]}},{"type":"Feature","properties":{"tip":"wastewater","nume":null,"ha":0.05},"geometry":{"type":"MultiPolygon","coordinates":[[[[28.917972,46.979179],[28.918456,46.978898],[28.91854,46.978965],[28.918055,46.979247],[28.917972,46.979179]]]]}},{"type":"Feature","properties":{"tip":"wastewater","nume":null,"ha":0.05},"geometry":{"type":"MultiPolygon","coordinates":[[[[28.918604,46.979015],[28.918695,46.979088],[28.918211,46.979369],[28.91812,46.979297],[28.918604,46.979015]]]]}},{"type":"Feature","properties":{"tip":"wastewater","nume":null,"ha":0.05},"geometry":{"type":"MultiPolygon","coordinates":[[[[28.918211,46.979369],[28.918695,46.979088],[28.918779,46.979155],[28.918294,46.979437],[28.918211,46.979369]]]]}},{"type":"Feature","properties":{"tip":"wastewater","nume":null,"ha":0.05},"geometry":{"type":"MultiPolygon","coordinates":[[[[28.918845,46.979214],[28.918936,46.979287],[28.918452,46.979568],[28.918361,46.979495],[28.918845,46.979214]]]]}},{"type":"Feature","properties":{"tip":"wastewater","nume":null,"ha":0.05},"geometry":{"type":"MultiPolygon","coordinates":[[[[28.918452,46.979568],[28.918936,46.979287],[28.91902,46.979354],[28.918536,46.979635],[28.918452,46.979568]]]]}},{"type":"Feature","properties":{"tip":"wastewater","nume":null,"ha":0.06},"geometry":{"type":"MultiPolygon","coordinates":[[[[28.919095,46.979446],[28.91877,46.979831],[28.918597,46.979693],[28.919051,46.979414],[28.919095,46.979446]]]]}},{"type":"Feature","properties":{"tip":"wastewater","nume":null,"ha":0.04},"geometry":{"type":"MultiPolygon","coordinates":[[[[28.918205,46.980267],[28.918649,46.980003],[28.91839,46.980395],[28.918205,46.980267]]]]}},{"type":"Feature","properties":{"tip":"wastewater","nume":null,"ha":0.05},"geometry":{"type":"MultiPolygon","coordinates":[[[[28.91806,46.98014],[28.918544,46.979858],[28.918629,46.979926],[28.918144,46.980207],[28.91806,46.98014]]]]}},{"type":"Feature","properties":{"tip":"wastewater","nume":null,"ha":0.05},"geometry":{"type":"MultiPolygon","coordinates":[[[[28.918453,46.979785],[28.918544,46.979858],[28.91806,46.98014],[28.917969,46.980067],[28.918453,46.979785]]]]}},{"type":"Feature","properties":{"tip":"wastewater","nume":null,"ha":0.05},"geometry":{"type":"MultiPolygon","coordinates":[[[[28.917809,46.979938],[28.918293,46.979656],[28.918377,46.979724],[28.917893,46.980005],[28.917809,46.979938]]]]}},{"type":"Feature","properties":{"tip":"wastewater","nume":null,"ha":0.05},"geometry":{"type":"MultiPolygon","coordinates":[[[[28.918202,46.979584],[28.918293,46.979656],[28.917809,46.979938],[28.917718,46.979865],[28.918202,46.979584]]]]}},{"type":"Feature","properties":{"tip":"wastewater","nume":null,"ha":0.05},"geometry":{"type":"MultiPolygon","coordinates":[[[[28.917565,46.979734],[28.918049,46.979453],[28.918133,46.97952],[28.917649,46.979802],[28.917565,46.979734]]]]}},{"type":"Feature","properties":{"tip":"wastewater","nume":null,"ha":0.05},"geometry":{"type":"MultiPolygon","coordinates":[[[[28.917958,46.97938],[28.918049,46.979453],[28.917565,46.979734],[28.917474,46.979661],[28.917958,46.97938]]]]}},{"type":"Feature","properties":{"tip":"wastewater","nume":null,"ha":0.05},"geometry":{"type":"MultiPolygon","coordinates":[[[[28.917316,46.979538],[28.9178,46.979256],[28.917884,46.979324],[28.9174,46.979605],[28.917316,46.979538]]]]}},{"type":"Feature","properties":{"tip":"wastewater","nume":null,"ha":0.05},"geometry":{"type":"MultiPolygon","coordinates":[[[[28.917709,46.979183],[28.9178,46.979256],[28.917316,46.979538],[28.917225,46.979465],[28.917709,46.979183]]]]}},{"type":"Feature","properties":{"tip":"wastewater","nume":null,"ha":0.05},"geometry":{"type":"MultiPolygon","coordinates":[[[[28.917074,46.979336],[28.917559,46.979054],[28.917643,46.979122],[28.917158,46.979403],[28.917074,46.979336]]]]}},{"type":"Feature","properties":{"tip":"wastewater","nume":null,"ha":0.05},"geometry":{"type":"MultiPolygon","coordinates":[[[[28.917468,46.978982],[28.917559,46.979054],[28.917074,46.979336],[28.916983,46.979263],[28.917468,46.978982]]]]}},{"type":"Feature","properties":{"tip":"wastewater","nume":null,"ha":0.05},"geometry":{"type":"MultiPolygon","coordinates":[[[[28.916833,46.979142],[28.917317,46.978861],[28.917401,46.978928],[28.916917,46.97921],[28.916833,46.979142]]]]}},{"type":"Feature","properties":{"tip":"wastewater","nume":null,"ha":0.05},"geometry":{"type":"MultiPolygon","coordinates":[[[[28.917226,46.978788],[28.917317,46.978861],[28.916833,46.979142],[28.916742,46.97907],[28.917226,46.978788]]]]}},{"type":"Feature","properties":{"tip":"wastewater","nume":null,"ha":0.05},"geometry":{"type":"MultiPolygon","coordinates":[[[[28.916591,46.978941],[28.917075,46.978659],[28.91716,46.978727],[28.916675,46.979008],[28.916591,46.978941]]]]}},{"type":"Feature","properties":{"tip":"wastewater","nume":null,"ha":0.05},"geometry":{"type":"MultiPolygon","coordinates":[[[[28.916984,46.978586],[28.917075,46.978659],[28.916591,46.978941],[28.9165,46.978868],[28.916984,46.978586]]]]}},{"type":"Feature","properties":{"tip":"wastewater","nume":null,"ha":0.05},"geometry":{"type":"MultiPolygon","coordinates":[[[[28.91634,46.978737],[28.916824,46.978456],[28.916908,46.978523],[28.916424,46.978804],[28.91634,46.978737]]]]}},{"type":"Feature","properties":{"tip":"wastewater","nume":null,"ha":0.05},"geometry":{"type":"MultiPolygon","coordinates":[[[[28.916733,46.978383],[28.916824,46.978456],[28.91634,46.978737],[28.916249,46.978664],[28.916733,46.978383]]]]}},{"type":"Feature","properties":{"tip":"wastewater","nume":null,"ha":0.05},"geometry":{"type":"MultiPolygon","coordinates":[[[[28.916101,46.978539],[28.916585,46.978257],[28.916669,46.978325],[28.916184,46.978606],[28.916101,46.978539]]]]}},{"type":"Feature","properties":{"tip":"wastewater","nume":null,"ha":0.05},"geometry":{"type":"MultiPolygon","coordinates":[[[[28.916494,46.978184],[28.916585,46.978257],[28.916101,46.978539],[28.91601,46.978466],[28.916494,46.978184]]]]}},{"type":"Feature","properties":{"tip":"wastewater","nume":null,"ha":0.05},"geometry":{"type":"MultiPolygon","coordinates":[[[[28.915866,46.978337],[28.916351,46.978056],[28.916435,46.978123],[28.91595,46.978404],[28.915866,46.978337]]]]}},{"type":"Feature","properties":{"tip":"wastewater","nume":null,"ha":0.05},"geometry":{"type":"MultiPolygon","coordinates":[[[[28.91626,46.977983],[28.916351,46.978056],[28.915866,46.978337],[28.915776,46.978264],[28.91626,46.977983]]]]}},{"type":"Feature","properties":{"tip":"wastewater","nume":null,"ha":0.05},"geometry":{"type":"MultiPolygon","coordinates":[[[[28.91562,46.978137],[28.916104,46.977855],[28.916188,46.977923],[28.915704,46.978204],[28.91562,46.978137]]]]}},{"type":"Feature","properties":{"tip":"wastewater","nume":null,"ha":0.05},"geometry":{"type":"MultiPolygon","coordinates":[[[[28.916013,46.977783],[28.916104,46.977855],[28.91562,46.978137],[28.915529,46.978064],[28.916013,46.977783]]]]}},{"type":"Feature","properties":{"tip":"wastewater","nume":null,"ha":0.05},"geometry":{"type":"MultiPolygon","coordinates":[[[[28.915376,46.977935],[28.91586,46.977654],[28.915944,46.977721],[28.91546,46.978002],[28.915376,46.977935]]]]}},{"type":"Feature","properties":{"tip":"wastewater","nume":null,"ha":0.05},"geometry":{"type":"MultiPolygon","coordinates":[[[[28.915769,46.977581],[28.91586,46.977654],[28.915376,46.977935],[28.915285,46.977862],[28.915769,46.977581]]]]}},{"type":"Feature","properties":{"tip":"wastewater","nume":null,"ha":0.05},"geometry":{"type":"MultiPolygon","coordinates":[[[[28.915132,46.977733],[28.915616,46.977452],[28.9157,46.977519],[28.915216,46.9778],[28.915132,46.977733]]]]}},{"type":"Feature","properties":{"tip":"wastewater","nume":null,"ha":0.05},"geometry":{"type":"MultiPolygon","coordinates":[[[[28.915525,46.977379],[28.915616,46.977452],[28.915132,46.977733],[28.915041,46.97766],[28.915525,46.977379]]]]}},{"type":"Feature","properties":{"tip":"wastewater","nume":null,"ha":0.05},"geometry":{"type":"MultiPolygon","coordinates":[[[[28.9149,46.977525],[28.915385,46.977243],[28.915469,46.977311],[28.914984,46.977592],[28.9149,46.977525]]]]}},{"type":"Feature","properties":{"tip":"wastewater","nume":null,"ha":0.05},"geometry":{"type":"MultiPolygon","coordinates":[[[[28.915294,46.97717],[28.915385,46.977243],[28.9149,46.977525],[28.914809,46.977452],[28.915294,46.97717]]]]}},{"type":"Feature","properties":{"tip":"wastewater","nume":null,"ha":0.11},"geometry":{"type":"MultiPolygon","coordinates":[[[[28.914952,46.976914],[28.915188,46.977098],[28.914693,46.97741],[28.914545,46.977302],[28.914952,46.976914]]]]}},{"type":"Feature","properties":{"tip":"wastewater","nume":null,"ha":0.18},"geometry":{"type":"MultiPolygon","coordinates":[[[[28.914644,46.976656],[28.914922,46.976848],[28.914407,46.977297],[28.914156,46.977142],[28.914542,46.976727],[28.914644,46.976656]]]]}},{"type":"Feature","properties":{"tip":"wastewater","nume":null,"ha":0.33},"geometry":{"type":"MultiPolygon","coordinates":[[[[28.915393,46.975777],[28.915783,46.97595],[28.915003,46.976727],[28.914739,46.976512],[28.915393,46.975777]]]]}},{"type":"Feature","properties":{"tip":"wastewater","nume":null,"ha":0.89},"geometry":{"type":"MultiPolygon","coordinates":[[[[28.91725,46.974375],[28.915838,46.975877],[28.915445,46.975715],[28.916668,46.974093],[28.91725,46.974375]]]]}},{"type":"Feature","properties":{"tip":null,"nume":null,"ha":0.09},"geometry":{"type":"MultiPolygon","coordinates":[[[[28.996303,46.989303],[28.996611,46.989853],[28.996455,46.989893],[28.996427,46.989843],[28.99618,46.989392],[28.996122,46.989287],[28.996303,46.989303]]]]}},{"type":"Feature","properties":{"tip":"water","nume":null,"ha":1.19},"geometry":{"type":"MultiPolygon","coordinates":[[[[28.996364,46.989908],[28.99633,46.989925],[28.996302,46.989932],[28.996305,46.989938],[28.996226,46.989978],[28.99554,46.990137],[28.994897,46.990147],[28.993935,46.990161],[28.993301,46.990052],[28.993806,46.989905],[28.994155,46.989752],[28.994462,46.98962],[28.994777,46.989622],[28.994946,46.989589],[28.995437,46.989493],[28.99567,46.989514],[28.996041,46.989392],[28.99618,46.989392],[28.996427,46.989843],[28.996364,46.989908]]]]}},{"type":"Feature","properties":{"tip":null,"nume":null,"ha":0.45},"geometry":{"type":"MultiPolygon","coordinates":[[[[28.973677,46.954686],[28.973732,46.954697],[28.97372,46.954786],[28.973664,46.954932],[28.973303,46.954859],[28.971653,46.954532],[28.971513,46.954504],[28.97161,46.954277],[28.973677,46.954686]]]]}},{"type":"Feature","properties":{"tip":"reservoir","nume":null,"ha":0.05},"geometry":{"type":"MultiPolygon","coordinates":[[[[28.97263,46.953888],[28.972669,46.953862],[28.972719,46.953846],[28.972774,46.953842],[28.972828,46.953851],[28.972874,46.953871],[28.972908,46.9539],[28.972926,46.953935],[28.972927,46.953972],[28.97291,46.954006],[28.972878,46.954036],[28.972834,46.954057],[28.972783,46.954067],[28.972729,46.954066],[28.972679,46.954052],[28.972637,46.954028],[28.972608,46.953996],[28.972597,46.953959],[28.972605,46.953921],[28.97263,46.953888]]]]}},{"type":"Feature","properties":{"tip":"reservoir","nume":null,"ha":2.29},"geometry":{"type":"MultiPolygon","coordinates":[[[[28.971599,46.954559],[28.971653,46.954532],[28.973303,46.954859],[28.973351,46.95495],[28.973355,46.955034],[28.973122,46.955494],[28.972797,46.955915],[28.972389,46.956603],[28.971579,46.956734],[28.971441,46.956],[28.97173,46.955072],[28.971581,46.954606],[28.971599,46.954559]]]]}},{"type":"Feature","properties":{"tip":"reservoir","nume":null,"ha":0.03},"geometry":{"type":"MultiPolygon","coordinates":[[[[28.973134,46.954312],[28.973043,46.954286],[28.973053,46.954237],[28.9731,46.954109],[28.973163,46.954096],[28.973238,46.954102],[28.973279,46.954147],[28.973203,46.954261],[28.973134,46.954312]]]]}},{"type":"Feature","properties":{"tip":"reservoir","nume":null,"ha":0.35},"geometry":{"type":"MultiPolygon","coordinates":[[[[28.958602,46.969571],[28.958671,46.969537],[28.959916,46.969611],[28.959946,46.96966],[28.95994,46.969723],[28.959848,46.969968],[28.959788,46.969978],[28.958616,46.969785],[28.95857,46.969754],[28.958549,46.969693],[28.95857,46.969631],[28.958602,46.969571]]]]}},{"type":"Feature","properties":{"tip":"water","nume":null,"ha":0.01},"geometry":{"type":"MultiPolygon","coordinates":[[[[28.940025,46.980705],[28.939932,46.980755],[28.939897,46.980748],[28.939866,46.980717],[28.93995,46.980673],[28.940029,46.980685],[28.940025,46.980705]]]]}},{"type":"Feature","properties":{"tip":"water","nume":null,"ha":0.02},"geometry":{"type":"MultiPolygon","coordinates":[[[[28.93955,46.980698],[28.939442,46.980787],[28.939412,46.980789],[28.939386,46.98078],[28.939335,46.980743],[28.939324,46.980726],[28.939378,46.980657],[28.939423,46.980646],[28.939481,46.980648],[28.93955,46.980698]]]]}},{"type":"Feature","properties":{"tip":"water","nume":null,"ha":0.0},"geometry":{"type":"MultiPolygon","coordinates":[[[[28.93887,46.981254],[28.938882,46.981336],[28.938842,46.981347],[28.938816,46.981339],[28.938816,46.981253],[28.938844,46.981248],[28.93887,46.981254]]]]}},{"type":"Feature","properties":{"tip":"reservoir","nume":null,"ha":0.22},"geometry":{"type":"MultiPolygon","coordinates":[[[[28.960085,46.995498],[28.960074,46.995422],[28.960099,46.995348],[28.960156,46.995283],[28.96024,46.995233],[28.960343,46.995204],[28.960454,46.995199],[28.960569,46.995219],[28.960667,46.995264],[28.960737,46.995329],[28.960772,46.995406],[28.960767,46.995486],[28.960723,46.995561],[28.960645,46.995622],[28.960542,46.995662],[28.960426,46.995676],[28.960309,46.995663],[28.960206,46.995624],[28.960131,46.995567],[28.960085,46.995498]]]]}},{"type":"Feature","properties":{"tip":null,"nume":null,"ha":0.26},"geometry":{"type":"MultiPolygon","coordinates":[[[[28.968821,46.997811],[28.96851,46.997554],[28.968677,46.997489],[28.968758,46.997557],[28.969475,46.998158],[28.970091,46.998676],[28.970263,46.998819],[28.970129,46.998893],[28.969996,46.998783],[28.968821,46.997811]]]]}},{"type":"Feature","properties":{"tip":null,"nume":null,"ha":0.12},"geometry":{"type":"MultiPolygon","coordinates":[[[[28.965763,47.00202],[28.965746,47.001919],[28.967128,47.001808],[28.967145,47.001909],[28.965763,47.00202]]]]}}]}