{"type":"FeatureCollection","xy_coordinate_resolution":1e-06,"features":[{"type":"Feature","properties":{"tip":"stream","nume":null,"m":20.0},"geometry":{"type":"MultiLineString","coordinates":[[[28.9402,46.978452],[28.940209,46.978276]]]}},{"type":"Feature","properties":{"tip":"stream","nume":null,"m":857.0},"geometry":{"type":"MultiLineString","coordinates":[[[28.940209,46.978276],[28.940294,46.976875],[28.940234,46.97603],[28.940342,46.974666],[28.940644,46.972351],[28.940299,46.972137],[28.940299,46.971945],[28.940813,46.971126],[28.940894,46.970763]]]}},{"type":"Feature","properties":{"tip":"stream","nume":null,"m":532.0},"geometry":{"type":"MultiLineString","coordinates":[[[28.948018,46.988853],[28.948025,46.988833],[28.947973,46.988297],[28.947707,46.987908],[28.947402,46.987637],[28.947141,46.987229],[28.946857,46.986924],[28.946617,46.986728],[28.94648,46.986506],[28.946338,46.986275],[28.946312,46.986043],[28.946093,46.985701],[28.94587,46.985455],[28.94575,46.985323],[28.94566,46.985074],[28.945626,46.984951],[28.945317,46.984767],[28.945214,46.984647],[28.945183,46.984597]]]}},{"type":"Feature","properties":{"tip":"dam","nume":null,"m":186.0},"geometry":{"type":"MultiLineString","coordinates":[[[28.968496,46.997583],[28.970043,46.998882]]]}},{"type":"Feature","properties":{"tip":"drain","nume":null,"m":835.0},"geometry":{"type":"MultiLineString","coordinates":[[[28.91928,46.965894],[28.919314,46.965865],[28.919483,46.965735],[28.921425,46.964238],[28.922465,46.963308],[28.923164,46.962509],[28.923845,46.961652],[28.92543,46.959714]]]}},{"type":"Feature","properties":{"tip":"ditch","nume":null,"m":1109.0},"geometry":{"type":"MultiLineString","coordinates":[[[28.920062,46.969642],[28.920839,46.969046],[28.924164,46.966207],[28.926941,46.963713],[28.92901,46.961772]]]}},{"type":"Feature","properties":{"tip":"ditch","nume":null,"m":1363.0},"geometry":{"type":"MultiLineString","coordinates":[[[28.927387,46.965367],[28.930391,46.96271],[28.931045,46.962168],[28.931131,46.962043],[28.931324,46.961406],[28.931721,46.959868],[28.932161,46.958089],[28.932569,46.95631],[28.932644,46.95617],[28.932762,46.956127],[28.935259,46.95678],[28.935488,46.95684]]]}},{"type":"Feature","properties":{"tip":"ditch","nume":null,"m":743.0},"geometry":{"type":"MultiLineString","coordinates":[[[28.92744,46.965719],[28.929457,46.964547],[28.92993,46.964262],[28.930144,46.964137],[28.930498,46.964028],[28.931861,46.963625],[28.932177,46.963615],[28.932651,46.963563],[28.933005,46.963526],[28.933309,46.963405],[28.933727,46.963149],[28.934232,46.96279],[28.934403,46.962688],[28.934833,46.962431],[28.934994,46.962299],[28.935026,46.962197],[28.935015,46.96197]]]}},{"type":"Feature","properties":{"tip":"ditch","nume":null,"m":385.0},"geometry":{"type":"MultiLineString","coordinates":[[[28.931324,46.961406],[28.935015,46.96197],[28.936259,46.96216]]]}},{"type":"Feature","properties":{"tip":"ditch","nume":null,"m":15.0},"geometry":{"type":"MultiLineString","coordinates":[[[28.936259,46.96216],[28.936453,46.962204]]]}},{"type":"Feature","properties":{"tip":"ditch","nume":null,"m":240.0},"geometry":{"type":"MultiLineString","coordinates":[[[28.936453,46.962204],[28.936978,46.962277],[28.937279,46.96227],[28.937547,46.962131],[28.937762,46.961901],[28.937954,46.961626],[28.938445,46.960923]]]}},{"type":"Feature","properties":{"tip":"river","nume":"Bîc","m":2873.0},"geometry":{"type":"MultiLineString","coordinates":[[[28.913522,46.977149],[28.913777,46.976898],[28.914173,46.976509],[28.914562,46.97617],[28.914805,46.975907],[28.91493,46.975705],[28.914994,46.975617],[28.915208,46.975392],[28.915325,46.975256],[28.915458,46.975177],[28.916535,46.973871],[28.917358,46.972778],[28.918113,46.971975],[28.91909,46.97113],[28.919623,46.970738],[28.923135,46.967962],[28.926263,46.965477],[28.927748,46.964132],[28.930061,46.962059],[28.930469,46.961534],[28.930612,46.960803],[28.930945,46.95921],[28.931169,46.957324],[28.931542,46.956366],[28.931784,46.955829],[28.931943,46.955566],[28.931963,46.955533],[28.932098,46.955346]]]}},{"type":"Feature","properties":{"tip":"drain","nume":null,"m":15.0},"geometry":{"type":"MultiLineString","coordinates":[[[28.925479,46.95958],[28.92543,46.959714]]]}},{"type":"Feature","properties":{"tip":"drain","nume":null,"m":387.0},"geometry":{"type":"MultiLineString","coordinates":[[[28.916115,46.968735],[28.916215,46.968649],[28.917279,46.967615],[28.919198,46.965965]]]}},{"type":"Feature","properties":{"tip":"drain","nume":null,"m":10.0},"geometry":{"type":"MultiLineString","coordinates":[[[28.919198,46.965965],[28.91928,46.965894]]]}},{"type":"Feature","properties":{"tip":"stream","nume":null,"m":157.0},"geometry":{"type":"MultiLineString","coordinates":[[[28.940908,46.9707],[28.941084,46.969907],[28.940839,46.969815],[28.940961,46.969402]]]}},{"type":"Feature","properties":{"tip":"stream","nume":null,"m":7.0},"geometry":{"type":"MultiLineString","coordinates":[[[28.940894,46.970763],[28.940908,46.9707]]]}},{"type":"Feature","properties":{"tip":"stream","nume":null,"m":1175.0},"geometry":{"type":"MultiLineString","coordinates":[[[28.940979,46.969295],[28.94103,46.968983],[28.94117,46.968972],[28.941248,46.968748],[28.941381,46.968607],[28.941478,46.967901],[28.941602,46.967081],[28.941602,46.966962],[28.941608,46.966747],[28.941574,46.966583],[28.941596,46.966423],[28.941673,46.966171],[28.941622,46.965997],[28.941647,46.965721],[28.941732,46.965603],[28.941806,46.964807],[28.942134,46.964436],[28.942313,46.963886],[28.942457,46.96335],[28.942487,46.963155],[28.942533,46.963083],[28.942599,46.963033],[28.942657,46.962672],[28.942728,46.962417],[28.942745,46.962387],[28.942916,46.961765],[28.943126,46.960985],[28.943213,46.960513],[28.943275,46.960419],[28.943369,46.960066],[28.943343,46.960012],[28.94338,46.959971],[28.943356,46.95987],[28.943268,46.959729],[28.943127,46.959656],[28.942818,46.959363],[28.942617,46.959247]]]}},{"type":"Feature","properties":{"tip":"stream","nume":null,"m":680.0},"geometry":{"type":"MultiLineString","coordinates":[[[28.940258,46.957805],[28.940185,46.957783],[28.939121,46.957484],[28.938043,46.957192],[28.93593,46.956631],[28.933665,46.955982],[28.933422,46.955951],[28.931943,46.955566]]]}},{"type":"Feature","properties":{"tip":"stream","nume":null,"m":11.0},"geometry":{"type":"MultiLineString","coordinates":[[[28.940391,46.957844],[28.940258,46.957805]]]}},{"type":"Feature","properties":{"tip":"stream","nume":null,"m":223.0},"geometry":{"type":"MultiLineString","coordinates":[[[28.942517,46.959189],[28.942208,46.959072],[28.94173,46.958733],[28.941035,46.958184],[28.940798,46.95801],[28.940567,46.957897],[28.940391,46.957844]]]}},{"type":"Feature","properties":{"tip":"stream","nume":null,"m":10.0},"geometry":{"type":"MultiLineString","coordinates":[[[28.942617,46.959247],[28.942517,46.959189]]]}},{"type":"Feature","properties":{"tip":"stream","nume":null,"m":12.0},"geometry":{"type":"MultiLineString","coordinates":[[[28.940961,46.969402],[28.940979,46.969295]]]}},{"type":"Feature","properties":{"tip":"stream","nume":null,"m":786.0},"geometry":{"type":"MultiLineString","coordinates":[[[28.945124,46.984504],[28.945111,46.984483],[28.944793,46.983988],[28.94463,46.983807],[28.944381,46.983628],[28.944046,46.983508],[28.943879,46.983446],[28.943566,46.983192],[28.943103,46.982684],[28.943128,46.982524],[28.942744,46.98225],[28.942217,46.981595],[28.941478,46.98061],[28.941464,46.980589],[28.940789,46.979528],[28.940537,46.979131],[28.9402,46.978452]]]}},{"type":"Feature","properties":{"tip":"stream","nume":null,"m":11.0},"geometry":{"type":"MultiLineString","coordinates":[[[28.945183,46.984597],[28.945124,46.984504]]]}},{"type":"Feature","properties":{"tip":"drain","nume":null,"m":933.0},"geometry":{"type":"MultiLineString","coordinates":[[[28.941258,46.949313],[28.941035,46.949462],[28.94043,46.949863],[28.940005,46.950176],[28.938544,46.951253],[28.938331,46.95141],[28.936877,46.952427],[28.935649,46.953091],[28.934559,46.95373],[28.934276,46.954049],[28.93301,46.955447]]]}},{"type":"Feature","properties":{"tip":"drain","nume":null,"m":237.0},"geometry":{"type":"MultiLineString","coordinates":[[[28.934276,46.954049],[28.934576,46.954219],[28.935759,46.955061],[28.93646,46.955561]]]}},{"type":"Feature","properties":{"tip":"drain","nume":null,"m":92.0},"geometry":{"type":"MultiLineString","coordinates":[[[28.935759,46.955061],[28.935005,46.955705]]]}},{"type":"Feature","properties":{"tip":"drain","nume":null,"m":367.0},"geometry":{"type":"MultiLineString","coordinates":[[[28.935649,46.953091],[28.936212,46.953589],[28.936596,46.953927],[28.937962,46.955133],[28.938812,46.954711]]]}},{"type":"Feature","properties":{"tip":"drain","nume":null,"m":156.0},"geometry":{"type":"MultiLineString","coordinates":[[[28.938544,46.951253],[28.939937,46.952283]]]}},{"type":"Feature","properties":{"tip":"drain","nume":null,"m":147.0},"geometry":{"type":"MultiLineString","coordinates":[[[28.940005,46.950176],[28.941301,46.951161]]]}},{"type":"Feature","properties":{"tip":"drain","nume":null,"m":393.0},"geometry":{"type":"MultiLineString","coordinates":[[[28.944962,46.946714],[28.943786,46.947511],[28.941374,46.949236],[28.941356,46.949249]]]}},{"type":"Feature","properties":{"tip":"drain","nume":null,"m":10.0},"geometry":{"type":"MultiLineString","coordinates":[[[28.941356,46.949249],[28.941258,46.949313]]]}},{"type":"Feature","properties":{"tip":"drain","nume":null,"m":51.0},"geometry":{"type":"MultiLineString","coordinates":[[[28.940009,46.952343],[28.940164,46.952473],[28.94052,46.952638]]]}},{"type":"Feature","properties":{"tip":"drain","nume":null,"m":9.0},"geometry":{"type":"MultiLineString","coordinates":[[[28.939937,46.952283],[28.940009,46.952343]]]}},{"type":"Feature","properties":{"tip":"drain","nume":null,"m":582.0},"geometry":{"type":"MultiLineString","coordinates":[[[28.935259,46.95678],[28.934491,46.958848],[28.933937,46.960338],[28.936032,46.96096]]]}},{"type":"Feature","properties":{"tip":"drain","nume":null,"m":223.0},"geometry":{"type":"MultiLineString","coordinates":[[[28.934491,46.958848],[28.937187,46.959635]]]}},{"type":"Feature","properties":{"tip":"drain","nume":null,"m":398.0},"geometry":{"type":"MultiLineString","coordinates":[[[28.920268,46.976003],[28.920306,46.975631],[28.920276,46.975437],[28.920171,46.975336],[28.919936,46.975231],[28.916535,46.973871]]]}},{"type":"Feature","properties":{"tip":"drain","nume":null,"m":159.0},"geometry":{"type":"MultiLineString","coordinates":[[[28.918153,46.970362],[28.916543,46.969556],[28.916463,46.969519]]]}},{"type":"Feature","properties":{"tip":"drain","nume":null,"m":62.0},"geometry":{"type":"MultiLineString","coordinates":[[[28.91893,46.970742],[28.918271,46.97042]]]}},{"type":"Feature","properties":{"tip":"drain","nume":null,"m":11.0},"geometry":{"type":"MultiLineString","coordinates":[[[28.918271,46.97042],[28.918153,46.970362]]]}},{"type":"Feature","properties":{"tip":"drain","nume":null,"m":297.0},"geometry":{"type":"MultiLineString","coordinates":[[[28.936596,46.953927],[28.939319,46.952019]]]}},{"type":"Feature","properties":{"tip":"drain","nume":null,"m":292.0},"geometry":{"type":"MultiLineString","coordinates":[[[28.936212,46.953589],[28.938945,46.951741]]]}},{"type":"Feature","properties":{"tip":"drain","nume":null,"m":26.0},"geometry":{"type":"MultiLineString","coordinates":[[[28.916309,46.96945],[28.916026,46.969322]]]}},{"type":"Feature","properties":{"tip":"drain","nume":null,"m":14.0},"geometry":{"type":"MultiLineString","coordinates":[[[28.916463,46.969519],[28.916309,46.96945]]]}},{"type":"Feature","properties":{"tip":"drain","nume":null,"m":134.0},"geometry":{"type":"MultiLineString","coordinates":[[[28.920164,46.977298],[28.920246,46.976225],[28.920259,46.976096]]]}},{"type":"Feature","properties":{"tip":"drain","nume":null,"m":10.0},"geometry":{"type":"MultiLineString","coordinates":[[[28.920259,46.976096],[28.920268,46.976003]]]}},{"type":"Feature","properties":{"tip":"stream","nume":null,"m":763.0},"geometry":{"type":"MultiLineString","coordinates":[[[28.987828,46.991994],[28.987932,46.991929],[28.9883,46.99157],[28.989589,46.990251],[28.990775,46.989882],[28.99355,46.99004],[28.993822,46.990025],[28.994526,46.989978],[28.996186,46.989869],[28.996353,46.989809]]]}},{"type":"Feature","properties":{"tip":"stream","nume":null,"m":15.0},"geometry":{"type":"MultiLineString","coordinates":[[[28.996353,46.989809],[28.996517,46.989734]]]}},{"type":"Feature","properties":{"tip":"stream","nume":null,"m":2.0},"geometry":{"type":"MultiLineString","coordinates":[[[28.996517,46.989734],[28.99654,46.989724]]]}},{"type":"Feature","properties":{"tip":"stream","nume":null,"m":72.0},"geometry":{"type":"MultiLineString","coordinates":[[[28.972656,46.954365],[28.972765,46.954073],[28.972825,46.953989],[28.973012,46.954006],[28.973149,46.954003],[28.973165,46.953977]]]}},{"type":"Feature","properties":{"tip":"stream","nume":null,"m":371.0},"geometry":{"type":"MultiLineString","coordinates":[[[28.971315,46.960799],[28.971394,46.959698],[28.97165,46.958321],[28.971734,46.957473]]]}},{"type":"Feature","properties":{"tip":"stream","nume":null,"m":44.0},"geometry":{"type":"MultiLineString","coordinates":[[[28.972472,46.954744],[28.972656,46.954365]]]}},{"type":"Feature","properties":{"tip":"stream","nume":null,"m":511.0},"geometry":{"type":"MultiLineString","coordinates":[[[28.970278,46.965386],[28.970459,46.964905],[28.970399,46.964335],[28.970321,46.963894],[28.970589,46.963613],[28.970835,46.96278],[28.970908,46.962131],[28.971286,46.960914]]]}},{"type":"Feature","properties":{"tip":"stream","nume":null,"m":13.0},"geometry":{"type":"MultiLineString","coordinates":[[[28.971286,46.960914],[28.971315,46.960799]]]}},{"type":"Feature","properties":{"tip":"ditch","nume":null,"m":60.0},"geometry":{"type":"MultiLineString","coordinates":[[[28.973605,46.95464],[28.973442,46.954494],[28.97337,46.954357],[28.973367,46.954196],[28.973353,46.95415]]]}},{"type":"Feature","properties":{"tip":"stream","nume":null,"m":273.0},"geometry":{"type":"MultiLineString","coordinates":[[[28.971767,46.957142],[28.971818,46.956636],[28.972354,46.954982],[28.972472,46.954744]]]}},{"type":"Feature","properties":{"tip":"stream","nume":null,"m":37.0},"geometry":{"type":"MultiLineString","coordinates":[[[28.971734,46.957473],[28.971767,46.957142]]]}},{"type":"Feature","properties":{"tip":"ditch","nume":null,"m":106.0},"geometry":{"type":"MultiLineString","coordinates":[[[28.948822,46.945254],[28.948134,46.944785],[28.94802,46.944718],[28.947812,46.944597]]]}},{"type":"Feature","properties":{"tip":"ditch","nume":null,"m":26.0},"geometry":{"type":"MultiLineString","coordinates":[[[28.947812,46.944597],[28.947547,46.944454]]]}},{"type":"Feature","properties":{"tip":"ditch","nume":null,"m":70.0},"geometry":{"type":"MultiLineString","coordinates":[[[28.94944,46.945849],[28.949349,46.94574],[28.949071,46.945484],[28.948912,46.945338]]]}},{"type":"Feature","properties":{"tip":"ditch","nume":null,"m":12.0},"geometry":{"type":"MultiLineString","coordinates":[[[28.948912,46.945338],[28.948822,46.945254]]]}},{"type":"Feature","properties":{"tip":"ditch","nume":null,"m":274.0},"geometry":{"type":"MultiLineString","coordinates":[[[28.939645,46.975989],[28.93908,46.977607],[28.939094,46.977677],[28.939188,46.977727],[28.939631,46.977923],[28.939912,46.978136]]]}},{"type":"Feature","properties":{"tip":"ditch","nume":null,"m":17.0},"geometry":{"type":"MultiLineString","coordinates":[[[28.940026,46.97819],[28.940209,46.978276]]]}},{"type":"Feature","properties":{"tip":"ditch","nume":null,"m":11.0},"geometry":{"type":"MultiLineString","coordinates":[[[28.939912,46.978136],[28.940026,46.97819]]]}},{"type":"Feature","properties":{"tip":"ditch","nume":null,"m":504.0},"geometry":{"type":"MultiLineString","coordinates":[[[28.937919,46.983324],[28.93832,46.982739],[28.938356,46.982522],[28.938601,46.981972],[28.938638,46.981817],[28.938741,46.981452],[28.938797,46.980972],[28.938826,46.980868],[28.939255,46.980421],[28.939318,46.980354],[28.939582,46.979992],[28.939748,46.979875],[28.940511,46.979583],[28.940789,46.979528]]]}},{"type":"Feature","properties":{"tip":"ditch","nume":null,"m":137.0},"geometry":{"type":"MultiLineString","coordinates":[[[28.939238,46.979452],[28.939349,46.97931],[28.939373,46.979212],[28.939332,46.978958],[28.939371,46.978897],[28.939426,46.978859],[28.939501,46.978852],[28.939647,46.978761],[28.94004,46.978452]]]}},{"type":"Feature","properties":{"tip":"ditch","nume":null,"m":12.0},"geometry":{"type":"MultiLineString","coordinates":[[[28.94004,46.978452],[28.9402,46.978452]]]}},{"type":"Feature","properties":{"tip":"ditch","nume":null,"m":51.0},"geometry":{"type":"MultiLineString","coordinates":[[[28.940377,46.980792],[28.940222,46.98065],[28.940125,46.98062],[28.94004,46.980631],[28.939827,46.980646]]]}},{"type":"Feature","properties":{"tip":"ditch","nume":null,"m":43.0},"geometry":{"type":"MultiLineString","coordinates":[[[28.939727,46.980626],[28.939628,46.980599],[28.939255,46.980421]]]}},{"type":"Feature","properties":{"tip":"ditch","nume":null,"m":8.0},"geometry":{"type":"MultiLineString","coordinates":[[[28.939827,46.980646],[28.939727,46.980626]]]}},{"type":"Feature","properties":{"tip":"ditch","nume":null,"m":94.0},"geometry":{"type":"MultiLineString","coordinates":[[[28.94076,46.981285],[28.941464,46.980589]]]}},{"type":"Feature","properties":{"tip":"ditch","nume":null,"m":84.0},"geometry":{"type":"MultiLineString","coordinates":[[[28.937372,46.984061],[28.937492,46.983931],[28.937851,46.983423],[28.937874,46.98339]]]}},{"type":"Feature","properties":{"tip":"ditch","nume":null,"m":8.0},"geometry":{"type":"MultiLineString","coordinates":[[[28.937874,46.98339],[28.937919,46.983324]]]}},{"type":"Feature","properties":{"tip":"ditch","nume":null,"m":18.0},"geometry":{"type":"MultiLineString","coordinates":[[[28.935043,46.986528],[28.935188,46.986405]]]}},{"type":"Feature","properties":{"tip":"ditch","nume":null,"m":3.0},"geometry":{"type":"MultiLineString","coordinates":[[[28.935276,46.986299],[28.935294,46.986277]]]}},{"type":"Feature","properties":{"tip":"ditch","nume":null,"m":14.0},"geometry":{"type":"MultiLineString","coordinates":[[[28.935188,46.986405],[28.935276,46.986299]]]}},{"type":"Feature","properties":{"tip":"stream","nume":null,"m":131.0},"geometry":{"type":"MultiLineString","coordinates":[[[28.948167,46.990127],[28.948187,46.98996],[28.948172,46.98973],[28.948009,46.989185],[28.947979,46.988967],[28.947982,46.988958]]]}},{"type":"Feature","properties":{"tip":"stream","nume":null,"m":12.0},"geometry":{"type":"MultiLineString","coordinates":[[[28.947982,46.988958],[28.948018,46.988853]]]}},{"type":"Feature","properties":{"tip":"stream","nume":null,"m":70.0},"geometry":{"type":"MultiLineString","coordinates":[[[28.948114,46.990859],[28.948131,46.990437],[28.948156,46.990226]]]}},{"type":"Feature","properties":{"tip":"stream","nume":null,"m":11.0},"geometry":{"type":"MultiLineString","coordinates":[[[28.948156,46.990226],[28.948167,46.990127]]]}},{"type":"Feature","properties":{"tip":"ditch","nume":null,"m":61.0},"geometry":{"type":"MultiLineString","coordinates":[[[28.944326,46.950081],[28.944192,46.950002],[28.94399,46.949871],[28.943849,46.949766],[28.943737,46.949715]]]}},{"type":"Feature","properties":{"tip":"ditch","nume":null,"m":10.0},"geometry":{"type":"MultiLineString","coordinates":[[[28.944606,46.949998],[28.9445,46.949942]]]}},{"type":"Feature","properties":{"tip":"ditch","nume":null,"m":2.0},"geometry":{"type":"MultiLineString","coordinates":[[[28.944628,46.95001],[28.944606,46.949998]]]}},{"type":"Feature","properties":{"tip":"ditch","nume":null,"m":11.0},"geometry":{"type":"MultiLineString","coordinates":[[[28.938165,46.961706],[28.938038,46.961658]]]}},{"type":"Feature","properties":{"tip":"ditch","nume":null,"m":7.0},"geometry":{"type":"MultiLineString","coordinates":[[[28.938038,46.961658],[28.937954,46.961626]]]}},{"type":"Feature","properties":{"tip":"ditch","nume":null,"m":3.0},"geometry":{"type":"MultiLineString","coordinates":[[[28.938198,46.961719],[28.938165,46.961706]]]}},{"type":"Feature","properties":{"tip":"ditch","nume":null,"m":51.0},"geometry":{"type":"MultiLineString","coordinates":[[[28.959655,47.000531],[28.960192,47.000809]]]}},{"type":"Feature","properties":{"tip":"ditch","nume":null,"m":12.0},"geometry":{"type":"MultiLineString","coordinates":[[[28.959528,47.000464],[28.959655,47.000531]]]}},{"type":"Feature","properties":{"tip":"ditch","nume":null,"m":8.0},"geometry":{"type":"MultiLineString","coordinates":[[[28.959443,47.000419],[28.959528,47.000464]]]}},{"type":"Feature","properties":{"tip":"ditch","nume":null,"m":35.0},"geometry":{"type":"MultiLineString","coordinates":[[[28.962023,46.999614],[28.962234,46.999891]]]}},{"type":"Feature","properties":{"tip":"ditch","nume":null,"m":12.0},"geometry":{"type":"MultiLineString","coordinates":[[[28.96195,46.999518],[28.962023,46.999614]]]}},{"type":"Feature","properties":{"tip":"ditch","nume":null,"m":1.0},"geometry":{"type":"MultiLineString","coordinates":[[[28.961946,46.999513],[28.96195,46.999518]]]}},{"type":"Feature","properties":{"tip":"ditch","nume":null,"m":157.0},"geometry":{"type":"MultiLineString","coordinates":[[[28.964292,46.998752],[28.964379,46.998918],[28.964512,46.99905],[28.9648,46.999138],[28.966005,46.999378]]]}},{"type":"Feature","properties":{"tip":"ditch","nume":null,"m":12.0},"geometry":{"type":"MultiLineString","coordinates":[[[28.964239,46.99865],[28.964292,46.998752]]]}},{"type":"Feature","properties":{"tip":"ditch","nume":null,"m":3.0},"geometry":{"type":"MultiLineString","coordinates":[[[28.964224,46.998621],[28.964239,46.99865]]]}},{"type":"Feature","properties":{"tip":"ditch","nume":null,"m":49.0},"geometry":{"type":"MultiLineString","coordinates":[[[28.966622,46.997914],[28.966559,46.99835]]]}},{"type":"Feature","properties":{"tip":"ditch","nume":null,"m":12.0},"geometry":{"type":"MultiLineString","coordinates":[[[28.966637,46.997806],[28.966622,46.997914]]]}},{"type":"Feature","properties":{"tip":"ditch","nume":null,"m":2.0},"geometry":{"type":"MultiLineString","coordinates":[[[28.966639,46.997792],[28.966637,46.997806]]]}},{"type":"Feature","properties":{"tip":"ditch","nume":null,"m":28.0},"geometry":{"type":"MultiLineString","coordinates":[[[28.968138,46.997676],[28.968271,46.997782],[28.968431,46.99781]]]}},{"type":"Feature","properties":{"tip":"ditch","nume":null,"m":12.0},"geometry":{"type":"MultiLineString","coordinates":[[[28.968052,46.997584],[28.968138,46.997676]]]}},{"type":"Feature","properties":{"tip":"ditch","nume":null,"m":3.0},"geometry":{"type":"MultiLineString","coordinates":[[[28.968028,46.997558],[28.968052,46.997584]]]}},{"type":"Feature","properties":{"tip":"ditch","nume":null,"m":28.0},"geometry":{"type":"MultiLineString","coordinates":[[[28.958034,47.001703],[28.958324,47.001859]]]}},{"type":"Feature","properties":{"tip":"ditch","nume":null,"m":12.0},"geometry":{"type":"MultiLineString","coordinates":[[[28.957913,47.001633],[28.958034,47.001703]]]}},{"type":"Feature","properties":{"tip":"ditch","nume":null,"m":5.0},"geometry":{"type":"MultiLineString","coordinates":[[[28.957859,47.001601],[28.957913,47.001633]]]}},{"type":"Feature","properties":{"tip":"stream","nume":null,"m":1226.0},"geometry":{"type":"MultiLineString","coordinates":[[[28.947948,47.006463],[28.947959,47.006455],[28.948031,47.006441]],[[28.956239,47.002915],[28.956399,47.002812],[28.956403,47.002813]],[[28.95641,47.002816],[28.956552,47.00287],[28.956712,47.002771],[28.957024,47.002613],[28.957202,47.002538],[28.957234,47.002524],[28.957926,47.002098],[28.958324,47.001859],[28.959151,47.001364],[28.959864,47.000989],[28.960192,47.000809],[28.961198,47.000314],[28.961468,47.000237],[28.963069,47.000374],[28.964199,47.000074],[28.964356,46.999946],[28.964463,46.999744],[28.964695,46.99968],[28.965028,46.999715],[28.965706,46.999457],[28.966005,46.999378],[28.967622,46.998951],[28.968362,46.998755],[28.968455,46.998024],[28.968431,46.99781],[28.968415,46.997675],[28.968567,46.99758]]]}},{"type":"Feature","properties":{"tip":"ditch","nume":null,"m":19.0},"geometry":{"type":"MultiLineString","coordinates":[[[28.957021,47.00242],[28.957202,47.002538]]]}},{"type":"Feature","properties":{"tip":"ditch","nume":null,"m":12.0},"geometry":{"type":"MultiLineString","coordinates":[[[28.954684,47.003722],[28.954783,47.003807]]]}},{"type":"Feature","properties":{"tip":"ditch","nume":null,"m":0.0},"geometry":{"type":"MultiLineString","coordinates":[[[28.954783,47.003807],[28.954785,47.003808]]]}},{"type":"Feature","properties":{"tip":"ditch","nume":null,"m":2.0},"geometry":{"type":"MultiLineString","coordinates":[[[28.95467,47.00371],[28.954684,47.003722]]]}},{"type":"Feature","properties":{"tip":"ditch","nume":null,"m":11.0},"geometry":{"type":"MultiLineString","coordinates":[[[28.951916,47.005127],[28.951999,47.005212]]]}},{"type":"Feature","properties":{"tip":"ditch","nume":null,"m":2.0},"geometry":{"type":"MultiLineString","coordinates":[[[28.951901,47.005112],[28.951916,47.005127]]]}},{"type":"Feature","properties":{"tip":"ditch","nume":null,"m":12.0},"geometry":{"type":"MultiLineString","coordinates":[[[28.94826,47.006262],[28.948302,47.006366]]]}},{"type":"Feature","properties":{"tip":"ditch","nume":null,"m":1.0},"geometry":{"type":"MultiLineString","coordinates":[[[28.948302,47.006366],[28.948306,47.006376]]]}},{"type":"Feature","properties":{"tip":"ditch","nume":null,"m":2.0},"geometry":{"type":"MultiLineString","coordinates":[[[28.948251,47.00624],[28.94826,47.006262]]]}},{"type":"Feature","properties":{"tip":"ditch","nume":null,"m":3.0},"geometry":{"type":"MultiLineString","coordinates":[[[28.944903,47.007235],[28.944931,47.007247]]]}},{"type":"Feature","properties":{"tip":"ditch","nume":null,"m":13.0},"geometry":{"type":"MultiLineString","coordinates":[[[28.944765,47.007171],[28.944903,47.007235]]]}},{"type":"Feature","properties":{"tip":"ditch","nume":null,"m":11.0},"geometry":{"type":"MultiLineString","coordinates":[[[28.946194,47.006662],[28.946222,47.006763]]]}},{"type":"Feature","properties":{"tip":"ditch","nume":null,"m":5.0},"geometry":{"type":"MultiLineString","coordinates":[[[28.946183,47.006622],[28.946194,47.006662]]]}},{"type":"Feature","properties":{"tip":"ditch","nume":null,"m":631.0},"geometry":{"type":"MultiLineString","coordinates":[[[28.938205,47.01053],[28.938218,47.010526],[28.939341,47.010029],[28.940572,47.009442],[28.942067,47.008737],[28.942461,47.008558],[28.942792,47.008425],[28.943622,47.008125],[28.943935,47.007977],[28.94413,47.007846],[28.944308,47.007689],[28.944765,47.007171]]]}},{"type":"Feature","properties":{"tip":"ditch","nume":null,"m":12.0},"geometry":{"type":"MultiLineString","coordinates":[[[28.93806,47.010575],[28.938205,47.01053]]]}},{"type":"Feature","properties":{"tip":"ditch","nume":null,"m":39.0},"geometry":{"type":"MultiLineString","coordinates":[[[28.937233,47.010795],[28.93734,47.010819],[28.937564,47.010828],[28.937738,47.010816]]]}},{"type":"Feature","properties":{"tip":"ditch","nume":null,"m":68.0},"geometry":{"type":"MultiLineString","coordinates":[[[28.943194,47.008396],[28.94398,47.008112]]]}},{"type":"Feature","properties":{"tip":"stream","nume":null,"m":147.0},"geometry":{"type":"MultiLineString","coordinates":[[[28.968666,46.997519],[28.968692,46.997502],[28.970107,46.997192],[28.970262,46.997189],[28.970494,46.997228],[28.970502,46.99722]]]}},{"type":"Feature","properties":{"tip":"stream","nume":null,"m":10.0},"geometry":{"type":"MultiLineString","coordinates":[[[28.968567,46.99758],[28.968666,46.997519]]]}},{"type":"Feature","properties":{"tip":"stream","nume":null,"m":713.0},"geometry":{"type":"MultiLineString","coordinates":[[[28.970596,46.997132],[28.970623,46.997106],[28.970691,46.997001],[28.97116,46.996749],[28.971448,46.996502],[28.971964,46.995968],[28.972269,46.995825],[28.972725,46.995702],[28.973241,46.995482],[28.9734,46.995508],[28.973658,46.995649],[28.974072,46.995819],[28.974142,46.995845],[28.975568,46.995289],[28.976898,46.994758],[28.977274,46.994671],[28.978202,46.994455],[28.978277,46.994437]]]}},{"type":"Feature","properties":{"tip":"stream","nume":null,"m":12.0},"geometry":{"type":"MultiLineString","coordinates":[[[28.970502,46.99722],[28.970596,46.997132]]]}},{"type":"Feature","properties":{"tip":"stream","nume":null,"m":493.0},"geometry":{"type":"MultiLineString","coordinates":[[[28.981653,46.9936],[28.983513,46.993147],[28.985458,46.992646],[28.987652,46.992104],[28.987724,46.992059]]]}},{"type":"Feature","properties":{"tip":"stream","nume":null,"m":10.0},"geometry":{"type":"MultiLineString","coordinates":[[[28.978277,46.994437],[28.978401,46.994408]]]}},{"type":"Feature","properties":{"tip":"ditch","nume":null,"m":48.0},"geometry":{"type":"MultiLineString","coordinates":[[[28.994781,46.990376],[28.994526,46.989978]]]}},{"type":"Feature","properties":{"tip":"ditch","nume":null,"m":12.0},"geometry":{"type":"MultiLineString","coordinates":[[[28.994846,46.990478],[28.994781,46.990376]]]}},{"type":"Feature","properties":{"tip":"stream","nume":null,"m":11.0},"geometry":{"type":"MultiLineString","coordinates":[[[28.987724,46.992059],[28.987828,46.991994]]]}},{"type":"Feature","properties":{"tip":"stream","nume":null,"m":252.0},"geometry":{"type":"MultiLineString","coordinates":[[[28.978401,46.994408],[28.97944,46.994166],[28.981221,46.993705],[28.981516,46.993633]]]}},{"type":"Feature","properties":{"tip":"stream","nume":null,"m":11.0},"geometry":{"type":"MultiLineString","coordinates":[[[28.981516,46.993633],[28.981653,46.9936]]]}},{"type":"Feature","properties":{"tip":"stream","nume":null,"m":764.0},"geometry":{"type":"MultiLineString","coordinates":[[[28.964736,47.005393],[28.965136,47.004752],[28.965855,47.003415],[28.966203,47.002345],[28.966339,47.002174],[28.966786,47.001966],[28.966998,47.000321],[28.967287,46.99976],[28.967622,46.998951]]]}}]}