{"type":"FeatureCollection","xy_coordinate_resolution":1e-06,"features":[{"type":"Feature","properties":{"tip":"substation","nume":"PDC-22 \"Cazangerie\"","operator":null},"geometry":{"type":"MultiPolygon","coordinates":[[[[28.913754,46.974508],[28.91411,46.974079],[28.914223,46.974123],[28.914797,46.974343],[28.914782,46.974362],[28.914771,46.974377],[28.914755,46.974398],[28.914464,46.974783],[28.914217,46.974687],[28.914181,46.974673],[28.914137,46.974656],[28.913754,46.974508]]]]}},{"type":"Feature","properties":{"tip":"substation","nume":"PDC-17 „Bubuieci”","operator":null},"geometry":{"type":"MultiPolygon","coordinates":[[[[28.930641,46.984231],[28.930482,46.984431],[28.930407,46.984403],[28.930182,46.98432],[28.930112,46.984294],[28.93026,46.984108],[28.930355,46.983989],[28.93056,46.984064],[28.930725,46.984125],[28.93067,46.984195],[28.930655,46.984214],[28.930641,46.984231]]]]}},{"type":"Feature","properties":{"tip":"substation","nume":null,"operator":null},"geometry":{"type":"MultiPolygon","coordinates":[[[[28.958676,46.968741],[28.958592,46.968739],[28.958595,46.96867],[28.958679,46.968672],[28.958676,46.968741]]]]}},{"type":"Feature","properties":{"tip":"substation","nume":null,"operator":null},"geometry":{"type":"MultiPolygon","coordinates":[[[[28.91701,46.969292],[28.917051,46.96925],[28.917105,46.969274],[28.917065,46.969316],[28.91701,46.969292]]]]}},{"type":"Feature","properties":{"tip":"plant","nume":"Parc fotovoltaic","operator":null},"geometry":{"type":"MultiPolygon","coordinates":[[[[28.951975,46.973149],[28.952306,46.973196],[28.951254,46.976699],[28.950922,46.976653],[28.951975,46.973149]]]]}},{"type":"Feature","properties":{"tip":"plant","nume":"Parc fotovoltaic","operator":null},"geometry":{"type":"MultiPolygon","coordinates":[[[[28.925465,46.977682],[28.926327,46.977718],[28.925229,46.979043],[28.924548,46.978722],[28.925465,46.977682]]]]}},{"type":"Feature","properties":{"tip":"substation","nume":null,"operator":null},"geometry":{"type":"MultiPolygon","coordinates":[[[[28.935659,46.993291],[28.935574,46.993297],[28.935565,46.99324],[28.93565,46.993234],[28.935659,46.993291]]]]}}]}