{"type":"FeatureCollection","xy_coordinate_resolution":1e-06,"features":[{"type":"Feature","properties":{"tip":"line","nume":null,"operator":null,"m":361.0},"geometry":{"type":"MultiLineString","coordinates":[[[28.930267,46.984255],[28.930185,46.984347],[28.929043,46.985082],[28.927823,46.985653],[28.926499,46.986178],[28.926487,46.986171]]]}},{"type":"Feature","properties":{"tip":"line","nume":null,"operator":null,"m":40.0},"geometry":{"type":"MultiLineString","coordinates":[[[28.942718,47.008578],[28.942333,47.008327]]]}},{"type":"Feature","properties":{"tip":"line","nume":null,"operator":null,"m":5186.0},"geometry":{"type":"MultiLineString","coordinates":[[[28.915731,46.969306],[28.917429,46.970161],[28.918159,46.970526],[28.91872,46.970793],[28.920101,46.970738],[28.921174,46.969274],[28.922219,46.968361],[28.923328,46.967391],[28.924397,46.966457],[28.925647,46.965334],[28.926824,46.964315],[28.927932,46.963356],[28.928992,46.962439],[28.930112,46.961459],[28.931338,46.960388],[28.93219,46.959642],[28.933618,46.958394],[28.934984,46.957199],[28.936025,46.956288],[28.939254,46.957192],[28.940541,46.955927],[28.94144,46.955042],[28.942438,46.954062],[28.943471,46.951902],[28.944377,46.950863],[28.944818,46.950357],[28.945265,46.949845],[28.945941,46.949048],[28.946578,46.948304],[28.948173,46.948107],[28.949399,46.947124],[28.950858,46.945954],[28.952754,46.945394],[28.953447,46.94519]],[[28.953703,46.945403],[28.95437,46.946376],[28.955216,46.947666],[28.956595,46.947849],[28.958053,46.948042],[28.958891,46.948153]],[[28.961347,46.94848],[28.962275,46.948611],[28.962703,46.948671]],[[28.963013,46.948715],[28.963086,46.948725],[28.96375,46.948811]]]}},{"type":"Feature","properties":{"tip":"line","nume":null,"operator":null,"m":4724.0},"geometry":{"type":"MultiLineString","coordinates":[[[28.949938,46.94249],[28.949594,46.942965],[28.948598,46.943833],[28.947739,46.944583],[28.946578,46.945594],[28.945705,46.946385],[28.946071,46.946976],[28.944769,46.948072],[28.943587,46.949125],[28.94264,46.94997],[28.941488,46.951007],[28.940306,46.952054],[28.93913,46.953104],[28.937919,46.954178],[28.936793,46.955176],[28.93563,46.956206],[28.934611,46.95711],[28.933331,46.958245],[28.932301,46.959158],[28.931333,46.960016],[28.930228,46.960995],[28.929476,46.961662],[28.928426,46.962624],[28.927308,46.963615],[28.926246,46.964557],[28.925207,46.965477],[28.924072,46.966483],[28.923202,46.967253],[28.921999,46.968292],[28.921147,46.969043],[28.919829,46.9702],[28.918635,46.971249],[28.917254,46.972641],[28.916147,46.973755],[28.915118,46.974792],[28.914148,46.975769],[28.913471,46.976453]]]}},{"type":"Feature","properties":{"tip":"line","nume":null,"operator":null,"m":113.0},"geometry":{"type":"MultiLineString","coordinates":[[[28.914096,46.974281],[28.913878,46.974235],[28.913117,46.974039],[28.912695,46.973939]]]}},{"type":"Feature","properties":{"tip":"line","nume":null,"operator":null,"m":6839.0},"geometry":{"type":"MultiLineString","coordinates":[[[28.930267,46.984441],[28.930749,46.985081],[28.932157,46.985128],[28.934248,46.986043],[28.936425,46.987008],[28.938349,46.987861],[28.940255,46.988698],[28.942352,46.98961],[28.944398,46.990542],[28.946589,46.990744],[28.949532,46.991061],[28.950957,46.990055],[28.952632,46.988897],[28.954399,46.987675],[28.955727,46.986757],[28.957055,46.985839],[28.959294,46.986318],[28.961533,46.986797],[28.964014,46.987327],[28.966886,46.987942],[28.968625,46.987479],[28.97065,46.986939],[28.972617,46.986415],[28.976863,46.9853],[28.978811,46.984542],[28.980866,46.983751],[28.982915,46.982962],[28.984719,46.98227],[28.986942,46.981416],[28.989654,46.980373],[28.990861,46.979902],[28.990864,46.9799]],[[28.991025,46.979839],[28.992129,46.979416],[28.993569,46.968085],[28.992711,46.967029],[28.992597,46.966889]]]}},{"type":"Feature","properties":{"tip":"line","nume":null,"operator":null,"m":1193.0},"geometry":{"type":"MultiLineString","coordinates":[[[28.990861,46.979902],[28.991343,46.980811],[28.991897,46.981825],[28.99246,46.98285],[28.992926,46.983705],[28.993303,46.984421],[28.994188,46.986035],[28.994972,46.987473],[28.995774,46.988978],[28.99622,46.989804],[28.996318,46.989965]]]}},{"type":"Feature","properties":{"tip":"minor_line","nume":null,"operator":null,"m":567.0},"geometry":{"type":"MultiLineString","coordinates":[[[28.971897,46.950029],[28.972043,46.95028],[28.971891,46.950769],[28.971783,46.951211],[28.971619,46.951741],[28.971491,46.952251],[28.971357,46.952749],[28.971208,46.953235],[28.971062,46.953724],[28.970966,46.954138],[28.970834,46.954604],[28.970706,46.955023]]]}},{"type":"Feature","properties":{"tip":"minor_line","nume":null,"operator":null,"m":1513.0},"geometry":{"type":"MultiLineString","coordinates":[[[28.930495,46.984068],[28.930652,46.983851],[28.930703,46.982749],[28.930761,46.982317],[28.930827,46.981874],[28.930897,46.981403],[28.931002,46.980992],[28.931291,46.980627],[28.931621,46.98026],[28.931948,46.979898],[28.932299,46.979503],[28.932657,46.979105],[28.933002,46.978722],[28.93334,46.978347],[28.933619,46.978037],[28.933775,46.977986],[28.934092,46.978032],[28.934172,46.978063],[28.934776,46.97811],[28.935454,46.97814],[28.935886,46.978146],[28.93628,46.978167],[28.936814,46.978191],[28.937375,46.978217],[28.937895,46.97824],[28.938513,46.978268],[28.939038,46.978279],[28.939514,46.978297],[28.939861,46.978311],[28.940305,46.978248],[28.940427,46.978232],[28.94069,46.978242],[28.941429,46.978265],[28.942227,46.978284],[28.94274,46.978372],[28.942916,46.978325],[28.943307,46.978324],[28.943818,46.978304]]]}},{"type":"Feature","properties":{"tip":"minor_line","nume":null,"operator":null,"m":499.0},"geometry":{"type":"MultiLineString","coordinates":[[[28.957462,46.948139],[28.958078,46.948232],[28.958773,46.948334],[28.95942,46.948431],[28.959829,46.948436],[28.96045,46.948525],[28.961186,46.948626],[28.961759,46.948724],[28.962231,46.94879],[28.962811,46.94887],[28.963377,46.948942],[28.963879,46.949009]]]}},{"type":"Feature","properties":{"tip":"minor_line","nume":null,"operator":null,"m":249.0},"geometry":{"type":"MultiLineString","coordinates":[[[28.934172,46.978063],[28.934729,46.977892],[28.935212,46.977625],[28.935538,46.977365],[28.935771,46.976327]]]}},{"type":"Feature","properties":{"tip":"minor_line","nume":null,"operator":null,"m":1573.0},"geometry":{"type":"MultiLineString","coordinates":[[[28.930393,46.984048],[28.930435,46.983877],[28.930202,46.983557],[28.930494,46.982148],[28.930647,46.98148],[28.930778,46.980894],[28.930902,46.980282],[28.93104,46.979678],[28.931182,46.979041],[28.931317,46.978352],[28.931413,46.97772],[28.927302,46.97765],[28.926373,46.977619],[28.925512,46.977609],[28.924657,46.977587],[28.92398,46.97728],[28.923334,46.976975],[28.922532,46.976615],[28.922009,46.976364],[28.921345,46.976068],[28.920907,46.975849]]]}},{"type":"Feature","properties":{"tip":"minor_line","nume":null,"operator":null,"m":222.0},"geometry":{"type":"MultiLineString","coordinates":[[[28.971062,46.953724],[28.971535,46.953963],[28.97367,46.954608]]]}},{"type":"Feature","properties":{"tip":"minor_line","nume":null,"operator":null,"m":16.0},"geometry":{"type":"MultiLineString","coordinates":[[[28.962371,46.948724],[28.962376,46.948577]]]}},{"type":"Feature","properties":{"tip":"minor_line","nume":null,"operator":null,"m":2210.0},"geometry":{"type":"MultiLineString","coordinates":[[[28.958628,46.968707],[28.958534,46.968563],[28.958491,46.968265],[28.959223,46.968034],[28.959722,46.967884],[28.960271,46.966495],[28.960853,46.966486],[28.961496,46.966473],[28.962253,46.966458],[28.962929,46.966443],[28.963623,46.96643],[28.963852,46.96633],[28.964343,46.966336],[28.964914,46.966341],[28.965638,46.966346],[28.966345,46.966352],[28.967066,46.966356],[28.967765,46.966363],[28.9702,46.962906],[28.970586,46.960829],[28.970937,46.958873],[28.970071,46.957195],[28.970706,46.955023]]]}},{"type":"Feature","properties":{"tip":"minor_line","nume":null,"operator":"Societatea cu Răspundere Limitată „Premier Energy”","m":6.0},"geometry":{"type":"MultiLineString","coordinates":[[[28.977361,46.994634],[28.97743,46.994611]]]}},{"type":"Feature","properties":{"tip":"minor_line","nume":null,"operator":"Societatea cu Răspundere Limitată „Premier Energy”","m":816.0},"geometry":{"type":"MultiLineString","coordinates":[[[28.97743,46.994611],[28.978057,46.994463],[28.978709,46.994286],[28.979333,46.994114],[28.98003,46.993922],[28.980729,46.993731],[28.981408,46.993545],[28.982101,46.993354],[28.98274,46.993175],[28.983477,46.992976],[28.983729,46.99344],[28.983975,46.993902],[28.98421,46.99434],[28.984471,46.994849],[28.984772,46.995328],[28.98496,46.995624]],[[28.986354,46.997782],[28.986384,46.997828]]]}},{"type":"Feature","properties":{"tip":"minor_line","nume":null,"operator":null,"m":116.0},"geometry":{"type":"MultiLineString","coordinates":[[[28.929937,46.985801],[28.929349,46.98606],[28.928861,46.986294],[28.928655,46.986369]]]}},{"type":"Feature","properties":{"tip":"minor_line","nume":null,"operator":null,"m":531.0},"geometry":{"type":"MultiLineString","coordinates":[[[28.917061,46.969286],[28.917061,46.969365],[28.917201,46.969695],[28.917521,46.970135],[28.917882,46.970624],[28.918249,46.97114],[28.918512,46.971496],[28.918786,46.971883],[28.919108,46.972332],[28.919478,46.972813],[28.920079,46.973157],[28.92032,46.973298],[28.920476,46.973269]]]}},{"type":"Feature","properties":{"tip":"minor_line","nume":null,"operator":null,"m":522.0},"geometry":{"type":"MultiLineString","coordinates":[[[28.920476,46.973269],[28.920151,46.973086],[28.919617,46.972775],[28.919236,46.97229],[28.918933,46.971873],[28.918598,46.971409],[28.91833,46.971051],[28.918056,46.970677],[28.91797,46.970394],[28.917732,46.97024],[28.917394,46.96979],[28.917061,46.969286]]]}},{"type":"Feature","properties":{"tip":"minor_line","nume":null,"operator":null,"m":249.0},"geometry":{"type":"MultiLineString","coordinates":[[[28.914096,46.974281],[28.913574,46.974472],[28.913905,46.974652],[28.91444,46.974875],[28.914047,46.975372],[28.913693,46.97576],[28.91362,46.975836]]]}},{"type":"Feature","properties":{"tip":"line","nume":null,"operator":null,"m":175.0},"geometry":{"type":"MultiLineString","coordinates":[[[28.974048,46.950672],[28.974019,46.950363],[28.974314,46.949342],[28.974375,46.949123]]]}},{"type":"Feature","properties":{"tip":"line","nume":null,"operator":null,"m":19.0},"geometry":{"type":"MultiLineString","coordinates":[[[28.930362,46.984283],[28.930267,46.984441]]]}}]}