{"type":"FeatureCollection","xy_coordinate_resolution":1e-06,"features":[{"type":"Feature","properties":{"tip":"police","nume":"Sectorul de Poliție Bubuieci","strada":"Strada Toader Bubuiog","nr":"28","program":null,"tel":null,"web":null},"geometry":{"type":"Point","coordinates":[28.939054,46.984111]}},{"type":"Feature","properties":{"tip":"post_box","nume":null,"strada":null,"nr":null,"program":null,"tel":null,"web":null},"geometry":{"type":"Point","coordinates":[28.939057,46.984045]}},{"type":"Feature","properties":{"tip":"artwork","nume":"Ștefan cel Mare și Sfânt","strada":null,"nr":null,"program":null,"tel":null,"web":null},"geometry":{"type":"Point","coordinates":[28.938597,46.983991]}},{"type":"Feature","properties":{"tip":"fast_food","nume":"Arabic Kebab","strada":"Strada Toader Bubuiog","nr":"26/A","program":null,"tel":null,"web":null},"geometry":{"type":"Point","coordinates":[28.937543,46.98403]}},{"type":"Feature","properties":{"tip":"car_repair","nume":"Dezmembrare auto","strada":"Strada Gospodarilor","nr":"9/B","program":null,"tel":"060544444","web":null},"geometry":{"type":"Point","coordinates":[28.938427,46.972604]}},{"type":"Feature","properties":{"tip":"supermarket","nume":"Fidesco","strada":"Strada Ștefan cel Mare și Sfânt","nr":"29/1","program":"Mo-Su 08:00-23:00","tel":null,"web":"https://fidesco.md/"},"geometry":{"type":"Point","coordinates":[28.933239,46.983218]}},{"type":"Feature","properties":{"tip":"farm","nume":"Fructe & Legume","strada":"Strada Toader Bubuiog","nr":"1/B","program":null,"tel":null,"web":null},"geometry":{"type":"Point","coordinates":[28.931073,46.98447]}},{"type":"Feature","properties":{"tip":"convenience","nume":"Alimentară","strada":"Strada Toader Bubuiog","nr":"1/A","program":null,"tel":null,"web":null},"geometry":{"type":"Point","coordinates":[28.931332,46.984248]}},{"type":"Feature","properties":{"tip":"convenience","nume":"Deniadi","strada":"Strada Ștefan cel Mare și Sfânt","nr":"28/3","program":null,"tel":null,"web":null},"geometry":{"type":"Point","coordinates":[28.933384,46.983268]}},{"type":"Feature","properties":{"tip":"convenience","nume":"Namarin","strada":"Strada Grădinarilor","nr":"81","program":null,"tel":null,"web":null},"geometry":{"type":"Point","coordinates":[28.936601,46.963293]}},{"type":"Feature","properties":{"tip":"convenience","nume":"Alimentară „Garbuzov Victor”","strada":"Strada Grădinarilor","nr":null,"program":null,"tel":null,"web":null},"geometry":{"type":"Point","coordinates":[28.950295,46.944196]}},{"type":"Feature","properties":{"tip":"convenience","nume":"Sanda","strada":"Strada Miorița","nr":"22/B","program":null,"tel":null,"web":null},"geometry":{"type":"Point","coordinates":[28.93546,46.980563]}},{"type":"Feature","properties":{"tip":"convenience","nume":"Alimentară","strada":"Strada Toader Bubuiog","nr":"73","program":null,"tel":null,"web":null},"geometry":{"type":"Point","coordinates":[28.946624,46.984693]}},{"type":"Feature","properties":{"tip":"convenience","nume":"Alimentara „Iraden”","strada":"Strada Toader Bubuiog","nr":"19","program":null,"tel":null,"web":null},"geometry":{"type":"Point","coordinates":[28.935421,46.984119]}},{"type":"Feature","properties":{"tip":"bakery","nume":"Food SHop","strada":"Strada Toader Bubuiog","nr":"29/A","program":null,"tel":null,"web":null},"geometry":{"type":"Point","coordinates":[28.938133,46.984234]}},{"type":"Feature","properties":{"tip":"cafe","nume":"Crisandix","strada":"Strada Grigore Vieru","nr":"28","program":null,"tel":null,"web":null},"geometry":{"type":"Point","coordinates":[28.935398,46.995002]}},{"type":"Feature","properties":{"tip":"convenience","nume":"Alimentară","strada":"Strada Sfînta Marie","nr":null,"program":null,"tel":null,"web":null},"geometry":{"type":"Point","coordinates":[28.943929,46.984632]}},{"type":"Feature","properties":{"tip":"convenience","nume":"Zagaican","strada":"Strada Sfântul Andrei","nr":"2/A","program":null,"tel":null,"web":null},"geometry":{"type":"Point","coordinates":[28.934672,46.996275]}},{"type":"Feature","properties":{"tip":"cafe","nume":"Gastromafia","strada":"Strada Toader Bubuiog","nr":"1/C","program":null,"tel":null,"web":null},"geometry":{"type":"Point","coordinates":[28.930851,46.98471]}},{"type":"Feature","properties":{"tip":"supermarket","nume":"Linella","strada":"Strada Toader Bubuiog","nr":"2/A","program":"Mo-Su 8:00-22:00","tel":null,"web":"https://www.linella.md/"},"geometry":{"type":"Point","coordinates":[28.931816,46.983711]}},{"type":"Feature","properties":{"tip":"payment_terminal","nume":"Qiwi Terminal 130 Bubuieci","strada":null,"nr":null,"program":"8:00-22:00","tel":null,"web":null},"geometry":{"type":"Point","coordinates":[28.93807,46.987558]}},{"type":"Feature","properties":{"tip":"payment_terminal","nume":"Qiwi Terminal 26 Bubuieci Camelot","strada":null,"nr":null,"program":"9:00-18:00","tel":null,"web":null},"geometry":{"type":"Point","coordinates":[28.930974,46.983978]}},{"type":"Feature","properties":{"tip":"payment_terminal","nume":"Qiwi Terminal 11 Rovalsis","strada":null,"nr":null,"program":"8:00-22:00","tel":null,"web":null},"geometry":{"type":"Point","coordinates":[28.936662,46.963259]}},{"type":"Feature","properties":{"tip":"payment_terminal","nume":"Qiwi Terminal 10 Bubuioc Bubuieci","strada":null,"nr":null,"program":"8:00-22:00","tel":null,"web":null},"geometry":{"type":"Point","coordinates":[28.937654,46.984008]}},{"type":"Feature","properties":{"tip":"payment_terminal","nume":"Qiwi Terminal 2 Muntenia Bubuieci","strada":null,"nr":null,"program":"8:00-22:00","tel":null,"web":null},"geometry":{"type":"Point","coordinates":[28.933079,46.982456]}},{"type":"Feature","properties":{"tip":"pharmacy","nume":"Elody","strada":"Strada Toader Bubuiog","nr":"31/B","program":"Mo-Su 08:00-20:00","tel":"+373 22 415 957","web":"https://farmacie.md"},"geometry":{"type":"Point","coordinates":[28.937959,46.984256]}},{"type":"Feature","properties":{"tip":"parking","nume":null,"strada":null,"nr":null,"program":null,"tel":null,"web":null},"geometry":{"type":"Point","coordinates":[28.940169,46.958358]}},{"type":"Feature","properties":{"tip":"convenience","nume":"Alimentară","strada":"Strada Grădinarilor","nr":"101","program":null,"tel":null,"web":null},"geometry":{"type":"Point","coordinates":[28.940276,46.958261]}},{"type":"Feature","properties":{"tip":"convenience","nume":"Alimentară","strada":"Strada Mihai Eminescu","nr":"12/B","program":"Tu-Su 09:00-13:00, 15:00-21:00","tel":null,"web":null},"geometry":{"type":"Point","coordinates":[28.945417,46.990572]}},{"type":"Feature","properties":{"tip":"parking","nume":null,"strada":null,"nr":null,"program":null,"tel":null,"web":null},"geometry":{"type":"Point","coordinates":[28.930038,46.986221]}},{"type":"Feature","properties":{"tip":"fast_food","nume":"Tuk Tuk Kebab","strada":"Strada Toader Bubuiog","nr":"1/C","program":null,"tel":null,"web":null},"geometry":{"type":"Point","coordinates":[28.931296,46.98489]}},{"type":"Feature","properties":{"tip":"events_venue","nume":"Sala de Nunți „Cascada”","strada":"Strada Toader Bubuiog","nr":"1/C","program":null,"tel":null,"web":null},"geometry":{"type":"Point","coordinates":[28.930796,46.984857]}},{"type":"Feature","properties":{"tip":"hairdresser","nume":"Art Stil","strada":"Strada Toader Bubuiog","nr":"1/B","program":null,"tel":null,"web":null},"geometry":{"type":"Point","coordinates":[28.930996,46.984568]}},{"type":"Feature","properties":{"tip":"parking","nume":null,"strada":null,"nr":null,"program":null,"tel":null,"web":null},"geometry":{"type":"Point","coordinates":[28.931869,46.983831]}},{"type":"Feature","properties":{"tip":"pharmacy","nume":"Farmacia Familiei","strada":"Strada Toader Bubuiog","nr":"2/A","program":null,"tel":null,"web":null},"geometry":{"type":"Point","coordinates":[28.931991,46.983712]}},{"type":"Feature","properties":{"tip":"parking","nume":null,"strada":null,"nr":null,"program":null,"tel":null,"web":null},"geometry":{"type":"Point","coordinates":[28.930072,46.985699]}},{"type":"Feature","properties":{"tip":"supermarket","nume":"Local","strada":"Strada Toader Bubuiog","nr":"2/H","program":null,"tel":null,"web":null},"geometry":{"type":"Point","coordinates":[28.930236,46.984764]}},{"type":"Feature","properties":{"tip":"convenience","nume":"Alimentară","strada":"Strada Grădinarilor","nr":"29","program":null,"tel":null,"web":null},"geometry":{"type":"Point","coordinates":[28.930912,46.967584]}},{"type":"Feature","properties":{"tip":"convenience","nume":"Alimentară","strada":"Strada Ștefan cel Mare și Sfânt","nr":"20","program":null,"tel":null,"web":null},"geometry":{"type":"Point","coordinates":[28.942678,46.978282]}},{"type":"Feature","properties":{"tip":"hardware","nume":"Danvaldor","strada":"Strada Gospodarilor","nr":"3/A","program":null,"tel":null,"web":null},"geometry":{"type":"Point","coordinates":[28.937095,46.973369]}},{"type":"Feature","properties":{"tip":"furniture","nume":"Moldmobila","strada":"Strada Ștefan cel Mare și Sfânt","nr":"19/A","program":null,"tel":"069139250","web":"http://moldmobila.md/"},"geometry":{"type":"Point","coordinates":[28.931552,46.980806]}},{"type":"Feature","properties":{"tip":"car_repair","nume":"Service Auto","strada":"Strada Gospodarilor","nr":null,"program":null,"tel":null,"web":null},"geometry":{"type":"Point","coordinates":[28.932367,46.978875]}},{"type":"Feature","properties":{"tip":"car_repair","nume":"Auto Service","strada":"Strada Gospodarilor","nr":null,"program":null,"tel":null,"web":null},"geometry":{"type":"Point","coordinates":[28.930603,46.983565]}},{"type":"Feature","properties":{"tip":"parking","nume":null,"strada":null,"nr":null,"program":null,"tel":null,"web":null},"geometry":{"type":"Point","coordinates":[28.930963,46.984243]}},{"type":"Feature","properties":{"tip":"cafe","nume":"Camelot","strada":"Strada Toader Bubuiog","nr":"2/G","program":null,"tel":null,"web":null},"geometry":{"type":"Point","coordinates":[28.930922,46.984036]}},{"type":"Feature","properties":{"tip":"parking","nume":null,"strada":null,"nr":null,"program":null,"tel":null,"web":null},"geometry":{"type":"Point","coordinates":[28.930423,46.9846]}},{"type":"Feature","properties":{"tip":"car_repair","nume":"Pecos Auto","strada":"Strada Gospodarilor","nr":"43","program":null,"tel":null,"web":null},"geometry":{"type":"Point","coordinates":[28.929998,46.984637]}},{"type":"Feature","properties":{"tip":"car_repair","nume":"Buga Prim","strada":"Strada Toader Bubuiog","nr":null,"program":null,"tel":null,"web":null},"geometry":{"type":"Point","coordinates":[28.929998,46.985127]}},{"type":"Feature","properties":{"tip":"car_repair","nume":"Renault Megane Service","strada":"Strada Gospodarilor","nr":null,"program":null,"tel":null,"web":null},"geometry":{"type":"Point","coordinates":[28.928943,46.98586]}},{"type":"Feature","properties":{"tip":"car_repair","nume":"Auto Service","strada":"Strada Toader Bubuiog","nr":null,"program":null,"tel":null,"web":null},"geometry":{"type":"Point","coordinates":[28.92946,46.98522]}},{"type":"Feature","properties":{"tip":"restaurant","nume":"Muntenia","strada":"Strada Ștefan cel Mare și Sfânt","nr":"23/A","program":null,"tel":null,"web":null},"geometry":{"type":"Point","coordinates":[28.933059,46.982498]}},{"type":"Feature","properties":{"tip":"chemist","nume":"Zolușca","strada":"Strada Ștefan cel Mare și Sfânt","nr":"23/A","program":null,"tel":null,"web":null},"geometry":{"type":"Point","coordinates":[28.933109,46.982401]}},{"type":"Feature","properties":{"tip":"butcher","nume":"Carne","strada":"Strada Toader Bubuiog","nr":"2/1","program":null,"tel":null,"web":null},"geometry":{"type":"Point","coordinates":[28.932769,46.983518]}},{"type":"Feature","properties":{"tip":"bench","nume":null,"strada":null,"nr":null,"program":null,"tel":null,"web":null},"geometry":{"type":"Point","coordinates":[28.935528,46.967391]}},{"type":"Feature","properties":{"tip":"bench","nume":null,"strada":null,"nr":null,"program":null,"tel":null,"web":null},"geometry":{"type":"Point","coordinates":[28.935832,46.967456]}},{"type":"Feature","properties":{"tip":"bench","nume":null,"strada":null,"nr":null,"program":null,"tel":null,"web":null},"geometry":{"type":"Point","coordinates":[28.936196,46.967547]}},{"type":"Feature","properties":{"tip":"post_office","nume":"Nova Post Bubuieci","strada":"Strada Toader Bubuiog","nr":"48","program":null,"tel":null,"web":null},"geometry":{"type":"Point","coordinates":[28.943557,46.98418]}},{"type":"Feature","properties":{"tip":"cafe","nume":"Coffeein","strada":"Strada Toader Bubuiog","nr":"22/A","program":null,"tel":null,"web":null},"geometry":{"type":"Point","coordinates":[28.93616,46.983933]}},{"type":"Feature","properties":{"tip":"farm","nume":"Fructe & Legume","strada":"Strada Toader Bubuiog","nr":null,"program":null,"tel":null,"web":null},"geometry":{"type":"Point","coordinates":[28.937891,46.984216]}},{"type":"Feature","properties":{"tip":"hairdresser","nume":"Frizerie","strada":"Strada Toader Bubuiog","nr":"31/B","program":null,"tel":null,"web":null},"geometry":{"type":"Point","coordinates":[28.937994,46.9843]}},{"type":"Feature","properties":{"tip":"alcohol","nume":"Beer Shop","strada":"Strada Toader Bubuiog","nr":"29/A","program":null,"tel":null,"web":null},"geometry":{"type":"Point","coordinates":[28.93807,46.984236]}},{"type":"Feature","properties":{"tip":"hardware","nume":"Magazin de materiale pentru construcții","strada":"Strada Toader Bubuiog","nr":"27/A","program":null,"tel":null,"web":null},"geometry":{"type":"Point","coordinates":[28.937605,46.984232]}},{"type":"Feature","properties":{"tip":"artwork","nume":"În memoria Eroilor din comuna Bubuieci căzuți în al II-lea Război Mondial 1941-1945","strada":null,"nr":null,"program":null,"tel":null,"web":null},"geometry":{"type":"Point","coordinates":[28.938859,46.984361]}},{"type":"Feature","properties":{"tip":"library","nume":"Biblioteca Publică Bubuieci","strada":"Strada Toader Bubuiog","nr":"28","program":null,"tel":null,"web":null},"geometry":{"type":"Point","coordinates":[28.938764,46.984119]}},{"type":"Feature","properties":{"tip":"post_office","nume":"Oficiul Poștal Bubuieci MD-2081","strada":"Strada Toader Bubuiog","nr":"28","program":null,"tel":null,"web":null},"geometry":{"type":"Point","coordinates":[28.939108,46.984017]}},{"type":"Feature","properties":{"tip":"butcher","nume":"Floreni","strada":"Strada Toader Bubuiog","nr":"28/A","program":null,"tel":null,"web":null},"geometry":{"type":"Point","coordinates":[28.939092,46.984169]}},{"type":"Feature","properties":{"tip":"hairdresser","nume":"Salon de Frumusețe","strada":"Strada Toader Bubuiog","nr":"28/C","program":null,"tel":null,"web":null},"geometry":{"type":"Point","coordinates":[28.93888,46.984172]}},{"type":"Feature","properties":{"tip":"convenience","nume":"Magazin Universal","strada":"Strada Toader Bubuiog","nr":"26/B","program":null,"tel":null,"web":null},"geometry":{"type":"Point","coordinates":[28.937696,46.984024]}},{"type":"Feature","properties":{"tip":"convenience","nume":"Alimentară","strada":null,"nr":null,"program":null,"tel":null,"web":null},"geometry":{"type":"Point","coordinates":[28.936634,46.984192]}},{"type":"Feature","properties":{"tip":"car_repair","nume":"Auto Service","strada":"Strada Ștefan cel Mare și Sfânt","nr":null,"program":null,"tel":null,"web":null},"geometry":{"type":"Point","coordinates":[28.946051,46.976667]}},{"type":"Feature","properties":{"tip":"convenience","nume":"Alimentară","strada":"Strada Vasile Alecsandri","nr":"20","program":null,"tel":null,"web":null},"geometry":{"type":"Point","coordinates":[28.938244,46.987608]}},{"type":"Feature","properties":{"tip":"parking","nume":null,"strada":null,"nr":null,"program":null,"tel":null,"web":null},"geometry":{"type":"Point","coordinates":[28.933468,46.993345]}},{"type":"Feature","properties":{"tip":"parking_entrance","nume":null,"strada":null,"nr":null,"program":null,"tel":null,"web":null},"geometry":{"type":"Point","coordinates":[28.933694,46.99323]}},{"type":"Feature","properties":{"tip":"hairdresser","nume":"Agache Beauty Barber Studio","strada":"Strada Grigore Vieru","nr":"11/A","program":null,"tel":"060208130","web":null},"geometry":{"type":"Point","coordinates":[28.934321,46.992917]}},{"type":"Feature","properties":{"tip":"convenience","nume":"Exidor","strada":"Strada Grigore Vieru","nr":"14","program":null,"tel":null,"web":null},"geometry":{"type":"Point","coordinates":[28.934881,46.993058]}},{"type":"Feature","properties":{"tip":"farm","nume":"Diva Fruct","strada":"Strada Ștefan cel Mare și Sfânt","nr":null,"program":null,"tel":null,"web":null},"geometry":{"type":"Point","coordinates":[28.932742,46.983444]}},{"type":"Feature","properties":{"tip":"cafe","nume":"Ceai & Cafea","strada":"Strada Toader Bubuiog","nr":"1/B","program":null,"tel":null,"web":null},"geometry":{"type":"Point","coordinates":[28.931055,46.984492]}},{"type":"Feature","properties":{"tip":"butcher","nume":"Floreni","strada":"Strada Toader Bubuiog","nr":"1/B","program":null,"tel":null,"web":null},"geometry":{"type":"Point","coordinates":[28.931036,46.984516]}},{"type":"Feature","properties":{"tip":"convenience","nume":"JLC","strada":"Strada Toader Bubuiog","nr":"1/B","program":null,"tel":null,"web":null},"geometry":{"type":"Point","coordinates":[28.931016,46.984541]}},{"type":"Feature","properties":{"tip":"pet","nume":"Zoo","strada":"Strada Toader Bubuiog","nr":"1/B","program":null,"tel":null,"web":null},"geometry":{"type":"Point","coordinates":[28.930974,46.984594]}},{"type":"Feature","properties":{"tip":"chemist","nume":"Detergenți la robinet Mamma Terra","strada":"Strada Toader Bubuiog","nr":"1/B","program":null,"tel":null,"web":null},"geometry":{"type":"Point","coordinates":[28.930955,46.984619]}},{"type":"Feature","properties":{"tip":"tailor","nume":"Croitorie","strada":"Strada Toader Bubuiog","nr":"1/B","program":null,"tel":null,"web":null},"geometry":{"type":"Point","coordinates":[28.930936,46.984642]}},{"type":"Feature","properties":{"tip":"bureau_de_change","nume":"Schimb Valutar","strada":"Strada Toader Bubuiog","nr":"1/B","program":null,"tel":null,"web":null},"geometry":{"type":"Point","coordinates":[28.930883,46.984641]}},{"type":"Feature","properties":{"tip":"variety_store","nume":"Telemarket","strada":"Strada Toader Bubuiog","nr":"1/C","program":null,"tel":null,"web":null},"geometry":{"type":"Point","coordinates":[28.930817,46.984769]}},{"type":"Feature","properties":{"tip":"alcohol","nume":"Drink Stock","strada":"Strada Toader Bubuiog","nr":"1/C","program":null,"tel":null,"web":null},"geometry":{"type":"Point","coordinates":[28.931212,46.984885]}},{"type":"Feature","properties":{"tip":"bakery","nume":"Franzeluța","strada":"Strada Toader Bubuiog","nr":"1/C","program":null,"tel":null,"web":null},"geometry":{"type":"Point","coordinates":[28.931118,46.984871]}},{"type":"Feature","properties":{"tip":"chemist","nume":"Bonita","strada":"Strada Toader Bubuiog","nr":"1/C","program":null,"tel":null,"web":null},"geometry":{"type":"Point","coordinates":[28.931032,46.984858]}},{"type":"Feature","properties":{"tip":"butcher","nume":"Carmez","strada":"Strada Toader Bubuiog","nr":"1/C","program":null,"tel":null,"web":null},"geometry":{"type":"Point","coordinates":[28.931011,46.984743]}},{"type":"Feature","properties":{"tip":"florist","nume":"Florărie","strada":"Strada Toader Bubuiog","nr":"1/C","program":null,"tel":null,"web":null},"geometry":{"type":"Point","coordinates":[28.931033,46.984702]}},{"type":"Feature","properties":{"tip":"toys","nume":"Jucării & Birotica","strada":"Strada Toader Bubuiog","nr":"1/C","program":null,"tel":null,"web":null},"geometry":{"type":"Point","coordinates":[28.931039,46.984681]}},{"type":"Feature","properties":{"tip":"pharmacy","nume":"Peon","strada":"Strada Toader Bubuiog","nr":"1/B","program":null,"tel":null,"web":null},"geometry":{"type":"Point","coordinates":[28.931051,46.984626]}},{"type":"Feature","properties":{"tip":"butcher","nume":"Salamer","strada":"Strada Toader Bubuiog","nr":"1/B","program":null,"tel":null,"web":null},"geometry":{"type":"Point","coordinates":[28.931107,46.98456]}},{"type":"Feature","properties":{"tip":"butcher","nume":"Family Meat","strada":"Strada Toader Bubuiog","nr":"1/D","program":null,"tel":null,"web":null},"geometry":{"type":"Point","coordinates":[28.931363,46.985013]}},{"type":"Feature","properties":{"tip":"water","nume":"Apă Pură","strada":"Strada Toader Bubuiog","nr":null,"program":null,"tel":null,"web":null},"geometry":{"type":"Point","coordinates":[28.93145,46.985054]}},{"type":"Feature","properties":{"tip":"dentist","nume":"Stomatologie","strada":"Strada Grigore Vieru","nr":"11/A","program":null,"tel":null,"web":null},"geometry":{"type":"Point","coordinates":[28.934255,46.993005]}},{"type":"Feature","properties":{"tip":"tailor","nume":"Atelier de Croitorie SEWAN","strada":"Strada Toader Bubuiog","nr":"28/B","program":null,"tel":"0685 95 370","web":null},"geometry":{"type":"Point","coordinates":[28.93919,46.984071]}},{"type":"Feature","properties":{"tip":"hardware","nume":"Magazin de materiale pentru construcții","strada":"Strada Sfântul Arhanghel Mihail","nr":null,"program":null,"tel":null,"web":null},"geometry":{"type":"Point","coordinates":[28.931486,46.98555]}},{"type":"Feature","properties":{"tip":"bench","nume":null,"strada":null,"nr":null,"program":null,"tel":null,"web":null},"geometry":{"type":"Point","coordinates":[28.930613,46.985039]}},{"type":"Feature","properties":{"tip":"bench","nume":null,"strada":null,"nr":null,"program":null,"tel":null,"web":null},"geometry":{"type":"Point","coordinates":[28.93055,46.985121]}},{"type":"Feature","properties":{"tip":"bench","nume":null,"strada":null,"nr":null,"program":null,"tel":null,"web":null},"geometry":{"type":"Point","coordinates":[28.930487,46.985202]}},{"type":"Feature","properties":{"tip":"bench","nume":null,"strada":null,"nr":null,"program":null,"tel":null,"web":null},"geometry":{"type":"Point","coordinates":[28.930391,46.985326]}},{"type":"Feature","properties":{"tip":"bench","nume":null,"strada":null,"nr":null,"program":null,"tel":null,"web":null},"geometry":{"type":"Point","coordinates":[28.930301,46.985438]}},{"type":"Feature","properties":{"tip":"bench","nume":null,"strada":null,"nr":null,"program":null,"tel":null,"web":null},"geometry":{"type":"Point","coordinates":[28.930234,46.985521]}},{"type":"Feature","properties":{"tip":"convenience","nume":"Alimentară","strada":"Strada Mihai Eminescu","nr":"18","program":null,"tel":null,"web":null},"geometry":{"type":"Point","coordinates":[28.938026,46.987545]}},{"type":"Feature","properties":{"tip":"tailor","nume":"Atelier by Mary","strada":"Strada Toader Bubuiog","nr":"48","program":null,"tel":null,"web":null},"geometry":{"type":"Point","coordinates":[28.943493,46.984208]}},{"type":"Feature","properties":{"tip":"attraction","nume":"Eu Iubesc Bubuieci","strada":"Strada Toader Bubuiog","nr":null,"program":null,"tel":null,"web":null},"geometry":{"type":"Point","coordinates":[28.930435,46.985269]}},{"type":"Feature","properties":{"tip":"convenience","nume":"Alimentară","strada":"Strada Fierarilor","nr":"30/A","program":null,"tel":null,"web":null},"geometry":{"type":"Point","coordinates":[28.934311,46.998788]}},{"type":"Feature","properties":{"tip":"picnic_site","nume":null,"strada":null,"nr":null,"program":null,"tel":null,"web":null},"geometry":{"type":"Point","coordinates":[28.955308,46.999584]}},{"type":"Feature","properties":{"tip":"picnic_site","nume":null,"strada":null,"nr":null,"program":null,"tel":null,"web":null},"geometry":{"type":"Point","coordinates":[28.956882,46.999415]}}]}