{"type":"FeatureCollection","xy_coordinate_resolution":1e-06,"features":[{"type":"Feature","properties":{"tip":"substation","nume":null,"operator":null},"geometry":{"type":"Point","coordinates":[28.977361,46.994634]}},{"type":"Feature","properties":{"tip":"substation","nume":null,"operator":null},"geometry":{"type":"Point","coordinates":[28.944568,46.949866]}},{"type":"Feature","properties":{"tip":"substation","nume":null,"operator":null},"geometry":{"type":"Point","coordinates":[28.933712,46.977999]}},{"type":"Feature","properties":{"tip":"substation","nume":null,"operator":null},"geometry":{"type":"Point","coordinates":[28.943894,46.99041]}},{"type":"Feature","properties":{"tip":"substation","nume":null,"operator":null},"geometry":{"type":"Point","coordinates":[28.936653,46.967527]}},{"type":"Feature","properties":{"tip":"substation","nume":null,"operator":null},"geometry":{"type":"Point","coordinates":[28.937848,46.983814]}},{"type":"Feature","properties":{"tip":"substation","nume":null,"operator":null},"geometry":{"type":"Point","coordinates":[28.938107,46.991074]}},{"type":"Feature","properties":{"tip":"substation","nume":null,"operator":null},"geometry":{"type":"Point","coordinates":[28.944538,46.997872]}},{"type":"Feature","properties":{"tip":"substation","nume":null,"operator":null},"geometry":{"type":"Point","coordinates":[28.935108,46.995443]}},{"type":"Feature","properties":{"tip":"substation","nume":null,"operator":null},"geometry":{"type":"Point","coordinates":[28.936865,46.995477]}},{"type":"Feature","properties":{"tip":"substation","nume":null,"operator":null},"geometry":{"type":"Point","coordinates":[28.938939,46.996683]}},{"type":"Feature","properties":{"tip":"substation","nume":null,"operator":null},"geometry":{"type":"Point","coordinates":[28.92858,46.970557]}}]}