{"type":"FeatureCollection","xy_coordinate_resolution":1e-06,"features":[{"type":"Feature","properties":{"tip":"stop_position","nume":"Bubuieci - Strada Ștefan cel Mare","adapost":null},"geometry":{"type":"Point","coordinates":[28.947408,46.976635]}},{"type":"Feature","properties":{"tip":"stop_position","nume":"Strada Toader Bubuiog","adapost":null},"geometry":{"type":"Point","coordinates":[28.942553,46.984278]}},{"type":"Feature","properties":{"tip":"stop_position","nume":"Bîc - Terminus","adapost":null},"geometry":{"type":"Point","coordinates":[28.949973,46.944364]}},{"type":"Feature","properties":{"tip":"stop_position","nume":"Primăria Bubuieci","adapost":null},"geometry":{"type":"Point","coordinates":[28.938431,46.984194]}},{"type":"Feature","properties":{"tip":"bus_stop","nume":"Strada Busuiocului","adapost":null},"geometry":{"type":"Point","coordinates":[28.935207,46.995527]}},{"type":"Feature","properties":{"tip":"bus_stop","nume":"Strada Grigore Vieru","adapost":null},"geometry":{"type":"Point","coordinates":[28.930673,46.984844]}},{"type":"Feature","properties":{"tip":"stop_position","nume":"Strada Grigore Vieru","adapost":null},"geometry":{"type":"Point","coordinates":[28.93135,46.984075]}},{"type":"Feature","properties":{"tip":"stop_position","nume":"Liceul Teoretic „Toader Bubuiog“","adapost":null},"geometry":{"type":"Point","coordinates":[28.933821,46.981214]}},{"type":"Feature","properties":{"tip":"bus_stop","nume":"Primăria Bubuieci","adapost":null},"geometry":{"type":"Point","coordinates":[28.938425,46.984223]}},{"type":"Feature","properties":{"tip":"stop_position","nume":"Cimitirul Nou Bubuieci","adapost":null},"geometry":{"type":"Point","coordinates":[28.933209,46.998188]}},{"type":"Feature","properties":{"tip":"bus_stop","nume":"Bîc - Terminus","adapost":null},"geometry":{"type":"Point","coordinates":[28.950142,46.944337]}},{"type":"Feature","properties":{"tip":"bus_stop","nume":"Bubuieci - Strada Ștefan cel Mare și Sfânt","adapost":null},"geometry":{"type":"Point","coordinates":[28.947404,46.97659]}},{"type":"Feature","properties":{"tip":"bus_stop","nume":"Cimitirul Nou Bubuieci","adapost":null},"geometry":{"type":"Point","coordinates":[28.933165,46.998168]}},{"type":"Feature","properties":{"tip":"bus_stop","nume":"Humulești","adapost":null},"geometry":{"type":"Point","coordinates":[28.970932,46.99733]}},{"type":"Feature","properties":{"tip":"stop_position","nume":"Strada Grigore Vieru","adapost":null},"geometry":{"type":"Point","coordinates":[28.930598,46.98482]}},{"type":"Feature","properties":{"tip":"bus_stop","nume":"Strada Ștefan cel Mare și Sfânt, 5","adapost":null},"geometry":{"type":"Point","coordinates":[28.933781,46.979248]}},{"type":"Feature","properties":{"tip":"bus_stop","nume":null,"adapost":null},"geometry":{"type":"Point","coordinates":[28.9333,46.982653]}},{"type":"Feature","properties":{"tip":"stop_position","nume":null,"adapost":null},"geometry":{"type":"Point","coordinates":[28.933349,46.982666]}},{"type":"Feature","properties":{"tip":"bus_stop","nume":"Liceul Teoretic „Toader Bubuiog“","adapost":null},"geometry":{"type":"Point","coordinates":[28.933886,46.981446]}},{"type":"Feature","properties":{"tip":"stop_position","nume":"Liceul Teoretic „Toader Bubuiog“","adapost":null},"geometry":{"type":"Point","coordinates":[28.93382,46.981449]}},{"type":"Feature","properties":{"tip":"bus_stop","nume":"Liceul Teoretic „Toader Bubuiog“","adapost":null},"geometry":{"type":"Point","coordinates":[28.933747,46.981205]}},{"type":"Feature","properties":{"tip":"bus_stop","nume":"Strada Gospodarilor, 1","adapost":null},"geometry":{"type":"Point","coordinates":[28.935884,46.976262]}},{"type":"Feature","properties":{"tip":"bus_stop","nume":"Strada Gospodarilor, 1","adapost":null},"geometry":{"type":"Point","coordinates":[28.935779,46.976246]}},{"type":"Feature","properties":{"tip":"stop_position","nume":null,"adapost":null},"geometry":{"type":"Point","coordinates":[28.935823,46.97626]}},{"type":"Feature","properties":{"tip":"bus_stop","nume":"Biserica „Sfântul Mare Mucenic Gheorghe”","adapost":null},"geometry":{"type":"Point","coordinates":[28.937869,46.968557]}},{"type":"Feature","properties":{"tip":"stop_position","nume":"Biserica „Sfântul Mare Mucenic Gheorghe”","adapost":null},"geometry":{"type":"Point","coordinates":[28.937833,46.968649]}},{"type":"Feature","properties":{"tip":"bus_stop","nume":"Strada Toader Bubuiog","adapost":null},"geometry":{"type":"Point","coordinates":[28.942558,46.984303]}},{"type":"Feature","properties":{"tip":"stop_position","nume":"Strada Igor Vieru","adapost":null},"geometry":{"type":"Point","coordinates":[28.934097,46.990702]}},{"type":"Feature","properties":{"tip":"bus_stop","nume":"Strada Igor Vieru","adapost":null},"geometry":{"type":"Point","coordinates":[28.93404,46.990709]}},{"type":"Feature","properties":{"tip":"bus_stop","nume":"Strada Mănăstirea Humorului","adapost":null},"geometry":{"type":"Point","coordinates":[28.93456,46.992824]}},{"type":"Feature","properties":{"tip":"stop_position","nume":"Strada Mănăstirea Humorului","adapost":null},"geometry":{"type":"Point","coordinates":[28.934634,46.992821]}},{"type":"Feature","properties":{"tip":"stop_position","nume":"Strada Busuiocului","adapost":null},"geometry":{"type":"Point","coordinates":[28.935321,46.995528]}},{"type":"Feature","properties":{"tip":"stop_position","nume":"Strada Busuiocului","adapost":null},"geometry":{"type":"Point","coordinates":[28.935167,46.996145]}},{"type":"Feature","properties":{"tip":"stop_position","nume":"Strada Busuiocului","adapost":null},"geometry":{"type":"Point","coordinates":[28.935073,46.99611]}},{"type":"Feature","properties":{"tip":"bus_stop","nume":"Strada Igor Vieru","adapost":null},"geometry":{"type":"Point","coordinates":[28.934209,46.990782]}},{"type":"Feature","properties":{"tip":"stop_position","nume":"Strada Igor Vieru","adapost":null},"geometry":{"type":"Point","coordinates":[28.934121,46.990796]}},{"type":"Feature","properties":{"tip":"bus_stop","nume":"Strada Mitropolit Dosoftei","adapost":null},"geometry":{"type":"Point","coordinates":[28.932285,46.986858]}},{"type":"Feature","properties":{"tip":"stop_position","nume":"Strada Mitropolit Dosoftei","adapost":null},"geometry":{"type":"Point","coordinates":[28.932369,46.986851]}},{"type":"Feature","properties":{"tip":"bus_stop","nume":"Strada Mitropolit Dosoftei","adapost":null},"geometry":{"type":"Point","coordinates":[28.932431,46.986837]}},{"type":"Feature","properties":{"tip":"bus_stop","nume":"Strada Grigore Vieru","adapost":null},"geometry":{"type":"Point","coordinates":[28.931568,46.984928]}},{"type":"Feature","properties":{"tip":"stop_position","nume":"Strada Grigore Vieru","adapost":null},"geometry":{"type":"Point","coordinates":[28.931504,46.984948]}},{"type":"Feature","properties":{"tip":"bus_stop","nume":"Strada Grigore Vieru","adapost":null},"geometry":{"type":"Point","coordinates":[28.931303,46.984032]}},{"type":"Feature","properties":{"tip":"bus_stop","nume":"Strada Ștefan cel Mare și Sfânt, 5","adapost":null},"geometry":{"type":"Point","coordinates":[28.933642,46.979237]}},{"type":"Feature","properties":{"tip":"stop_position","nume":"Strada Ștefan cel Mare și Sfânt, 5","adapost":null},"geometry":{"type":"Point","coordinates":[28.933708,46.979246]}},{"type":"Feature","properties":{"tip":"bus_stop","nume":"Strada Livezilor","adapost":null},"geometry":{"type":"Point","coordinates":[28.937231,46.978234]}},{"type":"Feature","properties":{"tip":"stop_position","nume":"Strada Livezilor","adapost":null},"geometry":{"type":"Point","coordinates":[28.937226,46.978288]}},{"type":"Feature","properties":{"tip":"bus_stop","nume":"Strada Livezilor","adapost":null},"geometry":{"type":"Point","coordinates":[28.937219,46.978324]}},{"type":"Feature","properties":{"tip":"bus_stop","nume":"Strada Școlii","adapost":null},"geometry":{"type":"Point","coordinates":[28.940893,46.978353]}},{"type":"Feature","properties":{"tip":"stop_position","nume":"Strada Școlii","adapost":null},"geometry":{"type":"Point","coordinates":[28.940887,46.978407]}},{"type":"Feature","properties":{"tip":"bus_stop","nume":"Strada Școlii","adapost":null},"geometry":{"type":"Point","coordinates":[28.940884,46.978449]}},{"type":"Feature","properties":{"tip":"bus_stop","nume":"Strada Mihai Eminescu","adapost":null},"geometry":{"type":"Point","coordinates":[28.931562,46.984586]}},{"type":"Feature","properties":{"tip":"stop_position","nume":"Strada Mihai Eminescu","adapost":null},"geometry":{"type":"Point","coordinates":[28.93153,46.984633]}},{"type":"Feature","properties":{"tip":"bus_stop","nume":"Strada Valea Iazului","adapost":null},"geometry":{"type":"Point","coordinates":[28.935784,46.98654]}},{"type":"Feature","properties":{"tip":"stop_position","nume":"Strada Valea Iazului","adapost":null},"geometry":{"type":"Point","coordinates":[28.93574,46.986592]}},{"type":"Feature","properties":{"tip":"bus_stop","nume":"Strada Alecu Russo","adapost":null},"geometry":{"type":"Point","coordinates":[28.941932,46.98933]}},{"type":"Feature","properties":{"tip":"stop_position","nume":"Strada Alecu Russo","adapost":null},"geometry":{"type":"Point","coordinates":[28.941893,46.989366]}},{"type":"Feature","properties":{"tip":"bus_stop","nume":"Strada Dimitrie Cantemir","adapost":null},"geometry":{"type":"Point","coordinates":[28.944853,46.990473]}},{"type":"Feature","properties":{"tip":"stop_position","nume":"Strada Dimitrie Cantemir","adapost":null},"geometry":{"type":"Point","coordinates":[28.944827,46.990525]}},{"type":"Feature","properties":{"tip":"bus_stop","nume":"Strada 27 August 1989","adapost":null},"geometry":{"type":"Point","coordinates":[28.947906,46.989302]}},{"type":"Feature","properties":{"tip":"stop_position","nume":"Strada 27 August 1989","adapost":null},"geometry":{"type":"Point","coordinates":[28.947976,46.989301]}},{"type":"Feature","properties":{"tip":"bus_stop","nume":"Strada 27 August 1989, 67","adapost":null},"geometry":{"type":"Point","coordinates":[28.946081,46.986623]}},{"type":"Feature","properties":{"tip":"stop_position","nume":"Strada 27 August 1989, 67","adapost":null},"geometry":{"type":"Point","coordinates":[28.946137,46.986612]}},{"type":"Feature","properties":{"tip":"bus_stop","nume":"Strada Grădinarilor, 140","adapost":null},"geometry":{"type":"Point","coordinates":[28.942537,46.953276]}},{"type":"Feature","properties":{"tip":"stop_position","nume":"Strada Grădinarilor, 140","adapost":null},"geometry":{"type":"Point","coordinates":[28.942474,46.953265]}},{"type":"Feature","properties":{"tip":"bus_stop","nume":"Biserica „Sfântul Mare Mucenic Gheorghe”","adapost":null},"geometry":{"type":"Point","coordinates":[28.937735,46.968607]}},{"type":"Feature","properties":{"tip":"bus_stop","nume":"Strada Grădinarilor, 32","adapost":null},"geometry":{"type":"Point","coordinates":[28.932315,46.966136]}},{"type":"Feature","properties":{"tip":"stop_position","nume":"Strada Grădinarilor","adapost":null},"geometry":{"type":"Point","coordinates":[28.93244,46.966121]}},{"type":"Feature","properties":{"tip":"bus_stop","nume":"Strada Grădinarilor, 32","adapost":null},"geometry":{"type":"Point","coordinates":[28.932494,46.966148]}},{"type":"Feature","properties":{"tip":"bus_stop","nume":"Creșa-grădiniță din satul Bîc","adapost":null},"geometry":{"type":"Point","coordinates":[28.93866,46.960587]}},{"type":"Feature","properties":{"tip":"stop_position","nume":"Creșa-grădiniță din satul Bîc","adapost":null},"geometry":{"type":"Point","coordinates":[28.938774,46.960625]}},{"type":"Feature","properties":{"tip":"stop_position","nume":"Creșa-grădiniță din satul Bîc","adapost":null},"geometry":{"type":"Point","coordinates":[28.938585,46.960967]}},{"type":"Feature","properties":{"tip":"bus_stop","nume":"Creșa-grădiniță din satul Bîc","adapost":null},"geometry":{"type":"Point","coordinates":[28.938694,46.960946]}},{"type":"Feature","properties":{"tip":"bus_stop","nume":"Strada Grădinarilor, 98","adapost":null},"geometry":{"type":"Point","coordinates":[28.940198,46.95792]}},{"type":"Feature","properties":{"tip":"stop_position","nume":"Strada Grădinarilor, 98","adapost":null},"geometry":{"type":"Point","coordinates":[28.940259,46.957952]}},{"type":"Feature","properties":{"tip":"bus_stop","nume":"Strada Grădinarilor, 98","adapost":null},"geometry":{"type":"Point","coordinates":[28.940283,46.958055]}},{"type":"Feature","properties":{"tip":"stop_position","nume":"Strada Grădinarilor, 98","adapost":null},"geometry":{"type":"Point","coordinates":[28.940205,46.958049]}},{"type":"Feature","properties":{"tip":"bus_stop","nume":"Strada Grădinarilor, 140","adapost":null},"geometry":{"type":"Point","coordinates":[28.942434,46.95319]}},{"type":"Feature","properties":{"tip":"bus_stop","nume":null,"adapost":null},"geometry":{"type":"Point","coordinates":[28.944337,46.950099]}},{"type":"Feature","properties":{"tip":"stop_position","nume":"Strada Grădinarilor, 189","adapost":null},"geometry":{"type":"Point","coordinates":[28.944379,46.950144]}},{"type":"Feature","properties":{"tip":"bus_stop","nume":"Strada Grădinarilor, 189","adapost":null},"geometry":{"type":"Point","coordinates":[28.94446,46.950182]}},{"type":"Feature","properties":{"tip":"bus_stop","nume":"Strada Grădinarilor, 135","adapost":null},"geometry":{"type":"Point","coordinates":[28.946839,46.947479]}},{"type":"Feature","properties":{"tip":"bus_stop","nume":"Strada Grădinarilor, 135","adapost":null},"geometry":{"type":"Point","coordinates":[28.946772,46.947442]}},{"type":"Feature","properties":{"tip":"stop_position","nume":"Strada Grădinarilor, 135","adapost":null},"geometry":{"type":"Point","coordinates":[28.94679,46.94746]}},{"type":"Feature","properties":{"tip":"bus_stop","nume":"Strada Moldova","adapost":null},"geometry":{"type":"Point","coordinates":[28.935779,46.963705]}},{"type":"Feature","properties":{"tip":"stop_position","nume":"Strada Moldova","adapost":null},"geometry":{"type":"Point","coordinates":[28.935723,46.963662]}},{"type":"Feature","properties":{"tip":"bus_stop","nume":"Strada Moldova","adapost":null},"geometry":{"type":"Point","coordinates":[28.935753,46.9636]}},{"type":"Feature","properties":{"tip":"bus_stop","nume":"Strada Aminitirilor","adapost":null},"geometry":{"type":"Point","coordinates":[28.977096,46.994805]}},{"type":"Feature","properties":{"tip":"stop_position","nume":null,"adapost":null},"geometry":{"type":"Point","coordinates":[28.977116,46.994751]}}]}